Vendor Code,Company,Address,City,County,State,Zip
54358,D&R OFFICE WORKS INC,9956 BALDWIN PL.,EL MONTE,In LA County,California,91731
201591,"PRIMESTOR DEVELOPMENT, LLC",9950 JEFFERSON BLVD STE 2,CULVER CITY,In LA County,California,90232
181262,"SYBMAN, INC",9911 GIDLEY STREET,EL MONTE,In LA County,California,91731
189244,CS INC,9900 BELL RANCH DR STE 105,SANTA FE SPRINGS,In LA County,California,90670
204063,STC INTERPRETING INC.,9854 NATIONAL BLVD # 359,LOS ANGELES,In LA County,California,90034
191381,NEXT LEVEL HVAC ENERGY MANAGEMENT SYSTEMS,9834 NORWALK BLVD,SANTA FE SPRINGS,In LA County,California,90670
125356,SOURCEONE OFFICE PRODUCTS INC,9812 ALBURTIS AVE,SANTA FE SPGS,In LA County,California,90670
184191,KOREAN AMERICAN FEDERATION OF LOS ANGELES,981 S WESTERN AVE,LOS ANGELES,In LA County,California,90006
183355,LUIS GOMEZ,9760 JERSEY AVE APT 171,SANTA FE SPGS,In LA County,California,90670
173664,SIMPLY KLEEN USA INC,9734 VARIEL AVE,CHATSWORTH,In LA County,California,91311
175156,ASAP AUTO PARTS,9714 ARTESIA BLVD,BELLFLOWER,In LA County,California,90706
165523,"B.I.G. ENTERPRISES, INC.",9702 E. RUSH STREET,S. EL MONTE,In LA County,California,91733
155573,AIM CONSULTING SERVICES,970 S VILLAGE OAKS DRIVE STE 205,COVINA,In LA County,California,91724
155573,AIM CONSULTING SERVICES,970 S VILLAGE OAKS DR STE 205,COVINA,In LA County,California,91724
155573,AIM CONSULTING SERVICES,970 S VILLAGE OAKS DR STE 205,COVINA,In LA County,California,91724
141211,"CRIME SCENE STERI-CLEAN, LLC",9624 HERMOSA AVE,RCH CUCAMONGA,Outside of LA County,California,91730
169936,"SOTERIA HOME HEALTH AGENCY, INC",959 N. LA BREA AVENUE,INGLEWOOD,In LA County,California,90302
170101,KEVIN S ANDERSON,9530 ARTESIA BLVD #24,BELLFLOWER,In LA County,California,90706
120465,"ECOLINE INDUSTRIAL SUPPLY, INC",9520 OWENSMOUTH AVE STE 3,CHATSWORTH,In LA County,California,91311
206005,C323 INC,9519 VAN NUYS BLVD,PANORAMA CITY,In LA County,California,91402
103355,YWCA OF SAN GABRIEL VALLEY,943 NORTH GRAND AVENUE,COVINA,In LA County,California,91724
198172,US ELECTRIC MOTORS SALES,9420 STEWART AND GRAY RD,DOWNEY,In LA County,California,90241
39727,CHEM PRO LABORATORY INC,941 W. 190TH ST.,GARDENA,In LA County,California,90248
175306,"CLARITI EYEWEAR, INC.",940 AJAX AVE.,CITY OF INDUSTRY,In LA County,California,91748
165497,"MW LOYD, INC.",9363 HANNA AVE.,CHATSWORTH,In LA County,California,91311
175395,NATHAN A CLEAVER,9362 PARKSTONE CIRCLE,ROSEVILLE,Outside of LA County,California,95747
204937,NATHAN CLEAVER,9362 PARKSTONE CIR,ROSEVILLE,Outside of LA County,California,95747
174216,INTEGRATED IMAGE INC,9301 OAKDALE AVE #330,CHATSWORTH,In LA County,California,91311
114811,PPC CONSTRUCTION INC,"930 COLORADO BLVD., SUITE 3",LOS ANGELES,In LA County,California,90041
204723,AZARLY LLC,930 CALIFORNIA AVE UNIT 201,SANTA MONICA,In LA County,California,90403
142457,DEVON DORSEY,926 N WILMINGTON BL UNIT 23,WILMINGTON,In LA County,California,90744
189782,FEDERAL ONE SUPPLIES LLC,9253 1/2 CEDROS AVE,PANORAMA CITY,In LA County,California,91402
189782,FEDERAL ONE SUPPLIES LLC,9253 1/2 CEDROS AVE,PANORAMA CITY,In LA County,California,91402
520500,ADVANCED BATTERY SYSTEMS,925 W HYDE PARK BLVD,INGLEWOOD,In LA County,California,90302
62833,MIRON ELECTRIC CONSTR CORP,9238 DEERING AVE,CHATSWORTH,In LA County,California,91311
199939,PRECISION FORKLIFT SERVICE AND PARTS LLC,9226 LAUREL AVE,WHITTIER,In LA County,California,90605
35048,DAN MCCOMB,922 WEST HYDE PARK BLVD,INGLEWOOD,In LA County,California,90302
155062,UNITED GARAGE DOORS & GATES,9213 WILLIS AVE.,PANORAMA CITY,In LA County,California,91402
185258,SECURITY OPERATIONS GROUP INTERNATIONAL LLC,921 N. HARBOR BLVD,LA HABRA,Outside of LA County,California,90631
60044,MICHAEL E. POWERS & ASSOCIATES,918 W FOOTHILL BLVD,AZUSA,In LA County,California,91702
203713,GEORGE RIZKALLA,9171 WILSHIRE BLVD STE 500,BEVERLY HILLS,In LA County,California,90210
149653,TRAINING CONNECTION LLC,915 WILSHIRE BLVD SUITE 1800,LOS ANGELES,In LA County,California,90017
177589,"WENMAR, INC.",9132 JORDAN AVE,CHATSWORTH,In LA County,California,91311
165560,LORENA O CARMACK,9130 EGLISE AVE,DOWNEY,In LA County,California,90240
517390,SUPERIOR PROPERTY SERVICES INC,9129 PERKINS STREET,PICO RIVERA,In LA County,California,90660
186443,BE SOCIAL PRODUCTIONS,9100 WILSHIRE BLVD,BEVERLY HILLS,In LA County,California,90212
210380,PROLIFIC STYLES LLC,9100 S SEPULVEDA BLVD,LOS ANGELES,In LA County,California,90045
175228,"BUSINESS U, INC.",907 WESTWOOD BLVD,LOS ANGELES,In LA County,California,90024
501216,"SPECIAL SERVICE FOR GROUPS, INC.",905 E. 8TH STREET,LOS ANGELES,In LA County,California,90021
501216,"SPECIAL SERVICE FOR GROUPS, INC.",905 E. 8TH ST,LOS ANGELES,In LA County,California,90021
501216,"SPECIAL SERVICE FOR GROUPS, INC.",905 E 8TH STREET,LOS ANGELES,In LA County,California,90021
156649,AAPI EQUITY ALLIANCE,905 E 8TH ST,LOS ANGELES,In LA County,California,90021
501216,"SPECIAL SERVICE FOR GROUPS, INC.",905 E 8TH ST,LOS ANGELES,In LA County,California,90021
501216,"SPECIAL SERVICE FOR GROUPS, INC.",905 E 8TH ST,LOS ANGELES,In LA County,California,90021
193817,JLE PAINTING,904 E MOUNTAIN VIEW TER,ALHAMBRA,In LA County,California,91801
208927,TOURBILLON ENTERPRISES LLC,9038 GARVEY AVENUE,ROSEMEAD,In LA County,California,91770
208927,TOURBILLON ENTERPRISES LLC,9038 GARVEY AVE,ROSEMEAD,In LA County,California,91770
37388,"FERBAK, INC.",9030 BALBOA BLVD,NORTHRIDGE,In LA County,California,91325
159004,LOGIXSERVICE INC,903 CALLE AMANECER STE 125,SAN CLEMENTE,Outside of LA County,California,92673
159004,LOGIXSERVICE INC,903 CALLE AMANACER STE 125,SAN CLEMENTE,Outside of LA County,California,92673
205655,"INNOVATIVE WORKPLACE SOLUTIONS, LLC",8943 COLLETT AVE,NORTH HILLS,In LA County,California,91343
118932,APPLIED ENGINEERING CONCEPTS,894 N FAIR OAKS AVE,PASADENA,In LA County,California,91103
46786,"PATTEN ENERGY ENTERPRISES, INC",8939 S SEPULVEDA BLVD STE 514,LOS ANGELES,In LA County,California,90045
177581,POLYCHROME CONSTRUCTION INC,8908 BALBOA BLVD,NORTHRIDGE,In LA County,California,91325
163451,CSDA DESIGN GROUP INC,889 N DOUGLAS STREET,EL SEGUNDO,In LA County,California,90245
163451,CSDA DESIGN GROUP INC,889 N DOUGLAS ST,EL SEGUNDO,In LA County,California,90245
111511,APSI CONSTRUCTION MANAGEMENT,8885 RESEARCH DR,IRVINE,Outside of LA County,California,92618
43302,VALLEY CONSTRUCTION SUPPLY INC,888 E AVENUE L 4,LANCASTER,In LA County,California,93535
194581,OCMI,8851 RESEARCH DR,IRVINE,Outside of LA County,California,92618
182836,"ADVANCED MICROSYSTEMS GROUP, INC.",8816 S SEPULVEDA BLVD,LOS ANGELES,In LA County,California,90045
190398,KEITH JACKSON ENTERPRISES INC,8780 19TH ST,RCH CUCAMONGA,Outside of LA County,California,91701
167823,"AIR BALANCE CO., INC.",874 S VILLAGE OAKS DR,COVINA,In LA County,California,91724
117868,MAURER MARINE INC.,873 W. 17TH ST.,COSTA MESA,Outside of LA County,California,92627
182164,PG CUTTING SERVICES,8650 SOMERSET BLVD,PARAMOUNT,In LA County,California,90723
182164,PG CUTTING SERVICES,8650 SOMERSET BLVD,PARAMOUNT,In LA County,California,90723
190811,BAYINFOTECH,8605 SANTA MONICA BLVD,W HOLLYWOOD,In LA County,California,90069
202781,"PHONES USA, INC.",8592 VENICE BLVD,LOS ANGELES,In LA County,California,90034
513782,DAVID RAYBOULD,8552 AQUEDUCT AVE.,NORTH HILLS,In LA County,California,91343
201043,THINKLOGIC INC,855 N DOUGLAS ST,EL SEGUNDO,In LA County,California,90245
194037,HORIZON DESIGN INTERNATIONAL LLC,8549 WILSHIRE BLVD #1108,BEVERLY HILLS,In LA County,California,90211
163141,BRILLIANT CORNERS,854 FOLSOM ST,SAN FRANCISCO,Outside of LA County,California,94107
171823,ARDO A VARDANYAN,8532 VINE VALLEY DR,SUN VALLEY,In LA County,California,91352
168704,ZSM CORP.,8512 HELMAND DR,WINNETKA,In LA County,California,91306
180362,"DURA BRANDS, INC.",851 MERIDIAN ST,DUARTE,In LA County,California,91010
164801,BBC ELECTRIC INC.,850 W FOOTHILL BLVD STE 20,AZUSA,In LA County,California,91702
127786,TELENET VOIP INC,850 PARKVIEW DRIVE NORTH,EL SEGUNDO,In LA County,California,90245
125062,"GOLD ARC, INC.",848 TOWNE CENTER DRIVE,POMONA,In LA County,California,91767
176990,LOS ANGELES CHEMICAL COMPANY,845 SANDHILL AVE,CARSON,In LA County,California,90746
117198,HARRIS OFFICE PRODUCTS,8441 CANOGA AVE,CANOGA PARK,In LA County,California,91304
191804,YOUTH MENTORING CONNECTION,8407 S VERMONT AVE,LOS ANGELES,In LA County,California,90044
169691,GC GREEN INCORPORATED,837 TIGER TAIL RD,VISTA,Outside of LA County,California,92084
186163,TRANSPACIFIC ENVIRONMENTAL SERVICES INC,837 BROWNING PLACE,MONTEREY PARK,In LA County,California,91755
143231,ARMANDO ZUBIA,8345 CRAVELL AVE,PICO RIVERA,In LA County,California,90660
195083,PASSAGE ENTERTAINMENT INC.,8345 CRAVELL AVE,PICO RIVERA,In LA County,California,90660
202445,AUTOMATED GATE SUPPLY INC,8323 LANKERSHIM BLVD,N HOLLYWOOD,In LA County,California,91605
137235,JAMES ADAM TUCKER,830 N PASADENA AVE,PASADENA,In LA County,California,91103
185659,"LA TRUCK & AUTO, INC.",825 E WASHINGTON BLVD,LOS ANGELES,In LA County,California,90021
168442,HOLOS INC,"8221 LG, LP",N HOLLYWOOD,In LA County,California,91606
119972,SPECTRUM ENVIRONMENTAL SERVICE,8216 LANKERSHIM BLVD STE 12,N HOLLYWOOD,In LA County,California,91605
166791,"ROSE EQUIPMENT REPAIR, INC.",8143 SECURA WAY,SANTA FE SPGS,In LA County,California,90670
165245,SAN FERNANDO VALLEY ALARM INC,8111 SAN FERNANDO RD,SUN VALLEY,In LA County,California,91352
118321,ACE ATTORNEY SERVICE INC,811 WILSHIRE BLVD STE 900,LOS ANGELES,In LA County,California,90017
183665,"SUNLIGHT MEDIA, LLC",811 W 7TH ST STE 933,LOS ANGELES,In LA County,California,90017
109274,"IMPACT SCIENCES, INC",811 W 7TH ST STE 200,LOS ANGELES,In LA County,California,90017
52182,FAST DEER BUS CHARTER INC,8105 SLAUSON AVE,MONTEBELLO,In LA County,California,90640
511468,POWERS BROS MACHINE INC,8100 SLAUSON AVE.,MONTEBELLO,In LA County,California,90640
165245,SAN FERNANDO VALLEY ALARM INC,804 PICO ST,SAN FERNANDO,In LA County,California,91340
165245,SAN FERNANDO VALLEY ALARM INC,804 PICO ST,SAN FERNANDO,In LA County,California,91340
184822,SERVICE CONNECTED INC,8039 HEMET PL,LOS ANGELES,In LA County,California,90046
173299,F.S.O.C. LLC,803 EUCALYPTUS DR,EL SEGUNDO,In LA County,California,90245
182010,ESTOLANO ADVISORS,801 S. GRAND AVE,LOS ANGELES,In LA County,California,90017
196209,BETTER WORLD GROUP ADVISORS,801 S GRAND AVE STE 200,LOS ANGELES,In LA County,California,90017
182010,ESTOLANO ADVISORS,801 S GRAND AVE,LOS ANGELES,In LA County,California,90017
210395,"KB ELECTRIC MOTORS, LLC",801 E 8TH ST,LOS ANGELES,In LA County,California,90021
111107,THE WALL LAS MEMORIAS PROJECT,800 W 6TH ST,LOS ANGELES,In LA County,California,90017
124955,KAL KRISHNAN CONSULTING,"800 S. FIGUEROA ST., SUITE 1210",LOS ANGELES,In LA County,California,90017
59817,RAW INTERNATIONAL,800 S FIGUEROA ST,LOS ANGELES,In LA County,California,90017
173356,"ESSENTIAL CARES SUPPLIES, INC.",795 EAST WASHINGTON BLVD.,LOS ANGELES,In LA County,California,90021
186048,VETERANS FIRST SUPPLY INC,7946 N MAPLE AVE STE 103,FRESNO,Outside of LA County,California,93720
55539,M&M PAPER CO.,7915 RUFFNER AVE,VAN NUYS,In LA County,California,91406
513990,L.A. FAMILY HOUSING CORP,7843 LANKERSHIM BLVD.,NORTH HOLLYWOOD,In LA County,California,91605
160471,"AMERICAN WIRE, INC.",784 S LUGO AVE,SN BERNRDNO,Outside of LA County,California,92408
161153,JOE MELENDEZ,7822 WHITSETT AVE,LOS ANGELES,In LA County,California,90001
109365,"T & M PROJECTS, INC.",780 W. CHANNEL ST.,SAN PEDRO,In LA County,California,90731
161594,"ENERGY OPTIONS, INC.",7720 MADISON ST.,PARAMOUNT,In LA County,California,90723
166214,"OMEGA GRAPHICS PRINTING, INC.",7710 KESTER AVENUE,VAN NUYS,In LA County,California,91405
202270,"PRIORITY AIRLESS EQUIPMENT, INC.",7702 BALBOA BLVD,VAN NUYS,In LA County,California,91406
503706,CHINATOWN SERVICE CENTER,767 N. HILL ST.,LOS ANGELES,In LA County,California,90012
5316,GENERAL INDUSTRIAL TOOL & SUPPLY INC,7645 SAN FERNANDO RD,BURBANK,In LA County,California,91505
149632,"COMPUTER CONDIMENTS, INC.","7618 WOODMAN AVE., SUITE 6",PANORAMA CITY,In LA County,California,91402
179973,TECHNION CONTRACTORS TCI INC.,7618 JELLICO AVE,NORTHRIDGE,In LA County,California,91325
31896,RAYVERN LIGHTING SUPPLY CO,7617 SOMERST BLVD,PARAMOUNT,In LA County,California,90723
167174,"MONET CONSTRUCTION, INC",7610 DAY STREET,TUJUNGA,In LA County,California,91042
503065,FIVE ACRES-THE BOYS & GIRLS AID SOCIETY,760 MOUNTAIN VIEW ST,ALTADENA,In LA County,California,91001
213131,ADRIAN CHAVEZ,7536 BROOKMILL RD,DOWNEY,In LA County,California,90241
29044,"JOHN LISEE PUMPS, INC.",7516 GARFIELD AVE,BELL GARDENS,In LA County,California,90201
174861,316 ENGINEERING AND CONSTRUCTION INC,7434 GARVALIA AVE,ROSEMEAD,In LA County,California,91770
190074,MEDZ VENTURES INC,743 MILFORD ST,GLENDALE,In LA County,California,91203
190074,MEDZ VENTURES INC,743 MILFORD ST,GLENDALE,In LA County,California,91203
196036,HALTONE INC,7332 LAUREL CANYON BLVD,N HOLLYWOOD,In LA County,California,91605
503078,NEW DIRECTIONS FOR YOUTH,7315 LANKERSHIM BLVD,NORTH HOLLYWOOD,In LA County,California,91605
185192,"JONCICH STURM AND ASSOCIATES, INC.",727 SILVER SPUR RD,RLLNG HLS EST,In LA County,California,90274
56965,WOODS MAINTENANCE SERVICES INC,7250 COLDWATER CANYON AVE,NORTH HOLLYWOOD,In LA County,California,91605
56965,WOODS MAINTENANCE SERVICES INC,7250 COLDWATER CANYON AVE,NORTH HOLLYWOOD,In LA County,California,91605
173924,ALLIANCE FOR COMMUNITY EMPOWERMENT,7227 OWENSMOUTH AVE,CANOGA PARK,In LA County,California,91303
177303,"LA VERNE POWER EQUIPMENT, INC.",720 ARROW HWY,LA VERNE,In LA County,California,91750
120288,"SIMPSON & SIMPSON MANAGEMENT CONSULTING, INC",718 S. DATE AVE.,ALHAMBRA,In LA County,California,91803
120288,"SIMPSON & SIMPSON MANAGEMENT CONSULTING, INC",718 S DATE AVE STE A,ALHAMBRA,In LA County,California,91803
60682,CONVERSE PROFESSIONAL GROUP,717 S  MYRTLE AVENUE,MONROVIA,In LA County,California,91016
165571,"HONGJOO KIM LANDSCAPE ARCHITECTS, INC.",714 WEST OLYMPIC BLVD,LOS ANGELES,In LA County,California,90015
165571,"HONGJOO KIM LANDSCAPE ARCHITECTS, INC.",714 W OLYMPIC BLVD,LOS ANGELES,In LA County,California,90015
165571,"HONGJOO KIM LANDSCAPE ARCHITECTS, INC.",714 W OLYMPIC BLVD,LOS ANGELES,In LA County,California,90015
207065,SAMUEL E GORDON JR,708 E 53RD ST,LOS ANGELES,In LA County,California,90011
129509,MEDG INTERNATIONAL INC,701 SONORA AVE,GLENDALE,In LA County,California,91201
109817,"LEE ANDREWS GROUP, INC",700 S FLOWER ST STE 1275,LOS ANGELES,In LA County,California,90017
105081,COUNCIL FOR WATERSHED HEALTH,700 N. ALAMEDA ST.,LOS ANGELES,In LA County,California,90012
510739,MCM INTEGRATED SYSTEMS,6961 HAYVENHURST AVE,VAN NUYS,In LA County,California,91406
503235,OPTIMIST BOYS' HOME AND RANCH INC,6957 N FIGUEROA ST,LOS ANGELES,In LA County,California,90042
503235,OPTIMIST BOYS' HOME AND RANCH INC,6957 N FIGUEROA ST,LOS ANGELES,In LA County,California,90042
503235,OPTIMIST BOYS' HOME AND RANCH INC,6957 N FIGUEROA ST,LOS ANGELES,In LA County,California,90042
173924,ALLIANCE FOR COMMUNITY EMPOWERMENT,6925 CANOGA AVE,CANOGA PARK,In LA County,California,91303
508563,AAA RUBBISH INC,6920 FOSTER BRIDGE BLVD,BELL GARDENS CA,In LA County,California,90201
148659,HEALTHCARE STAFFING PROFESSIONALS INC,6914 CANBY AVENUE,RESEDA,In LA County,California,91335
169786,GREEN BUILDING CORPORATION,6913 ALCOVE AVE,N HOLLYWOOD,In LA County,California,91605
156188,GREEN TRANSLATIONS,6907 RUBIO AVE,LAKE BALBOA,In LA County,California,91406
152509,YAKAR,689 E SAN BERNARDINO RD,COVINA,In LA County,California,91723
114452,STERLING VAN LINES,6850 SUVA ST,BELL GARDENS,In LA County,California,90201
507051,HUMAN SERVICES ASSOCIATION,6800 FLORENCE AVE.,BELL GARDENS,In LA County,California,90201
192028,"MODERN TIMES, INC",680 E COLORADO BLVD,PASADENA,In LA County,California,91101
171667,CALCOMP GRAPHIC SOLUTIONS,6703 INTERNATIONAL AVE.,CYPRESS,Outside of LA County,California,90630
169346,"ADAPTCONN, INC.",6700 FALLBROOK AVENUE SUITE 100,WEST HILLS,In LA County,California,91307
119327,EMOTIONAL HEALTH ASSOCIATION,6666 GREEN VALLEY CIRCLE,CULVER CITY,In LA County,California,90230
169691,GC GREEN INCORPORATED,665 OPPER ST,ESCONDIDO,Outside of LA County,California,92029
172553,THE CENTER IN HOLLYWOOD,6636 SELMA AVE,LOS ANGELES,In LA County,California,90028
196241,"GO2ZERO STRATEGIES, LLC",6625 N CALLE EVA MIRANDA STE A,IRWINDALE,In LA County,California,91702
510868,JVS SOCAL,6505 WILSHIRE BLVD,LOS ANGELES,In LA County,California,90048
199953,INGLEWOOD WRAPPING ARMS AROUND THE COMMUNITY,650 E MANCHESTER BLVD,INGLEWOOD,In LA County,California,90301
139128,JOHN T CHAN ARCHITECTS INC,65 N 1ST AVE,ARCADIA,In LA County,California,91006
205477,G.IRL,649 E 136TH ST,LOS ANGELES,In LA County,California,90059
181518,"HOMEBOY RECYCLING, A CALIFORNIA SOCIAL PURPOSE CORPORATION",6433 CANNING ST,COMMERCE,In LA County,California,90040
38807,INTERNATIONAL RESTAURANT EQUIPMENT CO INC,6432 MOORE DR,LOS ANGELES,In LA County,California,90048
62367,SMA INC,642 MOULTON AVE,LOS ANGELES,In LA County,California,90031
519823,EDNET CAREER INST. INC.,6400 CANOGA AVE STE 121,WOODLAND HILLS,In LA County,California,91367
519823,EDNET CAREER INST. INC.,6400 CANOGA AVE,WOODLAND HLS,In LA County,California,91367
158449,DAWN MCKENNA,6391 E BIXBY HILL RD,LONG BEACH,In LA County,California,90815
209470,LIFE AND TIMES NETWORK INC.,637 E ALBERTONI ST,CARSON,In LA County,California,90746
209340,FLORES SERVICES,6365 ATLAS WAY,PALMDALE,In LA County,California,93552
144542,MORE PREPARED,635 HAWAII AVE,TORRANCE,In LA County,California,90503
203576,SIMPLE DISCOUNT FURNITURE LLC,6335 PACIFIC BLVD,HUNTINGTON PARK,In LA County,California,90255
503346,SIMPSON & SIMPSON LLP,633 WEST 5TH ST. STE 3320,LOS ANGELES,In LA County,California,90071
515310,THE LAGRANT GROUP,633 W 5TH ST FL 48,LOS ANGELES,In LA County,California,90071
33665,"LA BREA HEATING AND AIR CONDITIONING CO., INC.",6326 WEST BLVD,LOS ANGELES,In LA County,California,90043
120082,"LA BREA AIR, INC.",6326 WEST BLVD,LOS ANGELES,In LA County,California,90043
175802,KAIZER RANGWALA,6325 JACKIE AVE,WOODLAND HILLS,In LA County,California,91367
212130,FILM2FUTURE INC,6310 SAN VICENTE BLVD,LOS ANGELES,In LA County,California,90048
194487,RK INDUSTRIES GROUP INC.,631 S WALNUT ST,LA HABRA,Outside of LA County,California,90631
161716,WATEARTH,631 PHEASANT DR,LOS ANGELES,In LA County,California,90065
182709,TECHNOLOGY MARKETING & MANAGEMENT SERVICES,6303 CORSAIR STREET,LOS ANGELES,In LA County,California,90040
100151,LA CANADA DESIGN GROUP,630 N ROSEMEAD BLVD STE 400,PASADENA,In LA County,California,91107
200253,ANTELOPE VALLEY COMMUNITY UPLIFT FOUNDATION,626 W LANCASTER BLVD STE 61,LANCASTER,In LA County,California,93534
128230,MSH VENTURES CORP,6230 WILSHIRE BLVD STE 1197,LOS ANGELES,In LA County,California,90048
199860,RECREATE WASTE COLLABORATIVE LLC,623 W PACIFIC COAST HWY UNIT F,LONG BEACH,In LA County,California,90806
145309,AIR CLEAN ENVIRONMENTAL INC,6226 WHITTIER BLVD.,"LOS ANGELES, CA",In LA County,California,90022
145309,AIR CLEAN ENVIRONMENTAL INC,6226 WHITTIER BLVD,LOS ANGELES,In LA County,California,90022
170547,BRENNAN ESTIMATING SERVICES INC,6217 S. WASHINGTON AVE,WHITTIER,In LA County,California,90601
175087,FOUNTAINHEAD CONSULTING CORPORATION,621 PALOS VERDES DR W,PLS VRDS EST,In LA County,California,90274
175087,FOUNTAINHEAD CONSULTING CORPORATION,621 PALOS VERDES DR W,PLS VRDS EST,In LA County,California,90274
51881,FAR EAST LANDSCAPE & MAINTENANCE INC,6201 VAN NUYS BLVD,VAN NUYS,In LA County,California,91401
38345,WATERLINE TECHNOLOGIES INC,620 N SANTIAGO ST,SANTA ANA,Outside of LA County,California,92701
190624,NOT YOU MAMAS KITCHEN,6183 ATLANTIC AVE,LONG BEACH,In LA County,California,90805
198720,MIGHTY MADISON PROTECTION INC.,615 N OXFORD AVE,LOS ANGELES,In LA County,California,90004
182091,JT SITE SERVICES,615 N BENSON AVE,UPLAND,Outside of LA County,California,91786
191907,ANGEL CITY ADVISORS LLC,6141 BARROWS DR,LOS ANGELES,In LA County,California,90048
193297,UNITED GRILL VENTURES LLC,614 N ALTA DR,BEVERLY HILLS,In LA County,California,90210
181790,"ORRAVAN MECHANICAL, INC.",6134 FACULTY AVE,LAKEWOOD,In LA County,California,90712
196984,"BBD ADVANTAGE, INC",6112 WILKINSON AVE,N HOLLYWOOD,In LA County,California,91606
172405,ANDREA DAMIAN,"610 SOUTH MAIN STREET, PH105",LOS ANGELES,In LA County,California,90014
163451,CSDA DESIGN GROUP INC,610 E FRANKLIN AVE,EL SEGUNDO,In LA County,California,90245
171500,VCLOUD TECH INC.,609 DEEP VALLEY DRIVE SUITE 200,ROLLING HILLS ESTATES,In LA County,California,90274
171500,VCLOUD TECH INC.,609 DEEP VALLEY DRIVE SUITE 200,ROLLING HILLS ESTATES,In LA County,California,90732
171500,VCLOUD TECH INC.,609 DEEP VALLEY DR,RLLNG HLS EST,In LA County,California,90274
158233,RIVIERA INC,6080 CENTER DR,LOS ANGELES,In LA County,California,90045
60698,SOURCE PROMOTIONS INC,607 N. NASH ST.,LOS ANGELES,In LA County,California,90245
174941,"EVITARUS, INC.",6060 CENTER DR STE 62,LOS ANGELES,In LA County,California,90045
209611,ABVI LLC,6055 GARNET ST,RCH CUCAMONGA,Outside of LA County,California,91701
512124,LOS ANGELES CONSERVATION CORPS,"605 W. OLYMPIC BLVD., STE. 450",LOS ANGELES,In LA County,California,90015
200105,ANTHONY HOAG,6031 PINE AVE,ANGELUS OAKS,Outside of LA County,California,92305
517182,"J & S CIRCUIT BREAKERS, INC.",6024 E. OLYMPIC BLVD.,LOS ANGELES,In LA County,California,90022
197899,BIG AL'S MOTORS SALES AND SERVICES LLC,6022 REDMAN AVE,WHITTIER,In LA County,California,90606
188537,"BIRDS EYE AERIAL DRONES, LLC",6015 SARITA ST,LA MESA,Outside of LA County,California,91942
177135,THE ANTI-RECIDIVISM COALITION,601 N ALVARADO ST,LOS ANGELES,In LA County,California,90026
177135,THE ANTI-RECIDIVISM COALITION,601 N ALVARADO ST,LOS ANGELES,In LA County,California,90026
515310,THE LAGRANT GROUP,600 WILSHIRE BLVD STE 1610,LOS ANGELES,In LA County,California,90017
515310,THE LAGRANT GROUP,600 WILSHIRE BLVD STE 1610,LOS ANGELES,In LA County,California,90017
508085,"LINSCOTT, LAW & GREENSPAN ENG.",600 S LAKE AVE STE 500,PASADENA,In LA County,California,91106
508085,"LINSCOTT, LAW & GREENSPAN ENG.",600 S LAKE AVE,PASADENA,In LA County,California,91106
160222,CAL INTERPRETING & TRANSLATIONS INC,5990 SEPULVEDA BLVD STE 250,VAN NUYS,In LA County,California,91411
163837,PENN AIR CONTROL,5941 LAKESHORE DR,CYPRESS,Outside of LA County,California,90630
171570,H-D SPECIALTY GROUPS INC,5913 E. WASHINGTON BLVD,COMMERCE,In LA County,California,90040
214331,VAN ELLS CONSTRUCTION LLC,591 HARGRAVE ST,INGLEWOOD,In LA County,California,90302
59165,SOFFA ELECTRIC INC.,5901 CORVETTE ST,COMMERCE,In LA County,California,90040
110154,"VIZUAL SYMPHONY, INC.",5900 SAN FERNANDO RD STE D,GLENDALE,In LA County,California,91202
105454,CHOICE TECHNICAL SERVICES,5871 RICKENBACKER RD,COMMERCE,In LA County,California,90040
208976,"THE WOLCOTT GROUP, LLC",5855 E NAPLES PLZ,LONG BEACH,In LA County,California,90803
176214,"DIMAGI, INC.",585 MASSACHUSETTS AVE,CAMBRIDGE,Out of State,Massachusetts,2139
214071,"THE HUMAN BEAUTY MOVEMENT, PBC",5826 FAIRHAVEN AVE,WOODLAND HLS,In LA County,California,91367
184956,ENTERPRISE SYSTEMS SOLUTIONS CORPORATION,5805 SEPULVEDA BLVD STE 710,SHERMAN OAKS,In LA County,California,91411
169016,SUTHERLAND CONSULTING GROUP,5800A HANNUM AVE STE 200,CULVER CITY,In LA County,California,90230
169016,SUTHERLAND CONSULTING GROUP,5800A HANNUM AVE,CULVER CITY,In LA County,California,90230
201842,MELINA SEMPILL WATTS CONSULTING LLC,5800 KANAN RD,AGOURA HILLS,In LA County,California,91301
128525,"MOSS, LEVY & HARTZHEIM",5800 HANNUM AVENUE,CULVER CITY,In LA County,California,90230
138927,BEACON ECONOMICS LLC,5777 W CENTURE BLVD STE 895,LOS ANGELES,In LA County,California,90045
180493,FEDERAL SUPPLIER INC.,5776 LINDERO CANYON ROAD,WESTLAKE VILLAGE,Outside of LA County,California,91362
153159,HALCO SERVICE CORP.,5773 VENICE BLVD.,LOS ANGELES,In LA County,California,90019
170515,"MONACO MECHANICAL, INC.",5742 VENICE BOULEVARD,LOS ANGELES,In LA County,California,90019
163692,BUY SUPPLIES 4 LESS,5737 KANAN RD. #136,AGOURA HILLS,In LA County,California,91301
138028,ALLIED NETWORK SOLUTIONS,5718 LONETREE BLVD,ROCKLIN,Outside of LA County,California,95765
159717,"FENTON TRANSCRIPTION, LLC",5700 CORSA AVE,WESTLAKE VILLAGE,Outside of LA County,California,91362
177672,L. A. WORKS INC.,570 WEST AVE 26  STE 400,LOS ANGELES,In LA County,California,90065
6482,CRAIG WELDING SUPPLY,5670 S SANTA FE AVE,VERNON,In LA County,California,90058
191628,TIM COGSHELL PRODUCTIONS,563 N MARENGO AVE,PASADENA,In LA County,California,91101
111107,THE WALL LAS MEMORIAS PROJECT,5619 MONTE VISTA ST,LOS ANGELES,In LA County,California,90042
112526,CALIFORNIA COMPRESSOR INC,5592 BUCKINGHAM DRIVE,HUNTINGTON BEACH,Outside of LA County,California,92649
142776,APPLIED MECHANICAL ENGINEERING INC,557 N TOLAND AVE,WEST COVINA,In LA County,California,91790
179432,STILLWATER SCIENCES,555 W. 5TH STREET,LOS ANGELES,In LA County,California,90013
190008,V3GATE LLC,555 MIDDLE CREEK PKWY,COLORADO SPGS,Out of State,Colorado,80921
199327,MELVIN PALENCIA,5541 ARROW HWY STE F,MONTCLAIR,Outside of LA County,California,91763
186724,"PRO TINT, INC",5528 ROSEMEAD BLVD,TEMPLE CITY,In LA County,California,91780
198627,"AMERICAN TRAFFIC BARRICADE & SAFETY COMPANY, INC.",552 E CARSON ST STE 104-10,CARSON,In LA County,California,90745
181599,"SHARPLINE SOLUTIONS, INC",545 N RIMSDALE AVE UNIT 1546,COVINA,In LA County,California,91722
179924,"TAKE A BYTE, INC.",545 FINNEY CT.,GARDENA,In LA County,California,90248
42711,J.C.M. & ASSOCIATES INC.,5443 E. WASHINGTON BLVD.,CITY OF COMMERCE,In LA County,California,90040
111512,SWIFT LEE OFFICE,543 S RAYMOND AVE,PASADENA,In LA County,California,91105
33404,ACTION DOOR REPAIR CORP,5420 MALABAR STREET,HUNTINGTON PARK,In LA County,California,90255
33404,ACTION DOOR REPAIR CORP,5420 MALABAR ST,HUNTINGTON PARK,In LA County,California,90255
196984,"BBD ADVANTAGE, INC",5404 WHITSETT AVE,VALLEY VLG,In LA County,California,91607
159004,LOGIXSERVICE INC,5353 W IMPERIAL HWY STE 900,LOS ANGELES,In LA County,California,90045
132397,MINDS ON EDUCATION INC,5312 DERRY AVE,AGOURA HILLS,In LA County,California,91301
108307,TAYLOR WALK INC,5304 DERRY AVE STE U,AGOURA HILLS,In LA County,California,91301
188924,CAUSEIMPACTS,5301 W 119TH PL,INGLEWOOD,In LA County,California,90304
147249,"ZUSSER COMPANY, INC.","528 PALISADES DR., SUITE 504",LOS ANGELES,In LA County,California,90272
163141,BRILLIANT CORNERS,527 W 7TH ST,LOS ANGELES,In LA County,California,90014
166532,KNIGHTSBRIDGE INDUSTRIES INC.,527 N. AZUSA AVE,COVINA,In LA County,California,91722
200291,GOODSIDES LLC,5250 LANKERSHIM BLVD,N HOLLYWOOD,In LA County,California,91601
2458,REFRIG. CONTRACTING & MAINT.,5250 EAST WASHINGTON BLVD,CITY OF COMMERCE,In LA County,California,90040
150407,THE ENERGY COALITION,525 TECHNOLOGY DR,IRVINE,Outside of LA County,California,92618
171022,"VERDICAL GROUP, INC.",525 S HEWITT ST,LOS ANGELES,In LA County,California,90013
156332,"VINIEGRA & VINIEGRAARCHITECTURE, LLP",5232 OTIS AVE.,TARZANA,In LA County,California,91356
210331,DELTA FOOD SERVICE MANAGEMENT,5230 CONEY RD,LOS ANGELES,In LA County,California,90032
187575,MODERN CORNERSTONE BUILDERS,5213 LA CRESCENTA AVE,LA CRESCENTA,In LA County,California,91214
188996,"J.R.L.R. ENTERPRISES, INC.",5211 E WASHINGTON BLVD STE 2-206,COMMERCE,In LA County,California,90040
34147,PLUMBING & INDUSTRIAL SUPPLY,5181 W SAN FERNANDO RD,LOS ANGELES,In LA County,California,90039
34147,PLUMBING & INDUSTRIAL SUPPLY,5181 SAN FERNANDO RD W,LOS ANGELES,In LA County,California,90039
187691,KARIM SAAFIR PHOTOGRAPHY,5174 W SLAUSON AVE,LOS ANGELES,In LA County,California,90056
519341,JUDITH SEGAL PHD.,517 NORTH ALTA DRIVE,BEVERLY HILLS,In LA County,California,90210
146623,MAJESTIC FIRE INC,5160 VAN NUYS BLVD STE 257,SHERMAN OAKS,In LA County,California,91403
515010,PLUMBING WHOLESALE OUTLET INC,516 N FAIR OAKS AVE,PASADENA,In LA County,California,91103
140608,LOS ANGELES UNIVERSAL PRESCHOOL,515 S FIGUEROA ST,LOS ANGELES,In LA County,California,90071
145500,"OAK TREE CONSTRUCTION, INC.",5149 CATALON AVE.,WOODLAND HILLS,In LA County,California,91364
181424,TRI-XECUTEX CORPORATION,512 E. BONITA AVE,SAN DIMAS,In LA County,California,91773
195621,"AVENUE HOME CARE, INC",5115 AVENIDA ENCINAS,CARLSBAD,Outside of LA County,California,92008
185718,"GRBCON, INC.",5114 ELTON ST,BALDWIN PARK,In LA County,California,91706
120191,INDUSTRIAL MAINTENANCE SUPPLY INC,511 FIFTH ST UNIT F,SAN FERNANDO,In LA County,California,91340
104240,DEL RICHARDSON & ASSOCIATES,510 S. LA BREA AVE,INGLEWOOD,In LA County,California,90301
56710,ARROW RESTAURANT EQUIPMENT & SUPPLIES INC,5061 ARROW HWY,MONTCLAIR,Outside of LA County,California,91763
145309,AIR CLEAN ENVIRONMENTAL INC,5053 HEINTZ ST,BALDWIN PARK,In LA County,California,91706
204764,EMPLOY CALIFORNIA,5050 E 2ND ST,LONG BEACH,In LA County,California,90853
526213,BEST WAY MARBLE & TILE,5037 TELEGRAPH RD,LOS ANGELES,In LA County,California,90022
121731,APPLOON THE MURDOCK CORP.,5032 MEADOW WOOD AVE,LAKEWOOD,In LA County,California,90712
183827,"LA TERRA BUILDING SOLUTIONS, LLC",5016 EAGLE ROCK BLVD STE 1,LOS ANGELES,In LA County,California,90041
183827,"LA TERRA BUILDING SOLUTIONS, LLC",5016 EAGLE ROCK BLVD,LOS ANGELES,In LA County,California,90041
116466,HARDER+COMPANY COMMUNITY RESEARCH,501 WASHINGTON ST,SAN DIEGO,Outside of LA County,California,92103
171500,VCLOUD TECH INC.,500 WESTOVER DR # 12540,SANFORD,Out of State,North Carolina,27330
56701,WESTRIDGE ASSOCIATES,500 S FIGUEROA,LOS ANGELES,In LA County,California,90071
180080,CENTER FOR EMPLOYMENT OPPORTUNITIES,50 BROADWAY,NEW YORK,Out of State,New York,10004
177957,NAME ON THE LINE ADVERTISING LLC,5 MILE MEDIA,PASADENA,In LA County,California,91109
195818,JACOB A YANES,4955 1/2 SYCAMORE TER,LOS ANGELES,In LA County,California,90042
193694,PARS EQUALITY CENTER,4954 VAN NUYS BLVD,SHERMAN OAKS,In LA County,California,91403
199711,JOSE FUENTES,4931 WHITTIER BLVD,LOS ANGELES,In LA County,California,90022
144443,WIRELESS INNOVATION SOLUTION I,4917 GLACIER DR,LOS ANGELES,In LA County,California,90041
194317,HIGH SPEED LOGISTICS INC,4876 SANTA MONICA AVE,SAN DIEGO,Outside of LA County,California,92107
211703,"SIGN ZONE, INC.",4873 MELROSE AVE,LOS ANGELES,In LA County,California,90029
502072,"JJJ FLOOR COVERING, INC.",4831-A PASSONS BLVD,PICO RIVERA,In LA County,California,90660
144442,CITADEL CPM INC,482 S ARROYO PKWY,PASADENA,In LA County,California,91105
154453,YATES TRUCKING INC,4817 W AVENUE N,QUARTZ HILL,In LA County,California,93536
529724,SWA ARCHITECTS,48 E. HOLLY ST.,PASADENA,In LA County,California,91103
186006,"RIPE MEDIA, INC.",4789 VINELAND AVE,N HOLLYWOOD,In LA County,California,91602
138234,MJK CONSTRUCTION INC,4780 CHEYENNE WAY,CHINO,Outside of LA County,California,91710
140648,SUNWEST ENGINEERING,4780 CHEYENNE WAY,CHINO,Outside of LA County,California,91710
207329,1 A SERVICE,4776 DOZIER ST,LOS ANGELES,In LA County,California,90022
148067,DICK NIGRA INSPECTIONS INC,4735 OAKADO PLACE,LA CANADA,In LA County,California,91011
204768,ACE BROKERAGE AND TRANSPORT LLC,"4730 W 173RD ST, UNIT G",LAWNDALE,In LA County,California,90260
125632,COMPUTER 1 PRODUCTS OF AMERICA,4712 E 2ND ST UNIT 136,LONG BEACH,In LA County,California,90803
191037,"BEYOND 2000 ENTERPRISES, LLC",4712 ADMIRALTY WAY # 994,MARINA DL REY,In LA County,California,90292
56888,SPECIALTY DOORS AND AUTOMATION,4700 LONG BEACH BLVD,LONG BEACH,In LA County,California,90805
203984,"MCMAVERICK, INC.",4653 CARMEL MOUNTAIN RD,SAN DIEGO,Outside of LA County,California,92130
504823,CLARKE CONTRACTING CORPORATION,4646 MANHATTAN BEACH BLVD.,LAWNDALE,In LA County,California,90260
504823,CLARKE CONTRACTING CORPORATION,4646 MANHATTAN BEACH BLVD,LAWNDALE,In LA County,California,90260
192142,"OHANAVETS, INC.",4640 ADMIRALTY WAY STE 500,MARINA DL REY,In LA County,California,90292
197786,"TRYFACTA, INC.",4637 CHABOT DR STE 100,PLEASANTON,Outside of LA County,California,94588
37039,SUPERIOR ELECTRIC MOTOR SERV,4622 ALCOA AVE,VERNON,In LA County,California,90058
56491,BAR/SCAN INC,"4607 LAKEVIEW CANYON ROAD, #596",WESTLAKE VILLAGE,Outside of LA County,California,91361
516751,CENTER FOR HEALTH CARE RIGHTS,4601 WILSHIRE BLVD,LOS ANGELES,In LA County,California,90010
516751,CENTER FOR HEALTH CARE RIGHTS,4601 WILSHIRE BLVD,LOS ANGELES,In LA County,California,90010
111854,R.L. KLEIN & ASSOCIATES,46 PENINSULA CTR # 298,RLLNG HLS EST,In LA County,California,90274
111854,R.L. KLEIN & ASSOCIATES,46 E PENINSULA CENTER DR,ROLLING HILLS ESTATES,In LA County,California,90274
8030,LITTLEJOHN REULAND CORP,4575 PACIFIC BLVD.,VERNON,In LA County,California,90058
8030,LITTLEJOHN REULAND CORP,4575 PACIFIC BLVD,VERNON,In LA County,California,90058
42545,PJ HILTON & ASSOCIATES,457 WEST ALLEN AVE STE 106,SAN DIMAS,In LA County,California,91773
161728,GEO-ADVANTEC INC,457 W ALLEN AVE STE 113,SAN DIMAS,In LA County,California,91773
506335,LEE DIBLOSI,457 31ST STREET,MANHATTAN BEACH,In LA County,California,90266
169227,LINDA R GATSON-WARD,4569 DON DIEGO DR,LOS ANGELES,In LA County,California,90008
154408,"GERONIMO CONCRETE, INC",4560 HUNTINGTON DR N,LOS ANGELES,In LA County,California,90032
101336,ATHENA ENGINEERING INC.,456 EAST FOOTHILL BOULEVARD,SAN DIMAS,In LA County,California,91773
180965,"NR DEVELOPMENT, INC.",4559 FOXBOROUGH DR,FONTANA,Outside of LA County,California,92336
179157,WENGER FURNITURE AND APPLIANCES CO,4552 WHITTIER BLVD,LOS ANGELES,In LA County,California,90022
172781,SOUTHERN CALIFORNIA FLAGPOLE COMPANY INC,4551 YORK BLVD,LOS ANGELES,In LA County,California,90041
185197,LUMOS TRANSFORMS,454 N AVENUE 56 # 1,LOS ANGELES,In LA County,California,90042
183044,GAMES ON WHEELZ,453 S SPRING ST STE 400,LOS ANGELES,In LA County,California,90013
170720,CLC PUBLICIDAD,4528 STERN AVE,SHERMAN OAKS,In LA County,California,91423
60698,SOURCE PROMOTIONS INC,4526 COLDWATER CANYON AVE,STUDIO CITY,In LA County,California,91604
200296,EQUIPMENT CONNECTION INC,45259 23RD ST W,LANCASTER,In LA County,California,93536
160245,AMAZING BALLOONS BY GEE,4516 W. BROADWAY AVE.,HAWTHORNE,In LA County,California,90250
170136,PATRICIA SONTAG,4513 NIPOMO AVENUE,LAKEWOOD,In LA County,California,90713
100045,CHOYASSOCIATES,4511 W. 171ST STREET,LAWNDALE,In LA County,California,90260
179797,ALAS MEDIA,451 S BRAND BLVD,SAN FERNANDO,In LA County,California,91340
212510,EAST LOS TACOS,4500 E CESAR E CHAVEZ AVE,LOS ANGELES,In LA County,California,90022
211460,"PAT V MACK, INC",450 8TH AVE SE,ST PETERSBURG,Out of State,Florida,33701
160695,PAVING THE WAY FOUNDATION,44818 FERN AVE,LANCASTER,In LA County,California,93534
189473,SALT LANDSCAPE ARCHITECTS INC,448 S HILL ST STE 708,LOS ANGELES,In LA County,California,90013
191269,LOST ANGELS CHILDREN'S PROJECT,44528 BEECH AVE,LANCASTER,In LA County,California,93534
111179,PEERLESS MATERIALS COMPANY,4442 E 26TH STREET,VERNON,In LA County,California,90058
111179,PEERLESS MATERIALS COMPANY,4442 E 26TH ST,VERNON,In LA County,California,90058
63235,"ANIL VERMA ASSOCIATES, INC.","444 S. FLOWER ST., STE. 1688",LOS ANGELES,In LA County,California,90071
186151,"MOZAIC MEDIA & COMMUNICATIONS, INC.",444 S FLOWER ST,LOS ANGELES,In LA County,California,90071
211040,"WILLIAM SCHAEFER CONSTRUCTION, INC.",44391 STANRIDGE AVE,LANCASTER,In LA County,California,93535
195787,NATIONAL WILDFIRE PROTECTION SERVICE LLC,44218 GILLAN AVE,LANCASTER,In LA County,California,93535
186979,GOURMET PAPER PLATES,44214 HEATON AVE,LANCASTER,In LA County,California,93534
131116,DOWNTOWN WOMEN'S CENTER,442 S SAN PEDRO ST,LOS ANGELES,In LA County,California,90013
200017,"360 MEDICAL, LLC.",441 W ALLEN AVE STE 119,SAN DIMAS,In LA County,California,91773
207787,"THILLERY GROUP, LLC",43928 FALLON DR,LANCASTER,In LA County,California,93535
141782,EAST LA WHOLESALE ELECTRIC,4385 EAST OLYMPIC BLVD,LOS ANGELES,In LA County,California,90023
167201,"COMPATIOR, INC.",4363 TWEEDY BLVD,SOUTH GATE,In LA County,California,90280
146436,HUB CITIES CAREER CENTER,4354 TWEEDY BLVD,SOUTH GATE,In LA County,California,90280
133842,INSTANT INFOSYSTEMS,435 N PACIFIC COAST HWY STE 300,REDONDO BEACH,In LA County,California,90277
515464,"COMMUNITY HEALTH COUNCILS, INC",4335 W ADAMS BLVD,LOS ANGELES,In LA County,California,90018
515464,"COMMUNITY HEALTH COUNCILS, INC",4335 W ADAMS BLVD,LOS ANGELES,In LA County,California,90018
515464,"COMMUNITY HEALTH COUNCILS, INC",4335 W ADAMS BLVD,LOS ANGELES,In LA County,California,90018
161846,NLESYSTEMS INC,433 W. COLORADO ST,GLENDALE,In LA County,California,91204
152921,ELEVATORS ETC,4327 E CESAR CHAVEZ AVE,LOS ANGELES,In LA County,California,90022
123762,OCEAN SIDE HOME HEALTH  SERVICES INC,"4322 WILSHIRE BOULEVARD, SUITE 208",LOS ANGELES,In LA County,California,90010
7544,WESTERN TRUCK EXCHANGE,432 W. MANCHESTER AVE.,LOS ANGELES,In LA County,California,90003
115404,SELBERT PERKINS DESIGN,432 CULVER BLVD,PLAYA DEL REY,In LA County,California,90293
504652,GARVEY EQUIPMENT COMPANY,430 S PINE ST,SAN GABRIEL,In LA County,California,91776
155173,"JLEE ENGINEERING, INC",430 S GARFIELD AVE SUITE #301,ALHAMBRA,In LA County,California,91801
103548,THREE D PLASTICS INC,430 N. VARNEY ST.,BURBANK,In LA County,California,91502
130335,SPADARO ENTERPRISES INC,42612 8TH ST W,LANCASTER,In LA County,California,93534
201425,MICHAEL NOBLEZA,426 W OLIVE ST,INGLEWOOD,In LA County,California,90301
511218,ECONO WEST INC,42332 1/2 10TH ST W,LANCASTER,In LA County,California,93534
208450,NOEMY MACIEL,422 S LEMON AVE,ONTARIO,Outside of LA County,California,91761
214899,BLUETEK UNLIMITED LLC,4219 ALDERSON AVE,BALDWIN PARK,In LA County,California,91706
207237,GALPH ENTERPRISES,4211 W TOLUCA LAKE LN,BURBANK,In LA County,California,91505
183677,"IMAGEN, INC",421 E ROUTE 66,GLENDORA,In LA County,California,91740
165378,"R&K MEDICAL, INC",4205 SAN FERNANDO RD,GLENDALE,In LA County,California,91204
113065,"A-1 ELECTRIC SERVICE CO., INC.",4204 SO. SEPULVEDA BL.,CULVER  CITY,In LA County,California,90230
173398,ECONOMY TREE CARE,"4201 LONG BEACH BLVD, STE. 222",LONG BEACH,In LA County,California,90807
186683,PLACE AND PAGE LLC,420 W AVENUE 33,LOS ANGELES,In LA County,California,90031
41089,UNITED RIGGERS & ERECTORS INC.,4188 VALLEY BLVD.,WALNUT,In LA County,California,91789
41089,UNITED RIGGERS & ERECTORS INC.,4188 VALLEY BLVD.,WALNUT,In LA County,California,91789
155842,FIRST CLASS PLUMBING CO,41804 SIERRA DR,THREE RIVERS,Outside of LA County,California,93271
521832,CITY TERRACE SERVICE INC,4167 WHITESIDE ST,LOS ANGELES,In LA County,California,90063
203080,US2U SERVICES,41545 YANCEY LN,QUARTZ HILL,In LA County,California,93536
193760,CLEO WARE AND BRANDI BUTLER,41545 YANCEY LN,QUARTZ HILL,In LA County,California,93536
506313,DIESELTRON INC,4150 E. WASHINGTON BLVD.,LOS ANGELES,In LA County,California,90023
126335,"PARTY PRONTO, INC.",4131 LIVE OAK AVENUE,ARCADIA,In LA County,California,91006
131302,CALLOR SALES,4125 NOVEL COURT,HACIENDA HEIGHTS,In LA County,California,91745
171983,"AAA ATTORNEY SERVICES II, INC","4122 E. CHAPMAN AVE, STE 24",ORANGE,Outside of LA County,California,92869
161778,"STUDENTNEST, INC.",411 N CENTRAL AVE,GLENDALE,In LA County,California,91203
131930,"CALVADA SURVEYING, INC.","411 JENKS CIRCLE, SUITE 205",CORONA,Outside of LA County,California,92880
210911,GOMEZ IT SERVICES,41021 RIVEROCK LN,PALMDALE,In LA County,California,93551
205701,"WORLD FOOD BANK, KITCHEN, AND URBAN FARM",410 S VAN NESS AVE,LOS ANGELES,In LA County,California,90020
205701,"WORLD FOOD BANK, KITCHEN, AND URBAN FARM",410 S VAN NESS AVE,LOS ANGELES,In LA County,California,90020
200253,ANTELOPE VALLEY COMMUNITY UPLIFT FOUNDATION,410 E AVENUE K12,LANCASTER,In LA County,California,93535
153725,ALFRED R MERCADO,4091 S WILDFLAX PASEO,ONTARIO,Outside of LA County,California,91761
203526,RACAIA INC.,409 W OLYMPIC BLVD,LOS ANGELES,In LA County,California,90015
151808,ANTELOPE VALLEY PARTNERS FOR HEALTH,4083 W AVENUE L PMB 370,LANCASTER,In LA County,California,93536
151808,ANTELOPE VALLEY PARTNERS FOR HEALTH,4083 W AVENUE L PMB 370,LANCASTER,In LA County,California,93536
100913,DONALD R STULL,4083 W AVENUE L PMB 232,LANCASTER,In LA County,California,93536
529089,JULIE MITCHELL,408 S. DARWOOD AVE.,SAN DIMAS,In LA County,California,91773
199351,WOULD WORKS,407 E PICO BLVD,LOS ANGELES,In LA County,California,90015
199351,WOULD WORKS,407 E PICO BLVD,LOS ANGELES,In LA County,California,90015
205533,WLG INC,40437 10TH ST W,PALMDALE,In LA County,California,93551
205551,LUV N' POPCORN LLC,40107 RONAR ST,PALMDALE,In LA County,California,93591
193708,CERTIFIED SAFE DRIVER INC.,4000 E VALLEY BLVD STE 104,WALNUT,In LA County,California,91789
159340,"BUDLONG & ASSOCIATES, INC.",400 W VENTURA BLVD STE 240,CAMARILLO,Outside of LA County,California,93010
167247,ARISE HOSPITALITY SOLUTIONS LLC,40 NORTH ALTADENA DRIVE,PASADENA,In LA County,California,91107
167247,ARISE HOSPITALITY SOLUTIONS LLC,40 NORTH ALTADENA DRIVE,PASADENA,In LA County,California,91107
187285,"EARTHCHEM INDUSTRIAL SUPPLY, LLC",39789 VISTA RD,HEMET,Outside of LA County,California,92543
136905,SERVICON SYSTEMS INC,3965 LANDMARK ST,CULVER CITY,In LA County,California,90232
136905,SERVICON SYSTEMS INC,3965 LANDMARK ST,CULVER CITY,In LA County,California,90232
213734,CASKIE GOODS LLC,3950 VALLEY BLVD STE B,WALNUT,In LA County,California,91789
200663,S3DVBE,3941 PARK DR STE 20-142,EL DORADO HLS,Outside of LA County,California,95762
169056,MICHEL A KOZAK,3940 LAUREL CANYON BLVD.,STUDIO CITY,In LA County,California,91604
180133,P AND S SCAFFOLD SERVICES INC,3939 ATLANTIC AVE,LONG BEACH,In LA County,California,90807
18841,"NATIONAL EMBLEM, INC.",3925 E. VERNON ST.,LONG BEACH,In LA County,California,90810
113464,PLUMBERS DEPOT INC,3921 W. 139TH ST.,HAWTHORNE,In LA County,California,90250
186684,CICERO BROTHERS ENTERPRISES LLC,3920 VALLEY BLVD STE A,WALNUT,In LA County,California,91789
107027,CONSOLIDATED MECHANICAL AIR CONDITIONING & HEATING INC,3848 E COLORADO BLVD SUITE 4,PASADENA,In LA County,California,91107
107027,CONSOLIDATED MECHANICAL AIR CONDITIONING & HEATING INC,3848 E COLORADO BLVD,PASADENA,In LA County,California,91107
214114,LA PIPE & SUPPLY INC,382 N LEMON AVE # 102,WALNUT,In LA County,California,91789
100130,CALIFORNIA ARBOR CARE INC,3770 E. GRAND AVENUE,POMONA,In LA County,California,91766
160430,SISTAHFRIENDS,3756 SANTA ROSALIA DR STE C219,LOS ANGELES,In LA County,California,90008
163982,TURNING POINT ALCOHOL & DRUG EDUCATION PROGRAM INC,3756 SANTA ROSALIA DR STE 617,LOS ANGELES,In LA County,California,90008
160430,SISTAHFRIENDS,3756 SANTA ROSALIA DR,LOS ANGELES,In LA County,California,90008
142763,"HIGH DENSITY, INC.",375 REDONDO AVE # 472,LONG BEACH,In LA County,California,90814
117286,EPIDAURUS,3745 SOUTH GRAND AVENUE,LOS ANGELES,In LA County,California,90007
140533,RADIOWAVE MARKETING & PROMOTIONS,3740 MOORE STREET,LOS ANGELES,In LA County,California,90066
509772,INDUSTRIAL SPECIALTY PRODUCTS,3731A SAN GABRIEL RIVER PKWY.,PICO RIVERA,In LA County,California,90660
208813,JON A SCHULTZ,3730 INDUSTRY AVE,LAKEWOOD,In LA County,California,90712
501192,KOREATOWN YOUTH & COMMUNITY,3727 W 6TH ST STE 300,LOS ANGELES,In LA County,California,90020
199941,GUIDING PRINCIPLES TECHNOLOGY INC,3711 LONG BEACH BLVD STE 500,LONG BEACH,In LA County,California,90807
513983,"E.W. MOON, INC.",3710 SOUTH ROBERTSON BLVD,CULVER CITY,In LA County,California,90232
201619,SOLA COMMUNITY PEACE CENTER,3651 S VERMONT AVE,LOS ANGELES,In LA County,California,90007
211478,KELLY POFAHL,36507 RODEO ST,PALMDALE,In LA County,California,93552
163451,CSDA DESIGN GROUP INC,364 BUSH ST FL 2,SAN FRANCISCO,Outside of LA County,California,94104
63138,CARD INTEGRATORS,3625 SERPENTINE DR,LOS ALAMITOS,Outside of LA County,California,90720
175859,VET NATIONAL INC,3621 STATE ST,SANTA BARBARA,Outside of LA County,California,93105
160284,PACIFIC ENGINEERS GROUP,3611 CAHUENGA BLVD W FL 1,LOS ANGELES,In LA County,California,90068
174723,US ROCK CORPORATION,3609 W. CHAPMAN LANE,INGLEWOOD,In LA County,California,90305
131235,A-PLUS SUPERIOR SANITATION,3601 SMITH AVE,ACTON,In LA County,California,93510
120288,"SIMPSON & SIMPSON MANAGEMENT CONSULTING, INC",3600 WILSHIRE BLVD STE 1710,LOS ANGELES,In LA County,California,90010
190895,"EFFICIENT AIRE MECHANICAL, INC",360 E 2ND ST,LOS ANGELES,In LA County,California,90012
190895,"EFFICIENT AIRE MECHANICAL, INC",360 E 2ND ST,LOS ANGELES,In LA County,California,90012
506494,INSTITUTE FOR MULTICULTURAL,"3580 WILSHIRE BLVD., STE. 2000",LOS ANGELES,In LA County,California,90010
137040,FAITH AND COMMUNITY EMPOWERMENT,3550 WILSHIRE BLVD STE 736,LOS ANGELES,In LA County,California,90010
137040,FAITH AND COMMUNITY EMPOWERMENT,3550 WILSHIRE BLVD,LOS ANGELES,In LA County,California,90010
123400,"POWER-TECH ENGINEERS, INC.","355 S. LEMON AVE., STE. A",WALNUT,In LA County,California,91789
172309,"LOTUS USA, INC.",355 S GRAND AVE,LOS ANGELES,In LA County,California,90071
174665,PARTY PLANET SUPPLIES INC,3545 E 1ST ST,LOS ANGELES,In LA County,California,90063
511690,STEMAR EQUIPMENT SUPPLY,353 S CENTRAL AVE,LOS ANGELES,In LA County,California,90013
186797,SQUARE SIGNS LLC,3520 W VALHALLA DR,BURBANK,In LA County,California,91505
112305,ASBESTOS INSTANT RESPONSE INC.,3517 W. WASHINGTON BLVD.,LOS ANGELES,In LA County,California,90018
152423,TAYLOR FLAG & BANNER CO,3508 KNOXVILLE AVE.,LONG BEACH,In LA County,California,90808
149245,EXMED INC.,3500 W OLIVE AVE,BURBANK,In LA County,California,91505
107413,JCE STRUCTURAL ENGINEERING GROUP INC,35 HUGUS ALLEY STE 211,PASADENA,In LA County,California,91103
172012,EVERPARK,3470 WILSHIRE BLVE SUITE 940,LOS ANGELES,In LA County,California,90010
108271,"THE KULIT GROUP, INC.",347 W ARBOR VITAE ST,INGLEWOOD,In LA County,California,90301
167777,GUADALUPE RODRIGUEZ,3468 GARNET STREET,LOS ANGELES,In LA County,California,90023
151427,KAMBRIAN CORPORATION,346 N AZUSA AVE,LA PUENTE,In LA County,California,91744
149561,TSG ENTERPRISES INC,3452 E FOOTHILL BLVD,PASADENA,In LA County,California,91107
142649,ABCO DEVELOPMENT CORPORATION,3435 WILSHIRE BLVD STE 2365,LOS ANGELES,In LA County,California,90010
59054,"L TECH NETWORK SERVICES, INC.",3424A GARFIELD AVE,COMMERCE,In LA County,California,90040
160503,HORIZON MECHANICAL CONTRACTORS OF CALIFORNIA,34234 MOUNTAIN PL,ACTON,In LA County,California,93510
104896,GOODWILL INDUSTRIES OF SOUTHERN CALIFORNIA,342 SAN FERNANDO RD,LOS ANGELES,In LA County,California,90031
104896,GOODWILL INDUSTRIES OF SOUTHERN CALIFORNIA,342 N SAN FERNANDO RD,LOS ANGELES,In LA County,California,90031
104896,GOODWILL INDUSTRIES OF SOUTHERN CALIFORNIA,342 N SAN FERNANDO RD,LOS ANGELES,In LA County,California,91307
188885,CAB COMMUNICATIONS,3417 W BEVERLY BLVD,MONTEBELLO,In LA County,California,90640
209075,ERSEVON LLC,3415 S SEPULVEDA BLVD,LOS ANGELES,In LA County,California,90034
209075,ERSEVON LLC,3415 S SEPULVEDA BLVD,LOS ANGELES,In LA County,California,90034
192865,YOUTH N MOTION ACADEMY INCORPORATED,3403 W 43RD ST,LOS ANGELES,In LA County,California,90008
106358,AHR SIGNS INC,3400 N SAN FERNANDO RD,LOS ANGELES,In LA County,California,90065
210885,360MEDIA83 L.L.C,3400 COTTAGE WAY STE G2,SACRAMENTO,Outside of LA County,California,95825
520245,P.A.T.H.,340 N MADISON AVE.,LOS ANGELES,In LA County,California,90004
171989,"AF&S PRODUCTS & SERVICES, INC.",34 MARRICOPA CT.,PALM DESERT,Outside of LA County,California,92211
189471,"KISBA CONTRACTING, INC.",337 N VINEYARD AVE,ONTARIO,Outside of LA County,California,91764
189085,HIGH PERFORMANCE MOBILE GAMING LLC,3355 N WHITE AVE,LA VERNE,In LA County,California,91750
512266,R.P. LAURAIN & ASSOCIATES,"3353 LINDEN AVENUE, SUITE 200",LONG BEACH,In LA County,California,90807
106326,MANAGED CAREER SOLUTIONS SOCIAL PURPOSE CORPORATION,3333 WILSHIRE BLVD.,LOS ANGELES,In LA County,California,90010
178179,"LAUSD STUDENT HEALTH SERVICES SUPPORT FUND, INC.",333 S BEAUDRY AVE FL 29-205,LOS ANGELES,In LA County,California,90017
208137,DYSON & WOMACK,3327 VERDUGO RD,LOS ANGELES,In LA County,California,90065
156870,LOS ANGELES METROPOLITAN CHURCHES,3320 S CENTRAL AVE,LOS ANGELES,In LA County,California,90011
123181,H&H JOBBING INC,3316 PICO BLVD,SANTA MONICA,In LA County,California,90405
44952,ENVIRONMENTAL ENGINEERING,3312 BARNES CIRCLE,GLENDALE,In LA County,California,91208
170394,MATTHEW GEIGER,331 W CHESTNUT AVE,MONROVIA,In LA County,California,91016
185599,NTS COMMUNICATIONS,3301 S BROADWAY,LOS ANGELES,In LA County,California,90007
105311,ENVIRONMENTAL TREATMENT & TECHNOLOGY INC,3275 WALNUT AVENUE,SIGNAL HILL,In LA County,California,90755
179485,DISTINCTIVETECH LLC,324 E FOOTHILL BLVD STE 203,ARCADIA,In LA County,California,91006
206750,LUZ M CHACON,3229 STOCKBRIDGE AVE,LOS ANGELES,In LA County,California,90032
160493,BUTERA & JOCHEN,32264 CASTAIC ROAD,CASTAIC,In LA County,California,91384
517818,"ILLUMINOUS ENTERPRISES, INC.",3225 BELLE RIVER DR.,HACIENDA HEIGHTS,In LA County,California,91745
141199,MARIANNE NEMES,3218 CHEVIOT VISTA PL,LOS ANGELES,In LA County,California,90034
134674,CLEAN ENVIRONMENTAL INC,321 E 47TH PLACE,LOS ANGELES,In LA County,California,90011
168442,HOLOS INC,321 AVENIDA LLC,N HOLLYWOOD,In LA County,California,91606
134640,"BORETTI, INC.",3206 N DINUBA BLVD,VISALIA,Outside of LA County,California,93291
506525,DAVIS BLUE PRINT CO INC,3205 N. MAIN ST.,LOS ANGELES,In LA County,California,90031
128960,KT INDUSTRIES INC.,3203 FLETCHER DRIVE,LOS ANGELES,In LA County,California,90065
170378,NATIONAL EAGLE SECURITY INC.,3200 WILSHIRE BLVD STE 1208,LOS ANGELES,In LA County,California,90010
156854,HILLTOP ENGINEERING AND CONSTRUCTION CORP,319 REES ST,PLAYA DEL REY,In LA County,California,90293
151748,"BARBARA L. HALL, PE, INC.",318 WEST EVERGREEN AVENUE,MONROVIA,In LA County,California,91016
500532,LANCASTER PLUMBING SUPPLIES INC,317 W. AVENUE I,LANCASTER,In LA County,California,93534
194572,REX WILDE,317 1/2 S AVENUE 55,LOS ANGELES,In LA County,California,90042
178770,CATALYST ENVIRONMENTAL SOLUTIONS CORPORATION,315 MONTANA AVE # 311,SANTA MONICA,In LA County,California,90403
150188,AMERICAN TRANSPORTATION SYSTEMS,3133 E SOUTH ST,LONG BEACH,In LA County,California,90805
121633,"A-TECH SYSTEMS, INC.","3129 S. HACIENDA BLVD, SUITE 416",HACIENDA HEIGHTS,In LA County,California,91745
172080,ARC CONSTRUCTION INC,3123 HARMONY PLACE,LA CRESCENTA,In LA County,California,91214
133264,"C. R. & A CUSTOM APPAREL, INC.",312 W. PICO BLVD.,LOS ANGELES,In LA County,California,90015
199062,GLADEO INC,3110 MAIN ST,SANTA MONICA,In LA County,California,90405
210574,SEASIDE COMPANIES LLC,30951 HICKORY HILL RD,MILLSBORO,Out of State,Delaware,19966
517143,HARBOR AREA GANG ALTERNATIVES PROGRAM,309 W. OPP ST.,WILMINGTON,In LA County,California,90744
204198,TAYLOR PRINTING COMPANY LLC,3088 N CLYBOURN AVE,BURBANK,In LA County,California,91505
175228,"BUSINESS U, INC.",30767 GATEWAY PL,RMV,Outside of LA County,California,92694
187696,"HALLSTA 360, INC.",306 S MYRTLE AVE FL 2,MONROVIA,In LA County,California,91016
187696,"HALLSTA 360, INC.",306 S MYRTLE AVE,MONROVIA,In LA County,California,91016
109859,ADVANCED INFRASTRUCTURE TECHNOLOGIES LLC,3055 KASHIWA STREET,TORRANCE,In LA County,California,90505
175412,ROBERT BURGESS,305 HATTEN RD,SEASIDE,Outside of LA County,California,93955
505843,DAVE WILLIAMS,3047 TYLER AVE.,EL MONTE,In LA County,California,91731
142169,"VISION ELECTRIC WHOLESALE, INC",3044 W. MAIN ST.,ALHAMBRA,In LA County,California,91801
173097,ROBIN O'CONNELL,3044 PAULA DRIVE,SANTA MONICA,In LA County,California,90405
125418,GEORGE HILLS COMPANY,3043 GOLD CANAL DR STE 200,RANCHO CORDOVA,Outside of LA County,California,95670
169970,TONY M RUFFOLO,3042 E. CALIFORNIA BLVD.,PASADENA,In LA County,California,91107
187276,ALICIA DIAZ,3037 CUDAHY STREET,HUNTINGTON PARK,In LA County,California,90255
818,CALOX INC,3034 FIERRO ST.,LOS ANGELES,In LA County,California,90065
521546,NEW ECONOMICS FOR WOMEN,303 LOMA DR,LOS ANGELES,In LA County,California,90017
118972,INTEGRATED ENGINEERING MANAGEMENT,302 W 5TH ST,SAN PEDRO,In LA County,California,90731
145333,"STEEL EXCHANGE, INCORPORATED",302 W 5TH ST,SAN PEDRO,In LA County,California,90731
147015,TRILLAMED LLC,30100 TELEGRAPH RD STE 366,BINGHAM FARMS,Out of State,Michigan,48025
171911,"ON TARGET ELECTRIC, INC.",3002 DOW AVE BLDG 100 STE 132,TUSTIN,Outside of LA County,California,92780
171911,"ON TARGET ELECTRIC, INC.",3002 DOW AVE,TUSTIN,Outside of LA County,California,92780
506348,TRIANGLE TRUCK PARTS INC.,300 S. IRWINDALE AVE.,AZUSA,In LA County,California,91702
100595,"GATEWAY SCIENCE & ENGINEERING,INC.",300 N LAKE AVE,PASADENA,In LA County,California,91101
208162,"SCALECAPACITY, INC.",300 N 3RD ST STE 260,BURBANK,In LA County,California,91502
210321,GOLDEN PIG COLLECTION LLC,300 E ESPLANADE DR STE 900,OXNARD,Outside of LA County,California,93036
118419,"HULS ENVIRONMENTAL MANAGEMENT,LLC",29911 NIGUEL RD,LAGUNA NIGUEL,Outside of LA County,California,92607
155018,"TOTAL RECALL CAPTIONING, INC.",29629 CANWOOD ST.,AGOURA HILLS,In LA County,California,91301
59116,ORION ENVIRONMENTAL INC.,2955 REDONDO AVE,LONG BEACH,In LA County,California,90806
143025,"TALLAL, INC.",29500 HEATHERCLIFF RD,MALIBU,In LA County,California,90265
181094,"GRAFFITI SHIELD, INC.",2940 E LA PALMA AVE STE D,ANAHEIM,Outside of LA County,California,92806
202258,PROED CONSULTING AND STAFFING INC,2934 E GARVEY AVE S,WEST COVINA,In LA County,California,91791
152079,FACTORY DIRECT DISTRIBUTION CORP,2930 SUPPLY AVE,COMMERCE,In LA County,California,90040
178720,"VERMONT OUTLET, INC.",2929 S. VERMONT AVENUE,LOS ANGELES,In LA County,California,90007
44187,ALHAMBRA GLASS CO INC,2904 W. VALLEY BLVD.,ALHAMBRA,In LA County,California,91803
170427,ELEVATING SALES CORP.,2903 SATURN ST STE C,BREA,Outside of LA County,California,92821
170427,ELEVATING SALES CORP.,2903 SATURN ST STE C,BREA,Outside of LA County,California,92821
152163,"LIVEVIEWGPS, INC.",29021 AVE SHERMAN STE 103,VALENCIA,In LA County,California,91355
519912,FSY ARCHITECTS INC.,"2902 KNOX AVE., 2ND FLOOR",LOS ANGELES,In LA County,California,90039
30742,PARAMOUNT MATTRESS INC,2900 E. OLYMPIC BLVD.,LOS ANGELES,In LA County,California,90023
201894,RESMED 1 LLC (CA),28807 ROSEISLE CT,MENIFEE,Outside of LA County,California,92584
145696,"AEGIS HC, LLC",28511 SILVERTON DR,LAGUNA NIGUEL,Outside of LA County,California,92677
142173,EFS WEST,28472 CONSTELLATION RD,VALENCIA,In LA County,California,91355
142368,AMMMM INC,28364 SOUTH WESTERN AVE STE 402,RANCHO PALOS VERDES,In LA County,California,90275
155039,"ACCESS PACIFIC, INC.",2835 SIERRA GRANDE ST,PASADENA,In LA County,California,91107
189440,FIRE STARTER STUDIOS,28348 CONSTELLATION RD,SANTA CLARITA,In LA County,California,91355
171038,"INTELLIGENT FIRE SYSTEMS & SOLUTIONS, INC.",28338 CONSTELLATION RD,VALENCIA,In LA County,California,91355
171038,"INTELLIGENT FIRE SYSTEMS & SOLUTIONS, INC.",28338 CONSTELLATION RD,VALENCIA,In LA County,California,91355
122107,SAFE ENVIRONMENT ENGINEERING,28318 CONSTELLATION RD,VALENCIA,In LA County,California,91355
512124,LOS ANGELES CONSERVATION CORPS,2824 S. MAIN ST.,LOS ANGELES,In LA County,California,90007
170932,SLB PRINTING INC,2818 S ROBERTSON BVD,LOS ANGELES,In LA County,California,90034
164285,KACEY ROUNTREE,2812 HERMOSITA DRIVE,GLENDALE,In LA County,California,91208
522450,TEAGUE CUSTOM MARINE,28115 AVENUE STANFORD,VALENCIA,In LA County,California,91355
205443,AMY TRINH,280 S LEMON AVE UNIT 402,WALNUT,In LA County,California,91788
28700,"POWERLAND EQUIPMENT, INC.",27943 VALLEY CENTER RD.,VALLEY CENTER,Outside of LA County,California,92082
181979,CROWN TROPHY OF SANTA CLARITA,27811 AVENUE HOPKINS STE 7,VALENCIA,In LA County,California,91355
210925,"SENSE TECHNOLOGY SOLUTIONS, LLC.",27648 SKYLARK LN,SANTA CLARITA,In LA County,California,91350
212279,"WADECO BUSINESS CENTER, LLC",27305 LIVE OAK RD,CASTAIC,In LA County,California,91384
512997,SEPCO EARTHSCAPE INC,2730 WILSHIRE BLVD STE 660,SANTA MONICA,In LA County,California,90403
170466,HADI  PISHDADIAN,2727 WEST VALLEY BLVD,ALHAMBRA,In LA County,California,91803
185029,ARTS FOR HEALING AND JUSTICE NETWORK,2727 E ANAHEIM ST,LONG BEACH,In LA County,California,90804
517389,SANTA CLARITA VALLEY COMMITTEE ON AGING CORP.,27180 GOLDEN VALLEY RD,SANTA CLARITA,In LA County,California,91350
51881,FAR EAST LANDSCAPE & MAINTENANCE INC,27118 COLEBROOK PL,VALENCIA,In LA County,California,91354
187313,IGNITED LLC,2711 N SEPULVEDA BLVD # 202,MANHATTAN BCH,In LA County,California,90266
177249,BOYLE HEIGHTS ARTS CONSERVATORY,2708 E CESAR E CHAVEZ AVE # 101,LOS ANGELES,In LA County,California,90033
211911,EDUARDO ESCUTIA,2702 HANAWALT ST,LA VERNE,In LA County,California,91750
34147,PLUMBING & INDUSTRIAL SUPPLY,2700 S SANTE FE AVE.,VERNON,In LA County,California,90058
62973,ELECTRIC SERVICE & SUPPLY CO OF PASADENA,2668 E FOOTHILL BLVD,PASADENA,In LA County,California,91107
100189,AURORA INDUSTRIAL HYGIENE INC,2667 E 28TH ST STE 512,SIGNAL HILL,In LA County,California,90755
179953,AP SAFETY,2667 E 28TH ST STE 509,SIGNAL HILL,In LA County,California,90755
100189,AURORA INDUSTRIAL HYGIENE INC,2667 E 28TH ST,SIGNAL HILL,In LA County,California,90755
179953,AP SAFETY,2667 E 28TH ST,SIGNAL HILL,In LA County,California,90755
56710,ARROW RESTAURANT EQUIPMENT & SUPPLIES INC,26512 OAK TERRACE PL,VALENCIA,In LA County,California,91381
506099,KALBAN INC,26450 RUETHER AVE,SANTA CLARITA,In LA County,California,91350
111456,LINCOLN TRAINING CENTER,2643 LOMA AVE.,SOUTH EL MONTE,In LA County,California,91733
505696,PROJECT IMPACT,2640 INDUSTRY WAY.,LYNWOOD,In LA County,California,90262
187354,"VETUP, LLC",26375 PIAZZA DI SARRO,SANTA CLARITA,In LA County,California,91321
185384,RC LAO AIR CONDITIONING,2620 ORANGE GROVE AVE,ALHAMBRA,In LA County,California,91803
109531,"MULTI W SYSTEMS, INC.",2615 STROZIER AVE.,EL MONTE,In LA County,California,91733
173783,WESTERN INDOOR ENVIRONMENTAL SERVICES,2609 W BEVERLY BLVD,MONTEBELLO,In LA County,California,90640
187026,THE SAUCE CREATIVE SERVICES CORP,2600 S CALIFORNIA AVE STE C,MONROVIA,In LA County,California,91016
164470,PMCS GROUP INC.,2600 E PACIFIC COAST HWY,LONG BEACH,In LA County,California,90804
157534,RELEVANT-IT,25876 THE OLD RD PMB 302,STEVENSON RNH,In LA County,California,91381
173212,"BAE URBAN ECONOMICS, INC.",2560 9TH ST,BERKELEY,Outside of LA County,California,94710
173212,"BAE URBAN ECONOMICS, INC.",2560 9TH ST,BERKELEY,Outside of LA County,California,94710
213451,FOREVERLAMP INC.,2550 W 237TH ST,TORRANCE,In LA County,California,90505
183499,D & S SECURITY INC,2550 CORPORATE PL STE C107,MONTEREY PARK,In LA County,California,91754
157552,"ONYX ARCHITECTS, INC.",2540 E COLORADO BLVD,PASADENA,In LA County,California,91107
207219,WILBERT KIGULU,254 N LAKE AVE # 128,PASADENA,In LA County,California,91101
123894,"SAFETYVIBE, INC.",2530 CORPORATE PL,MONTEREY PARK,In LA County,California,91754
187035,CG RESOURCE MANAGEMENT AND ENGINEERING,2529 AMHERST ST,LA VERNE,In LA County,California,91750
180346,DIANA M ADAROS,2525 N BOURBON ST,ORANGE,Outside of LA County,California,92865
195621,"AVENUE HOME CARE, INC",2515 PIONEER AVE STE 3,VISTA,Outside of LA County,California,92081
212963,ALPINE TECHNOLOGIES LLC,2510 W 237TH ST STE 19,TORRANCE,In LA County,California,90505
142713,JAIME HERNANDEZ,"25040 AVENUE TIBBITTS, UNIT #E",VALENCIA,In LA County,California,91355
194096,ZHAN PAUL KING,2502 EL SOL,ALTADENA,In LA County,California,91001
503082,"PARENTS ANONYMOUS, INC","250 WEST FIRST STREET, SUITE 250",CLAREMONT,In LA County,California,91711
199335,GOD'S PANTRY,250 E CENTER ST,POMONA,In LA County,California,91767
164178,TALIN BAHADARIAN,24980 GREENSBRIER DR.,STEVENSON RANCH,In LA County,California,91381
132373,ADVANCED WINDOW FILM SOLUTIONS INC,2464 W WASHINGTON BLVD,LOS ANGELES,In LA County,California,90018
28943,"PORTER BOILER SERVICE, INC.",2460 CERRITOS AVE.,SIGNAL HILL,In LA County,California,90755
146460,ABSOLUTE ACCURACY INC,2451 RIVERSIDE DRIVE,LOS ANGELES,In LA County,California,90039
166716,"ALAN J. TERRANO CO., INC.",24307 MAGIC MOUNTAIN PKWY # 229,VALENCIA,In LA County,California,91355
177054,"VMA COMMUNICATIONS, INC",243 OBERLIN AVE,CLAREMONT,In LA County,California,91711
184368,"TEC-LINK, LLC",241 S MARKET #4,INGLEWOOD,In LA County,California,90301
161303,"SO-CAL INSULATION, INC.",2401 EADS STREET,LOS ANGELES,In LA County,California,90031
148807,3 WEST CAPITAL INC.,24007 VENTURA BLVD,CALABASAS,In LA County,California,91302
213965,"HAZMAT RESOURCE, INC.",2400 CELSIUS AVE STE H,OXNARD,Outside of LA County,California,93030
202915,AMERICAN POLYMERS LLC,2380 E 51ST ST,VERNON,In LA County,California,90058
158171,"VISTAM, INC.",2375 WALNUT AVE.,SIGNAL HILL,In LA County,California,90755
191034,APEX INTEGRATED DISTRIBUTION LLC,2372 MORSE AVE STE 162,IRVINE,Outside of LA County,California,92614
178215,POWER CAPITAL MANAGEMENT,23679 CALABASAS ROAD 539,CALABASAS,In LA County,California,91302
154928,CPM ONE SOURCE INC,"23679 CALABASAS RD., #186",CALABASAS,In LA County,California,91302
105066,UNISERVE FACILITIES SERVICES CORP,2363 S ATLANTIC BLVD,COMMERCE,In LA County,California,90040
183516,REM SUPPLY INC,236 W MOUNTAIN ST,PASADENA,In LA County,California,91103
174941,"EVITARUS, INC.",2355 WESTWOOD BLVD,LOS ANGELES,In LA County,California,90064
172298,BCA WATSON RICE LLP,2355 CRENSHAW BLVD.,TORRANCE,In LA County,California,90501
210920,GL PLUMBING SERVICE,2355 COWLIN AVE,COMMERCE,In LA County,California,90040
505984,INTERIOR DEMOLITION INC,23508 PINE ST,NEWHALL,In LA County,California,91321
505984,INTERIOR DEMOLITION INC,23508 PINE ST,NEWHALL,In LA County,California,91321
44939,DUTHIE ELECTRIC SERVICE CORP,2335 E CHERRY INDUSTRIAL CIR,LONG BEACH,In LA County,California,90805
103291,CALIFORNIA INTEGRATED SOLUTIONS INC,23341 GOLDEN SPRINGS DRIVE,DIAMOND BAR,In LA County,California,91765
153330,TRIDENT SUPPLY INCORPORATED,23341 GOLDEN SPRINGS DR STE 101,DIAMOND BAR,In LA County,California,91765
153330,TRIDENT SUPPLY INCORPORATED,23341 GOLDEN SPRINGS DR,DIAMOND BAR,In LA County,California,91765
153330,TRIDENT SUPPLY INCORPORATED,23341 GOLDEN SPRINGS DR,DIAMOND BAR,In LA County,California,91765
200878,DREADNOUGHT ENDEAVORS INC,23332 PARK MARIPOSA,CALABASAS,In LA County,California,91302
187924,"ENVIRONMENTAL OUTREACH STRATEGIES, INC.",23285 PARK ENSENADA,CALABASAS,In LA County,California,91302
209598,MONARKA DEVELOPMENT CORPORATION,2327 SOUTHWEST DR,LOS ANGELES,In LA County,California,90043
207452,"MAMMOTH RX, INC",23151 ALCALDE DR STE A2,LAGUNA HILLS,Outside of LA County,California,92653
123380,LTSC COMMUNITY DEVELOPMENT CORPORATION,231 E. 3RD ST. STE. G106,LOS ANGELES,In LA County,California,90013
176964,KHUSH COOPER & ASSOCIATES,23029 COLLINS ST,WOODLAND HLS,In LA County,California,91367
185419,"ROSE CITY COFFEE, LLC",2302 E COLORADO BLVD,PASADENA,In LA County,California,91107
133842,INSTANT INFOSYSTEMS,2301 W 190TH ST,TORRANCE,In LA County,California,90504
190811,BAYINFOTECH,2300 1ST ST STE D336,LIVERMORE,Outside of LA County,California,94550
187683,G&G MECHANICAL INC.,230 E AVENUE K4 STE 7,LANCASTER,In LA County,California,93535
182417,"NH ENVIRONMENTAL, INC.",229 N. CALIFORNIA AVE,CITY OF INDUSTRY,In LA County,California,91744
200195,"TERI & YAKI ASIAN COMFORT FOOD #3, INC.",229 N LAKE AVE,PASADENA,In LA County,California,91101
211164,INSSKI INC.,22704 VENTURA BLVD PMB 141,WOODLAND HLS,In LA County,California,91364
206102,V & Z ENTERPRISES INC.,22647 VENTURA BLVD PMB 411,WOODLAND HLS,In LA County,California,91364
110023,TRINUS CORPORATION,225 S LAKE AVE,PASADENA,In LA County,California,91101
190116,ROY E WHITEHEAD INC.,2245 VIA CERRO,RIVERSIDE,Outside of LA County,California,92509
199058,THE MACLEAN GROUP LLC,2233 WATT AVE STE 296,SACRAMENTO,Outside of LA County,California,95825
169805,"NO SWEAT HEATING AND AIR CONDITIONING, INC.",22325 HARBOR RIDGE LANE UNIT 5,TORRANCE,In LA County,California,90502
199293,JON S HEYMAN,22320 WARMSIDE AVE,TORRANCE,In LA County,California,90505
184143,"INFINITY GOVERNMENT PROCUREMENT CONSULTING, LLC",223 S GLENDORA AVE,GLENDORA,In LA County,California,91741
205305,"ENTOURAGE TRANSPORTATION, LLC.",22287 MULHOLLAND HWY,CALABASAS,In LA County,California,91302
176472,PRIME ELECTRIC WHOLESALE CORP.,2220 W. MAIN STREET,ALHAMBRA,In LA County,California,91801
188711,TANO LOGISTICS LLC,222 W 6TH ST STE 400,SAN PEDRO,In LA County,California,90731
189925,TIBURON INDUSTRIAL INC,222 W 6TH ST,SAN PEDRO,In LA County,California,90731
131748,"LINCUS, INC.",222 E HUNTINGTON DR,MONROVIA,In LA County,California,91016
215308,"CAY INDUSTRIES, LLC",2219 W OLIVE AVE,BURBANK,In LA County,California,91506
52375,THE MACHADO ENVIRONMENTAL CORP,2219 BROADVIEW DR,GLENDALE,In LA County,California,91208
100446,TRANSLATING SERVICES INC,22141 VENTURA BLVD,WOODLAND HLS,In LA County,California,91364
32724,BRIAN ZIMMERMAN PHOTOGRAPHICS,"22114 S. VERMONT AVE., STE. 103",TORRANCE,In LA County,California,90502
137826,"SEBASTIAN WATERWORKS, INC.",221 W POMONA BLVD,MONTEREY PARK,In LA County,California,91754
137826,"SEBASTIAN WATERWORKS, INC.",221 W POMONA BLVD,MONTEREY PARK,In LA County,California,91754
61135,NAKATOMI & ASSOCIATES INC,2207 COLBY AVENUE,LOS ANGELES,In LA County,California,90064
117286,EPIDAURUS,2202 S FIGUEROA ST PMB #717,LOS ANGELES,In LA County,California,90007
172357,WESTON INDUSTRIES INC.,220 W 8TH ST,SAN PEDRO,In LA County,California,90731
513874,DON WOLF & ASSOCIATES INC,21955 PLUMMER STREET,CHATSWORTH,In LA County,California,91311
178124,"NUTECH PRINT AND APPAREL, INC.",21814 1/2 S VERMONT AVE,TORRANCE,In LA County,California,90502
173924,ALLIANCE FOR COMMUNITY EMPOWERMENT,21801 SHERMAN WAY,CANOGA PARK,In LA County,California,91305
183625,MASSOUD KARIMZADEH,2180 S BEVERLY GLEN BLVD,LOS ANGELES,In LA County,California,90025
121874,AVALON RAFTS SALES & SERVICE,218 N. MARINE AVE.,WILMINGTON,In LA County,California,90744
120489,CALIFORNIA HEALTH & SAFETY INC,21720 S WILMINGTON AVE STE 307,LONG BEACH,In LA County,California,90810
126740,LAURA NIXHOLM,"21704 DEVONSHIRE ST., # 144",CHATSWORTH,In LA County,California,91311
107361,"LIN CONSULTING, INC","21660 COPLEY DR., STE. 270",DIAMOND BAR,In LA County,California,91765
149940,SHARESQUARED INC,2155 VERDUGO BLVD SUITE 33,MONTROSE,In LA County,California,91020
185921,"SOUTHBAY SUPPLIERS, LLC",21515 HAWTHORNE BLVD,TORRANCE,In LA County,California,90503
126275,"IMAGE QUEST PLUS, LLC",215 N MARENGO AVE FL 3,PASADENA,In LA County,California,91101
168482,SOUTHWEST FIRE PROTECTION CO.,215 E. EL SUR STREET,MONROVIA,In LA County,California,91016
187772,GUNDARA DESIGN INC.,21439 CELTIC COURT,CHATSWORTH,In LA County,California,91311
185078,INDEPENDENCE CAPITAL LLC,214 W 49TH ST,LOS ANGELES,In LA County,California,90037
60679,PROFESSIONAL REFINISHING ORG,214 S 5TH AVE,LA PUENTE,In LA County,California,91746
190179,"SILVER STAR MOVERS, INC.",2132 W 237TH ST,TORRANCE,In LA County,California,90501
174165,LEKSON INC,21309 NORWALK BLVD #53,HAWAIIAN GARDENS,In LA County,California,90716
136260,"CONSTANT AND ASSOCIATES, INC.",21250 HAWTHORNE BLVD STE 400,TORRANCE,In LA County,California,90503
100045,CHOYASSOCIATES,21250 HAWTHORNE BLVD,TORRANCE,In LA County,California,90503
140193,HH FREMER ARCHITECTS,2120 WILSHIRE BLVD,SANTA MONICA,In LA County,California,90403
189738,"J. ROSE INDUSTRIES, LLC",2110 ARTESIA BOULEVARD #488,REDONDO BEACH,In LA County,California,90278
193505,"ALL PRO SIGNS, INC.",2107 BORDER AVE,TORRANCE,In LA County,California,90501
178217,THE GREGGROUP INC,2106 ROCKEFELLER LN UNIT E,REDONDO BEACH,In LA County,California,90278
124955,KAL KRISHNAN CONSULTING,2101 E EL SEGUNDO BLVD,EL SEGUNDO,In LA County,California,90245
157512,REBEL VAN LINES,2100 S ALAMEDA ST,COMPTON,In LA County,California,90221
6662,GRACE COMMUNICATIONS INC,210 S SPRING ST,LOS ANGELES,In LA County,California,90012
122867,HOT SHOTS ATHLETIC APPAREL INC,20947 CURRIER RD UNIT E,WALNUT,In LA County,California,91789
508085,"LINSCOTT, LAW & GREENSPAN ENG.",20931 BURBANK BLVD,WOODLAND HLS,In LA County,California,91367
118972,INTEGRATED ENGINEERING MANAGEMENT,2091 SALT AIR DR,SANTA ANA,Outside of LA County,California,92705
172138,TRIANGLE SPORTS INCORPORATED,209 S 9TH AVE,LA PUENTE,In LA County,California,91746
166962,"ORGANICSORB, LLC",208 E 6TH ST STE C17,LOS ANGELES,In LA County,California,90014
166962,"ORGANICSORB, LLC",208 E 6TH ST,LOS ANGELES,In LA County,California,90014
173724,INNOVATIVE INSPECTION SERVICES INC,20775 S WESTERN AVE STE 101,TORRANCE,In LA County,California,90501
208056,ADERSA GROUP LLC,207 W 138TH ST,LOS ANGELES,In LA County,California,90061
144452,"SRFS, INC",20615 VANOWEN ST,WINNETKA,In LA County,California,91306
191334,MARGARET MANNING,20614 BUDLONG AVE,TORRANCE,In LA County,California,90502
182445,"STEELMAN BUILD & CONSTRUCTION, INC.",2058 N MILLS AVE NUM 224,CLAREMONT,In LA County,California,91711
182149,"CORONADO DISTRIBUTION COMPANY, INC.",205 W 35TH ST,NATIONAL CITY,Outside of LA County,California,91950
57091,"MARRS SERVICES, INC.",205 S BROADWAY STE 618,LOS ANGELES,In LA County,California,90012
31075,ALCO TARGET COMPANY INC,2048 CENTRAL AVE,DUARTE,In LA County,California,91010
176366,"SJD&B, INC.",20451 VALLEY BLVD,WALNUT,In LA County,California,91789
119972,SPECTRUM ENVIRONMENTAL SERVICE,20434 CORISCO ST,CHATSWORTH,In LA County,California,91311
507514,UNIVERSAL REPROGRAPHICS INC,2043 PONTIUS AVENUE,LOS ANGELES,In LA County,California,90025
199971,LOTUS DESIGNS LLC,2041 W 109TH ST,LOS ANGELES,In LA County,California,90047
170080,TOTAL CORPORATE SOLUTIONS,20335 S WESTERN AVE,TORRANCE,In LA County,California,90501
176413,ENVIRO PRODUCTS WEST INC,2029 VERDUGO BLVD,MONTROSE,In LA County,California,91020
117886,"PARKER LIGHTING, INC.",201 WEST MANCHESTER BLVD,INGLEWOOD,In LA County,California,90301
179357,"PRECISE WEIGHING SYSTEMS, INC.",20011 JACANA CT,SANTA CLARITA,In LA County,California,91351
186200,"CLASSIC FLOOR CARE, INC.",2001 E FINANCIAL WAY STE 104,GLENDORA,In LA County,California,91741
171022,"VERDICAL GROUP, INC.",199 S LOS ROBLES AVE,PASADENA,In LA County,California,91101
47964,IMAGING PRODUCTS INTERNATIONAL INC,19849 NORDHOFF ST,NORTHRIDGE,In LA County,California,91324
52590,"SALAM INTERNATIONAL, INC.",19781 PAULING,FOOTHILL RANCH,Outside of LA County,California,92610
189554,COLEMAN EQUIPMENT RENTALS LLC,1973 W 48TH ST,LOS ANGELES,In LA County,California,90062
104573,"EPIC LAND SOLUTIONS, INC.",1971 W 190TH ST,TORRANCE,In LA County,California,90504
104573,"EPIC LAND SOLUTIONS, INC.",1971 W 190TH ST,TORRANCE,In LA County,California,90504
182718,WITH LOVE MARKET AND CAFE,1969 S. VERMONT AVE.,LOS ANGELES,In LA County,California,90007
137619,GREEN MOUNTAIN CORPORATION,19501 S SANTA FE AVE STE 100,E RNCHO DMNGZ,In LA County,California,90221
198576,KNIGHTFOX LOGISTICS LLC,1947 E 123RD ST,COMPTON,In LA County,California,90222
198576,KNIGHTFOX LOGISTICS LLC,1947 E 123RD ST,COMPTON,In LA County,California,90222
198576,KNIGHTFOX LOGISTICS LLC,1947 E 123RD ST,COMPTON,In LA County,California,90222
108118,GRAND STANDS INC,1946 S MYRTLE AVE,MONROVIA,In LA County,California,91016
196549,"FRESHLUNCHES, INC.",19431 BUSINESS CENTER DR,NORTHRIDGE,In LA County,California,91324
196549,"FRESHLUNCHES, INC.",19431 BUSINESS CENTER DR,NORTHRIDGE,In LA County,California,91324
192877,CERVUS INC.,19425 SOLEDAD CANYON RD,CANYON CNTRY,In LA County,California,91351
111875,"UNIQUE IMAGE, INC.","19365 BUSINESS CENTER DR., STE. 4",NORTHRIDGE,In LA County,California,91324
35767,"AXIOM MEDICAL, INC.",19320 SOUTH VAN NESS AVENUE,TORRANCE,In LA County,California,90501
186870,RJ NAUTICAL,1930 E CARSON ST,CARSON,In LA County,California,90810
190698,"THUNDERCAT TECHNOLOGY, LLC",1925 ISAAC NEWTON SQ E STE 180,RESTON,Out of State,Virginia,20190
57072,"KAR WING TRADING CO., INC",1923 FRANK STILES ST,S EL MONTE,In LA County,California,91733
180612,A-BEST INDUSTRIAL INC.,1911 N GAFFEY STREET,SAN PEDRO,In LA County,California,90731
184368,"TEC-LINK, LLC",19101 CLIMBING ASTER DR,TAMPA,Out of State,Florida,33647
507037,"UNITED DIESEL SERVICE, INC.",1903 PENN MAR AVE.,SOUTH EL MONTE,In LA County,California,91733
188454,ALEX AND EDIZEN LLC,1901 OCEAN FRONT WALK APT 3,VENICE,In LA County,California,90291
52547,KH CONSULTING GROUP,"1901 AVENUE OF THE STARS, STE. 200",LOS ANGELES,In LA County,California,90067
170927,RELIABLE MONITORING SERVICES,1899 FREEMAN AVE,SIGNAL HILL,In LA County,California,90755
170927,RELIABLE MONITORING SERVICES,1899 FREEMAN AVE,SIGNAL HILL,In LA County,California,90755
200158,GENERATION CONNECT,18811 TOPHAM ST,TARZANA,In LA County,California,91335
143193,"MNR CONSTRUCTION, INC.",1880 WRIGHT AVE,LA VERNE,In LA County,California,91750
187822,"MULHOLLAND CONSULTING GROUP, LLC",18751 CEDAR CREST DR,SANTA CLARITA,In LA County,California,91387
31658,G & C EQUIPMENT CORP,1875 W REDONDO BEACH BLVD STE 102,GARDENA,In LA County,California,90247
130805,JMDIAZ INC,"18645 E. GALE AVENUE, STE 212",CITY OF INDUSTRY,In LA County,California,91748
192877,CERVUS INC.,18565 SOLEDAD CANYON RD,CANYON CNTRY,In LA County,California,91351
185644,VISHAL SINGH,1854 JUNE COURT,WEST COVINA,In LA County,California,91792
151072,GAMA CONTRACTING SERVICES INC,1835 FLORADALE AVE,SOUTH EL MONTE,In LA County,California,91733
145076,ROHAM INTERNATIONAL INC,1828 LOMITA BLVD,LOMITA,In LA County,California,90717
61135,NAKATOMI & ASSOCIATES INC,1820 14TH STREET SUITE 500,SANTA MONICA,In LA County,California,90404
201698,SAILAND USA INC,1819 FLORADALE AVE,S EL MONTE,In LA County,California,91733
209075,ERSEVON LLC,1816 W 45TH ST,LOS ANGELES,In LA County,California,90062
184772,NMK CORPORATION,18122 CARMENITA RD UNIT 3331,CERRITOS,In LA County,California,90703
165225,STAY SAFE SOLUTIONS INC,1809 S STREET,SACRAMENTO,Outside of LA County,California,95811
165225,STAY SAFE SOLUTIONS INC,1809 S STREET,SACRAMENTO,Outside of LA County,California,95811
33847,"T & H INTERIOR SERVICES, INC",1803 S. MYRTLE AVENUE,MONROVIA,In LA County,California,91016
33847,"T & H INTERIOR SERVICES, INC",1803 S MYRTLE AVE,MONROVIA,In LA County,California,91016
524159,CITADEL ENVIRONMENTAL SERVICESINC,1801 W OLYMPIC BLVD,PASADENA,In LA County,California,91199
174205,LEXTECH INC,18000 STUDEBAKER RD STE 700,CERRITOS,In LA County,California,90703
185599,NTS COMMUNICATIONS,180 E 35TH ST,LOS ANGELES,In LA County,California,90011
2466,IDEAL PRINTING CO,17855 MACLAREN ST,LA PUENTE,In LA County,California,91744
201668,"TEKISTRY, INC",17777 CENTER COURT DR N,CERRITOS,In LA County,California,90703
47397,SIRACUSA ENTERPRISES INC,17737 CHATSWORTH ST,GRANADA HILLS,In LA County,California,91344
178505,SATWIC INC.,177 E COLORADO BLVD STE 200,PASADENA,In LA County,California,91105
105081,COUNCIL FOR WATERSHED HEALTH,177 E COLORADO BLVD,PASADENA,In LA County,California,91105
207826,"ECONOPRINT, INC.",1765 E COLORADO BLVD,PASADENA,In LA County,California,91106
192587,AYARD RENTALS,17621 S SUSANA RD,E RNCHO DMNGZ,In LA County,California,90221
120421,"WATERWISE CONSULTING , INC.",1751 S GRAND AVE,GLENDORA,In LA County,California,91740
129913,DILTEX INC,"1750 W CAMERON AVE, STE 110",WEST COVINA,In LA County,California,91790
188318,WAKING MEDIA INC.,1745 WINONA BLVD APT 26,LOS ANGELES,In LA County,California,90027
188833,"HOLLIDAY'S HELPING HANDS, INC.",17420 AVALON BLVD STE 101,CARSON,In LA County,California,90746
188833,"HOLLIDAY'S HELPING HANDS, INC.",17420 AVALON BLVD STE 101,CARSON,In LA County,California,90746
524389,ONEGENERATION,17400 VICTORY BLVD,VAN NUYS,In LA County,California,91406
160021,GOOD PEOPLE INC,17315 STUDEBAKER RD STE 315,CERRITOS,In LA County,California,90703
160021,GOOD PEOPLE INC,17315 STUDEBAKER RD,CERRITOS,In LA County,California,90703
160021,GOOD PEOPLE INC,17315 STUDEBAKER RD,CERRITOS,In LA County,California,90703
156189,SYNERGY TRAFFIC CONTROL INC,17311 S MAIN ST,GARDENA,In LA County,California,90248
156189,SYNERGY TRAFFIC CONTROL INC,17311 S MAIN ST,GARDENA,In LA County,California,90248
108241,CABAN RESOURCES LLC,1730 E HOLLY AVE,EL SEGUNDO,In LA County,California,90245
524159,CITADEL ENVIRONMENTAL SERVICESINC,1725 VICTORY BOULEVARD,GLENDALE,In LA County,California,91201
140294,MICHAEL BAROFF,1725 OCEAN AVE. #132,SANTA MONICA,In LA County,California,90401
109909,KEEFE BUSINESS SERVICES INC,1725 GARDENA AVE,GLENDALE,In LA County,California,91204
115594,WAGNER ENGINEERING & SURVEY INC,17134 DEVONSHIRE STREET,NORTHRIDGE,In LA County,California,91325
204934,PAMELA R BOBOC,1713 VIA ESTUDILLO,PLS VRDS EST,In LA County,California,90274
186279,ANDA'S WELLNESS LLC,17100 NORWALK BLVD,CERRITOS,In LA County,California,90703
126916,GOLDEN HANDS AUTO BODY INC.,171 N. PARKWOOD AVE.,PASADENA,In LA County,California,91107
174508,POSITIVE EXISTENCE,1703 STEWART ST,SANTA MONICA,In LA County,California,90404
190624,NOT YOU MAMAS KITCHEN,1701 E COMPTON BLVD,COMPTON,In LA County,California,90221
148272,HARWOOD CONSTRUCTION INC,1695 CURTISS COURT,LA VERNE,In LA County,California,91750
210655,CERVANTES MEJIA DESSERTS,16801 BELLFLOWER BLVD,BELLFLOWER,In LA County,California,90706
166267,NATIX INC,16790 PLACER HILLS ROAD STE C,MEADOW VISTA,Outside of LA County,California,95722
146480,JAMES T EDSON,16654 SOLEDAD CANYON RD STE 268,SANTA CLARITA,In LA County,California,91387
137241,SAND BUILDING MATERIALS INC,16641 SIERRA HIGHWAY,SANTA CLARITA,In LA County,California,91351
501254,GUY L. WARDEN & SONS,16626 PARKSIDE AVE,CERRITOS,In LA County,California,90703
209437,"ABG INSPECTIONS, INC.",1662 NORVAL ST,POMONA,In LA County,California,91766
201295,MARIA G MAGDESYAN,1661 NEIL ARMSTRONG ST,MONTEBELLO,In LA County,California,90640
505571,BUSINESS MACHINES CONSULANTS INC,16525 SHERMAN WAY UNIT C3,VAN NUYS,In LA County,California,91406
505571,BUSINESS MACHINES CONSULANTS INC,16525 SHERMAN WAY UNIT C3,VAN NUYS,In LA County,California,91406
199727,BENCHMARQ,1652 N HOOVER ST,LOS ANGELES,In LA County,California,90027
171706,EDDINGS ENTERPRISES INC.,16517 S. NORMANDIE AVE.,GARDENA,In LA County,California,90247
171706,EDDINGS ENTERPRISES INC.,16517 S NORMANDIE AVE,GARDENA,In LA County,California,90247
516402,ULTRASYSTEMS ENVIRONMENTAL INC,16431 SCIENTIFIC,IRVINE,Outside of LA County,California,92618
116338,"A-TECH CONSULTING, INC.",1640 N BATAVIA ST,ORANGE,Outside of LA County,California,92867
522066,CARDE TEN ARCHITECTS,1638 19TH STREET,SANTA MONICA,In LA County,California,90404
210321,GOLDEN PIG COLLECTION LLC,1637 RANGE RD,OXNARD,Outside of LA County,California,93036
113361,FRASER COMMUNICATIONS,1631 PONTIUS AVENUE,LOS ANGELES,In LA County,California,90025
171872,LENTINI DESIGN AND MARKETING,1626 VIRGINIA ROAD,LOS ANGELES,In LA County,California,90019
199378,SANKOFA COMPANY,1626 CENTINELA AVE STE 202,INGLEWOOD,In LA County,California,90302
101332,JANT PHARMACAL CORPORATION,"16255 VENTURA BLVD., STE. 505",ENCINO,In LA County,California,91436
199883,"PATROL SOLUTIONS, LLC",1624 SANTA CLARA DR STE 240,ROSEVILLE,Outside of LA County,California,95661
47560,ALLEN ALARM SYSTEM INC,16226 GUNDRY AVE,PARAMOUNT,In LA County,California,90723
56087,ORDWAY SIGN SUPPLY,16201 VANOWEN ST.,VAN NUYS,In LA County,California,91406
191957,SHEP-TY INC,1620 CENTINELA AVE,INGLEWOOD,In LA County,California,90302
205716,OMEGA FIRE INC,16134 VALERIO ST,VAN NUYS,In LA County,California,91406
187033,STAR COAT INC.,16117 GREVILLEA AVE,LAWNDALE,In LA County,California,90260
129877,TRISTAR SAFETY SERVICES INC.,1611 W SAN BERNARDINO RD,COVINA,In LA County,California,91722
194575,"CHARGERHELP, INC",1611 W 58TH ST,LOS ANGELES,In LA County,California,90062
205523,ROOT & REBOUND,1610 HARRISON ST,OAKLAND,Outside of LA County,California,94612
128677,M3 OFFICE INC,"161 PASADENA AVENUE, SUITE A",SOUTH PASADENA,In LA County,California,91030
128677,M3 OFFICE INC,161 PASADENA AVENUE,SOUTH PASADENA,In LA County,California,91030
106576,PHILLIP'S DRAPERIES,161 NORTH SIERRA MADRE BLVD,PASADENA,In LA County,California,91107
161884,ADRIANA SALINAS,1608 AMBERWOOD DR APT 2,S PASADENA,In LA County,California,91030
213059,GOTLOGOSBYA,1608 AMBERWOOD DR,S PASADENA,In LA County,California,91030
181887,LETICIA LEON YU,1605 DOVERFIELD AVENUE,HACIENDA HEIGHTS,In LA County,California,91745
125034,ELLIS GROUP INC,16030 VENTURA BLVD,ENCINO,In LA County,California,91436
181467,RED CLOUD LLC,1600 SAWTELLE BLVD,LOS ANGELES,In LA County,California,90025
147945,CALIFORNIA TESTING & INSPECTIONS,15957 VERMONT AVE,PARAMOUNT,In LA County,California,90723
185052,MVA EQUIPMENT RENTALS INC,15945 LIGGETT ST,NORTH HILLS,In LA County,California,91343
185052,MVA EQUIPMENT RENTALS INC,15945 LIGGETT ST,NORTH HILLS,In LA County,California,91343
207817,"HOGAN EVENTS GROUP, LLC.",1590 ROSECRANS AVE STE D166,MANHATTAN BCH,In LA County,California,90266
512813,CAPITAL OFFICE PRODUCTS,15840 MONTE STREET,SYLMAR,In LA County,California,91342
28116,FIRE DEVICE COMPANY,15835 MAIN ST,LA PUENTE,In LA County,California,91744
122319,DIETZ HYDROSEEDING CO.,15745 KADOTA ST.,SYLMAR,In LA County,California,91342
189554,COLEMAN EQUIPMENT RENTALS LLC,15723 VERMONT AVE,PARAMOUNT,In LA County,California,90723
52304,SOS SURVIVAL PRODUCTS,"15705 STRATHERN ST., STE. 11",VAN NUYS,In LA County,California,91406
52861,"AIR-EX AIR CONDITIONING, INC.",157 GENTRY ST.,POMONA,In LA County,California,91767
156793,GOLDEN WEST ARBOR SERVICES INC.,1568 E. GRAND AVENUE,POMONA,In LA County,California,91766
208944,LANDSCO INC,15626 OLDEN ST,RNCH CASCADES,In LA County,California,91342
108971,SANJAY PANDYA,1557 CANYON MEADOWS LN,GLENDORA,In LA County,California,91740
185447,PAUL CROCKETT,1556 N. ORANGE GROVE AVE.,LOS ANGELES,In LA County,California,90046
209280,HI-TOP ROOF INC,15532 ILLINOIS AVE,PARAMOUNT,In LA County,California,90723
149529,"NMS MANAGEMENT, INC.","155 WEST 35TH STREET, SUITE A",NATIONAL CITY,Outside of LA County,California,91950
139682,FOSTERALL,1544 WEST GLENOAKS BLVD,GLENDALE,In LA County,California,91201
170796,EXCELAND CARE,15431VINTAGE STREET,MISSION HILLS,In LA County,California,91345
202382,"AMERICAN PROFESSIONAL MANUFACTURING, INC.",154 COYADO AVE,MODESTO,Outside of LA County,California,95350
100157,"GENTERRA CONSULTANTS, INC.","15375 BARRANCA PKWY., BUILDING L",IRVINE,Outside of LA County,California,92618
134793,J.P. COOKE CO,1536 WEST 25TH STREET,SAN PEDRO,In LA County,California,90732
187813,BLEENK MARKETING LLC,15338 CENTRAL AVE,CHINO,Outside of LA County,California,91710
107868,"I.T.S. GROUP, INC.",15300 VALLEY VIEW AVE,LA MIRADA,In LA County,California,90638
107868,"I.T.S. GROUP, INC.",15300 VALLEY VIEW AVE,LA MIRADA,In LA County,California,90638
28533,ROBERT ARSENIAN,1525 FISHBURN AVENUE,LOS ANGELES,In LA County,California,90063
211252,CANDISS CLENTON,15233 VENTURA BLVD,SHERMAN OAKS,In LA County,California,91403
117909,A CAL PEST CONTROL SERVICES INC,1523 POTRERO AVE,S EL MONTE,In LA County,California,91733
147323,GLOBAL ENVIRONMENTAL TRAINING & CONSULTING INC,1520 W CAMERON AVE STE 103,WEST COVINA,In LA County,California,91790
178237,INDUSTRIAL SURPLUS AND SALVAGE CORP,152 S LUCERNE BLVD,LOS ANGELES,In LA County,California,90004
182610,WICKED BIONIC,1516 WESTWOOD BLVD,LOS ANGELES,In LA County,California,90024
163356,COMMUNITY SCHOOL OF THE ARTS FOUNDATION,1515 W 8TH ST APT 309,LOS ANGELES,In LA County,California,90017
152082,BAYTEK ENGINEERING,15130 VENTURA BLVD,SHERMAN OAKS,In LA County,California,91403
168691,"MCKENNA BOILER WORKS, INC.",1510 N. SPRING ST.,LOS ANGELES,In LA County,California,90012
208893,MATTHEW J ROSENBERG,1506 CHEVIOTDALE DR,PASADENA,In LA County,California,91105
125045,RAYMOND R GOULD,15051 LEFFINGWELL ROAD SUITE 101,WHITTIER,In LA County,California,90604
207888,JUAN M MARQUEZ,15036 FLORENTINE ST,SYLMAR,In LA County,California,91342
195420,MCG & ASSOCIATES,15030 VENTURA BLVD STE 301,SHERMAN OAKS,In LA County,California,91403
212789,ASEP CONTRACTORS INC.,1501 LINCOLN BLVD # 1081,VENICE,In LA County,California,90291
167849,MERCY HOUSING CALIFORNIA,1500 S. GRAND AVE.,LOS ANGELES,In LA County,California,90015
207516,"CLE ELECTRIC, INC",1500 240TH ST,HARBOR CITY,In LA County,California,90710
510088,D'AUTREMONT-HELMS & ASSOCIATES,"150 S. ARROYO PARKWAY, SUITE 100",PASADENA,In LA County,California,91105
121329,"PGI, INC.",14938 NELSON AVE,CITY OF INDUSTRY,In LA County,California,91744
517358,AQUABIO ENVIRONMENTAL TECHNOLOGIES INC,14934 S FIGUEROA ST,GARDENA,In LA County,California,90248
199772,OVERHEAD GARAGE DOOR & GATES INC,14900 MAGNOLIA BLVD UNIT 55933,SHERMAN OAKS,In LA County,California,91413
55144,WECK ANALYTICAL ENVIRONMENTAL SERVICES INC,14859 E. CLARK AVENUE,CITY OF INDUSTRY,In LA County,California,91745
203870,"MY FISH STOP, LLC",14843 1/2 BURBANK BLVD,SHERMAN OAKS,In LA County,California,91411
179344,"FS CONTRACTORS, INC.",14838 BLEDSOE ST.,SYLMAR,In LA County,California,91342
185786,"EXPERT PEST CONTROL SERVICES, INC",14800 RINALDI ST # 1,MISSION HILLS,In LA County,California,91345
188463,"BETTER YOUTH, INC.",1465 TAMARIND AVE PMB 216,LOS ANGELES,In LA County,California,90028
184225,VICTORIOUS R.E.D,14640 INDUSTRY CIR STE B,LA MIRADA,In LA County,California,90638
184225,VICTORIOUS R.E.D,14640 INDUSTRY CIR,LA MIRADA,In LA County,California,90638
43984,CENTURY PAVING INC,14630 FIRESTONE BLVD.,LA MIRADA,In LA County,California,90638
209622,REDESIGN GROUP INC,14622 VENTURA BLVD STE 355,SHERMAN OAKS,In LA County,California,91403
188089,LAURA CAMACHO,14622 VENTURA BLVD,SHERMAN OAKS,In LA County,California,91403
104896,GOODWILL INDUSTRIES OF SOUTHERN CALIFORNIA,14565 LANARK ST.,PANORAMA CITY,In LA County,California,91402
160736,CENTER FOR LIVING AND LEARNING,14549 ARCHWOOD STREET SUITE 221,VAN NUYS,In LA County,California,91405
209622,REDESIGN GROUP INC,14546 1/2 MOORPARK ST,SHERMAN OAKS,In LA County,California,91403
178882,"PARAMOUNT SAFETY SUPPLY, INC.",14516 CRENSHAW BLVD,GARDENA,In LA County,California,90249
183426,"HELPGOOD, LLC",145 S FAIRFAX AVE,LOS ANGELES,In LA County,California,90036
112825,NATIONAL RELOCATION SERVICES,14424 BONELLI ST,CITY INDUSTRY,In LA County,California,91746
112825,NATIONAL RELOCATION SERVICES,14424 BONELLI ST,CITY INDUSTRY,In LA County,California,91746
186113,PUBLIC MATTERS LLC,1439 ELEVADO STREET,LOS ANGELES,In LA County,California,90026
205496,CIRCLE OF WOMEN INC,1437 CENTINELA AVE,INGLEWOOD,In LA County,California,90302
186745,ALPHA SOLUTIONS INC,14320 VENTURA BLVD STE 507,SHERMAN OAKS,In LA County,California,91423
56594,BAINBRIDGE ENVIRONMENTAL CONSULTANT INC,14251 FIRESTONE BLVD,LA MIRADA,In LA County,California,90638
187931,"ADVANCING THE SEED, INC.",14241 FIRESTONE BLVD,LA MIRADA,In LA County,California,90638
190632,"MASA CONTRACTING, INC.",1424 W VALLEY BLVD,ALHAMBRA,In LA County,California,91803
200017,"360 MEDICAL, LLC.",142 E BONITA AVE,SAN DIMAS,In LA County,California,91773
101252,"J. OROZCO ENTERPRISES, INC.",1419 S EAST END AVE,POMONA,In LA County,California,91766
186084,"AVIATE ENTERPRISES, INC.",1418 N MARKET BLVD,SACRAMENTO,Outside of LA County,California,95834
194285,NEAL FULTZ,1417 VETERAN AVE APT 101,LOS ANGELES,In LA County,California,90024
166046,"GENESIS FLOOR COVERING, INC.",14101 PONTLAVOY AVE,SANTA FE SPGS,In LA County,California,90670
182091,JT SITE SERVICES,1407 FOOTHILL BLVD # 147,LA VERNE,In LA County,California,91750
60890,ADVANCED FILTRATION CONCEPTS INC,14010 GRACEBEE AVE.,NORWALK,In LA County,California,90650
188268,MINORIA TECH LLC,140 S BEACH ST,DAYTONA BEACH,Out of State,Florida,32114
144443,WIRELESS INNOVATION SOLUTION I,140 E SANTA CLARA ST,ARCADIA,In LA County,California,91006
189486,PROJECT ROPA,13970 VAN NESS AVE,GARDENA,In LA County,California,90249
189486,PROJECT ROPA,13970 VAN NESS AVE,GARDENA,In LA County,California,90249
148143,WEST COAST AERIAL PHOTOGRAPHY INC,13956 MAGNOLIA BLVD,SHERMAN OAKS,In LA County,California,91423
172256,"WEST COAST FIRE PROTECTION, INC.",13933 RAMONA AVE STE I,CHINO,Outside of LA County,California,91710
132472,INTERNATIONAL COATINGS COMPANY,13929 E. 166TH STREET,CERRITOS,In LA County,California,90702
202261,"BROTHERS BUILDING SERVICES, LLC",13922 LONGWORTH AVE,NORWALK,In LA County,California,90650
209254,EMERGENCY CAFE LLC,13900 PANAY WAY,MARINA DL REY,In LA County,California,90292
191395,RJ INTERNATIONAL,13900 MARQUESAS WAY,MARINA DEL REY,In LA County,California,90292
157878,"RWBID CONSTRUCTION MANAGEMENT, LLC",139 HERMOSA AVE,HERMOSA BEACH,In LA County,California,90254
186370,PIVOT HOUND COMMUNICATIONS,1385 N EL MOLINO AVE,PASADENA,In LA County,California,91104
205626,"QUALITY TECH SOLUTIONS, LLC",13824 WINDROSE AVE,EASTVALE,Outside of LA County,California,92880
10404,PACIFIC MECHANICAL SUPPLY CO.,13705 MILROY PL,SANTA FE SPGS,In LA County,California,90670
510660,COMMLINE INC,13700 CIMARRON AVE,GARDENA,In LA County,California,90249
200291,GOODSIDES LLC,1370 N ST ANDREWS PL,LOS ANGELES,In LA County,California,90028
526384,PHILLIPS STEEL COMPANY,1368 W ANAHEIM ST,LONG BEACH,In LA County,California,90813
48325,WEIL AQUATRONICS,13630 SAN ANTONIO DR,NORWALK,In LA County,California,90650
56872,ADAPT CONSULTING INC,13618 LEMAY STREET,VAN NUYS,In LA County,California,91401
207948,HEALTH MATTERS CLINIC,1360 S FIGUEROA ST,LOS ANGELES,In LA County,California,90015
163141,BRILLIANT CORNERS,1360 MISSION ST STE 300,SAN FRANCISCO,Outside of LA County,California,94103
113835,GEORGE MARTINEZ,136 W. POMONA AVE.,MONROVIA,In LA County,California,91016
161263,ALLIANCE BUILDING MAINTENANCE,136 W POMONA AVE,MONROVIA,In LA County,California,91016
205531,MDK CIRCUIT BREAKER INC,136 S 8TH AVE STE 1,LA PUENTE,In LA County,California,91746
199369,EXTREME OVERHEAD DOORS INC,13554 PUMICE ST,NORWALK,In LA County,California,90650
166300,BOOKS ON THE BOULEVARD,13551 VENTURA BLVD.,SHERMANN OAKS,In LA County,California,91423
176665,SMARTRISE ELEVATOR SERVICE INC,13523 LARWIN CIR,SANTA FE SPRINGS,In LA County,California,90670
179438,MAKAI SOLUTIONS,13509 S RAYMOND AVE,GARDENA,In LA County,California,90247
213392,"CALIFORNIA NOZZLE SPECIALISTS CO., INC.",13506 S NORMANDIE AVE,GARDENA,In LA County,California,90249
56175,PRACTICE,135 W GREEN ST STE 200,PASADENA,In LA County,California,91105
118077,"POLARIS ELECTRIC CO., INC.",135 RICHMOND ST.,EL SEGUNDO,In LA County,California,90245
125440,PASADENA CONSTRUCTION & INTERIORS,135 N MARENGO AVE,PASADENA,In LA County,California,91101
16808,"PARADISE PRINTING, INC.",13474 PUMICE STREET,NORWALK,In LA County,California,90650
41601,AAA ELECTRIC MOTOR SALES & SERVICE INC,1346 VENICE BLVD,LOS ANGELES,In LA County,California,90006
517031,VENICE ARTS,13445 BEACH AVE,MARINA DL REY,In LA County,California,90292
517031,VENICE ARTS,13445 BEACH AVE,VENICE,In LA County,California,90292
163490,CHATTEL INC,13417 VENTURA BOULEVARD,LOS ANGELES,In LA County,California,91423
101181,BAKE R US,13400 S WESTERN AVENUE,GARDENA,In LA County,California,90249
173821,BASHBOY ENTERPRISES INC,1340 W 104TH STREET,LOS ANGELES,In LA County,California,90044
159611,NEXXSOL CORPORATION,1338 CENTER COURT DR,COVINA,In LA County,California,91724
193836,J&S BUILDING MAINTENANCE INC.,13353 ALONDRA BLVD STE 211,SANTA FE SPGS,In LA County,California,90670
193836,J&S BUILDING MAINTENANCE INC.,13353 ALONDRA BLVD,SANTA FE SPRINGS,In LA County,California,90670
25293,ALLIED PACKING AND RUBBER INC,1335 W. 11TH ST,LONG BEACH,In LA County,California,90813
192603,SAAHAS FOR CAUSE,13337 SOUTH ST # 158,CERRITOS,In LA County,California,90703
192603,SAAHAS FOR CAUSE,13337 SOUTH ST # 158,CERRITOS,In LA County,California,90703
199883,"PATROL SOLUTIONS, LLC",13314 MAPLEDALE ST,NORWALK,In LA County,California,90650
199883,"PATROL SOLUTIONS, LLC",13314 MAPLEDALE ST,NORWALK,In LA County,California,90650
199883,"PATROL SOLUTIONS, LLC",13314 MAPLEDALE ST,NORWALK,In LA County,California,90650
195138,DECADENZA INC,13300 BROOKS DR UNIT I,BALDWIN PARK,In LA County,California,91706
175474,DIVERSIFIED LEASING,1330 W. MAIN ST.,ALHAMBRA,In LA County,California,91801
206773,REBECCA RODRIGUEZ PHOTOGRAPHY,133 S SWEETZER AVE,LOS ANGELES,In LA County,California,90048
168416,SEVERN SAFETY SUPPLY LLC,133 RANKIN WAY,BENICIA,Outside of LA County,California,94510
193490,"BREAD & WATER LANDSCAPE, LLC",13283 JUDD ST,PACOIMA,In LA County,California,91331
182610,WICKED BIONIC,1328 WESTWOOD BLVD,LOS ANGELES,In LA County,California,90024
511225,ROADLINE PRODUCTS,13253 STANBRIDGE AVE.,DOWNEY,In LA County,California,90242
121512,AMERICAN WATER WORKS INC,13250 WEIDNER ST,PACOIMA,In LA County,California,91331
521681,COVENANT HOUSE CALIFORNIA,1325 N WESTERN AVE,LOS ANGELES,In LA County,California,90027
56594,BAINBRIDGE ENVIRONMENTAL CONSULTANT INC,"1322 BELL AVENUE, SUITE1N",TUSTIN,Outside of LA County,California,92780
56594,BAINBRIDGE ENVIRONMENTAL CONSULTANT INC,1322 BELL AVENUE STE 1N,TUSTIN,Outside of LA County,California,92780
167422,C J K CONSTRUCTION INC.,13219 HALLDALE AVE,GARDENA,In LA County,California,90249
167422,C J K CONSTRUCTION INC.,13219 HALLDALE AVE,GARDENA,In LA County,California,90249
167422,C J K CONSTRUCTION INC.,13219 HALLDALE AVE,GARDENA,In LA County,California,90249
526162,HOMEBOY INDUSTRIES,1320 S. SANTA FE AVE.,LOS ANGELES,In LA County,California,90021
59468,"RAYCOM DATA TECHNOLOGIES, INC",1320 E. IMPERIAL AVE.,EL SEGUNDO,In LA County,California,90245
187706,JAMES BUSH,13148 SAN FELIPE ST,LA MIRADA,In LA County,California,90638
139996,"LEED ELECTRIC, INC.",13138 ARCTIC CIRCLE,SANTA FE SPRINGS,In LA County,California,90670
138199,"QUALITY ENVIRONMENTAL, INC.",13123 LAKELAND RD STE A,SANTA FE SPGS,In LA County,California,90670
138199,"QUALITY ENVIRONMENTAL, INC.",13123 LAKELAND RD,SANTA FE SPGS,In LA County,California,90670
134793,J.P. COOKE CO,1311 HOWARD STREET,OMAHA,Out of State,Nebraska,68102
134793,J.P. COOKE CO,1311 HOWARD STREET,OMAHA,Out of State,Nebraska,68102
134793,J.P. COOKE CO,1311 HOWARD ST,OMAHA,Out of State,Nebraska,68102
168513,"RESOURCE ENVIRONMENTAL, INC.",13100 ALONDRA BLVD STE 108,CERRITOS,In LA County,California,90703
207899,"MG ENTERTAINMENT, LLC",1310 N MCDIVITT AVE,COMPTON,In LA County,California,90221
119437,CORPORATE SPACES INC,131 NORTH EL MOLINO STE 170,PASADENA,In LA County,California,91101
119437,CORPORATE SPACES INC,131 N EL MOLLINO AVENUE STE 170,PASADENA,In LA County,California,91101
30116,ASKEW INDUSTRIAL CORPORATION,13071 ARCTIC CIRCLE,SANTA FE SPRINGS,In LA County,California,90670
159004,LOGIXSERVICE INC,1305 CALLE AVANZADO,SAN CLEMENTE,Outside of LA County,California,92673
183404,INTERNATIONAL CONSULTING UNLTD,13045 PARK ST,SANTA FE SPRINGS,In LA County,California,90670
183404,INTERNATIONAL CONSULTING UNLTD,13045 PARK ST,SANTA FE SPRINGS,In LA County,California,90670
142527,EWASTE DISPOSAL INC,13037 LAKELAND ROAD,SANTA FE SPRINGS,In LA County,California,90670
142527,EWASTE DISPOSAL INC,13037 LAKELAND RD,SANTA FE SPGS,In LA County,California,90670
206006,"WEST COAST BOILER, INC.",13013 LOS NIETOS RD STE J,SANTA FE SPGS,In LA County,California,90670
520558,CX & B UNITED CORP,1301 253RD ST,HARBOR CITY,In LA County,California,90710
526162,HOMEBOY INDUSTRIES,130 W BRUNO STREET,LOS ANGELES,In LA County,California,90012
181518,"HOMEBOY RECYCLING, A CALIFORNIA SOCIAL PURPOSE CORPORATION",130 BRUNO ST,LOS ANGELES,In LA County,California,90012
138012,"ALLEGRA CONSULTING, INC.",129A N MARENGO AVE,PASADENA,In LA County,California,91101
25569,"WEST-LITE SUPPLY CO., INC.",12951 166TH ST,CERRITOS,In LA County,California,90703
111722,DIRECT A/V INC,12932 WEBER WAY,HAWTHORNE,In LA County,California,90250
500817,MCKENDRY DOOR SALES,12930 SUNNYSIDE PLACE,SANTA FE SPRINGS,In LA County,California,90670
138012,"ALLEGRA CONSULTING, INC.",129 N MARENGO AVE,PASADENA,In LA County,California,91101
52729,GOLDEN STAR TECHNOLOGY,12881 166TH ST,CERRITOS,In LA County,California,90703
153978,SARK CUSTOM AWNINGS & WINDOW COVERINGS INC,12832 MUSCATINE ST,PACOIMA,In LA County,California,91331
520107,URBAN GRAFFITI ENTERPRISES INC,1280 MOUNTAIN VIEW CIR.,AZUSA,In LA County,California,91702
62324,"ALPHA PRINTING & GRAPHICS, INC",12758 SCHABARUM AVE.,IRWINDALE,In LA County,California,91706
62324,"ALPHA PRINTING & GRAPHICS, INC",12758 SCHABARUM AVE,IRWINDALE,In LA County,California,91706
517351,CHAS E MORTON COMPANY,1275 W 2ND ST,POMONA,In LA County,California,91766
40190,CANNON SPORTS INC,"12701 VAN NUYS BLVD, UNIT P",PACOIMA,In LA County,California,91331
174587,TERRA ENVIRONMENTAL SERVICES INC.,12631 IMPERIAL HWY STE A225,SANTA FE SPGS,In LA County,California,90670
155995,"BLACKGOLD DEVELOPMENT, INC.D.B.A. A.C. PAVING COMPANY",12623 IMPERIAL HIGHWAY,SANTA FE SPRINGS,In LA County,California,90670
178103,KANA SUBSURFACE ENGINEERING,12620 MAGNOLIA AVE,RIVERSIDE,Outside of LA County,California,92503
183313,CIMADEX INTERNATIONAL LLC,12618 YUKON AVE,HAWTHORNE,In LA County,California,90250
174479,SOUTHERN CALI PEST CONTROL,12608 LEIBACHER AVE.,NORWALK,In LA County,California,90650
120311,ERIK W ECKERT,12606 SANFORD ST,LOS ANGELES,In LA County,California,90066
158975,"A PLUS ADVANCED TINTING,  INC.",12535 EVARO DRIVE,WHITTIER,In LA County,California,90606
212791,GOLDEN STATE GASES LLC,12519 ALARKA ST,NORWALK,In LA County,California,90650
189471,"KISBA CONTRACTING, INC.",125 MERCURY CIRCLE,POMONA,In LA County,California,91768
514590,FLOOR TECH AMERICA INC,125 MERCURY CIR,POMONA,In LA County,California,91768
191361,OCEAN SAFARI OUTDOORS INC.,125 E LAS TUNAS DR,SAN GABRIEL,In LA County,California,91776
205142,"SNAP PRODUCTIONS, INC.",1244 S ORANGE DR,LOS ANGELES,In LA County,California,90019
210124,EDUARDO RODRIGUEZ,1241 E 60TH ST,LOS ANGELES,In LA County,California,90001
181479,"EMERGENCY VEHICLE SPECIALTIES, EVS INC.",12366 PENN ST,WHITTIER,In LA County,California,90602
51484,MARTINEZ LANDSCAPE CO. INC,12357 SAN FERNANDO ROAD,SYLMAR,In LA County,California,91342
56834,EXPRESS PRINTING SERVICE INC,12347 PENN ST,WHITTIER,In LA County,California,90602
212316,"THE HOSPITAL EQUIPMENT COMPANY, LLC.",1230 ROSECRANS AVE,MANHATTAN BCH,In LA County,California,90266
100216,WEST ADVANCED TECHNOLOGIES INC,1230 ROSECRANS AVE,MANHATTAN BEACH,In LA County,California,90266
164302,FIRE ACE INC,123 NUGENT STREET,LANCASTER,In LA County,California,93534
214959,PAYLESS GLASS SERVICES INC.,1229 E HOLT AVE,POMONA,In LA County,California,91767
522068,ALBERT UZUNYAN,12227 HARTLAND ST,N HOLLYWOOD,In LA County,California,91605
7770,VALVATE ASSOCIATES,12221 HADLEY ST,WHITTIER,In LA County,California,90601
102317,J D SALES CO INC,122 PENN ST,EL SEGUNDO,In LA County,California,90245
171780,"AIR WEST MECHANICAL CONSTRUCTION, INC.",12166 FRONT ST.,NORWALK,In LA County,California,90650
152280,YOUNG WOMEN'S CHRISTIAN ASSOCIATION,1215 LODI PL,LOS ANGELES,In LA County,California,90038
172138,TRIANGLE SPORTS INCORPORATED,1215 JOHN REED CT,CITY OF INDUSTY,In LA County,California,91745
56430,INDUSTRIAL RADIO COMMUNICATIONS CORP,1212 E. IMPERIAL AVE.,EL SEGUNDO,In LA County,California,90245
56430,INDUSTRIAL RADIO COMMUNICATIONS CORP,1212 E. IMPERIAL AVE.,EL SEGUNDO,In LA County,California,90245
516673,TERRA PAVE INC,12115 RIVERA RD,WHITTIER,In LA County,California,90606
147625,SIMPLY GREEN SOLUTIONS,12101 CLARK STREET UNIT B,ARCADIA,In LA County,California,91006
156188,GREEN TRANSLATIONS,12100 WILSHIRE BLVD,LOS ANGELES,In LA County,California,90025
162764,NEW EARTH ORGANIZATION,12100 W WASHINGTON BLVD,LOS ANGELES,In LA County,California,90066
207745,OSCAR PAYAN,12039 GREYFORD ST,WHITTIER,In LA County,California,90606
62203,"ADVANTEC CONSULTING ENGINEERS,INC.",1200 ROOSEVELT,IRVINE,Outside of LA County,California,92620
514493,SOUTHWESTERN CLEAN FUELS CORP,120 E DUARTE RD,MONROVIA,In LA County,California,91016
527388,HISTORIC RESOURCES GROUP,12 S FAIR OAKS AVE STE 200,PASADENA,In LA County,California,91105
508244,"LEE & RO, INC.",1199 S. FULLERTON ROAD,CITY OF INDUSTRY,In LA County,California,91748
182873,DARROW HEATING & AIR CONDITIONING CORPORATION,11944 VALERIO ST.,NORTH HOLLYWOOD,In LA County,California,91605
164906,"DESTINATION ENTERPRISES, INC.",11940 HAMMACK STREET,CULVER CITY,In LA County,California,90230
62925,PERRIS FENCE & SUPPLY INC,11926 WOODRUFF AVE,DOWNEY,In LA County,California,90241
29316,ABISCO PRODUCTS CO,11925 LOS NIETOS ROAD,SANTA FE SPRINGS,In LA County,California,90670
29316,ABISCO PRODUCTS CO,11925 LOS NIETOS RD,SANTA FE SPGS,In LA County,California,90670
205660,LUCKYLADY REMOVAL,11919 S FIGUEROA ST APT 201,LOS ANGELES,In LA County,California,90061
151585,TITAN ENVIRONMENTAL SOLUTIONS INC,11838 WASHINGTON BLVD,WHITTIER,In LA County,California,90606
200286,DELTA 4 ENVIRONMENTAL INC.,11823 SLAUSON AVE STE 22,SANTA FE SPGS,In LA County,California,90670
197899,BIG AL'S MOTORS SALES AND SERVICES LLC,11823 SLAUSON AVE,SANTA FE SPGS,In LA County,California,90670
201546,UNMODERN INDUSTRIES,11783 SLAUSON AVE,SANTA FE SPGS,In LA County,California,90670
183625,MASSOUD KARIMZADEH,11750 WILSHIRE BLVD,LOS ANGELES,In LA County,California,90025
168442,HOLOS INC,11739 VICTORY BLVD,N HOLLYWOOD,In LA County,California,91606
168442,HOLOS INC,11739 VICTORY BLVD,N HOLLYWOOD,In LA County,California,91606
182841,ALEX DOMINGUEZ,11713 1/2 WASHINGTON BLVD,WHITTIER,In LA County,California,90606
209296,MONICA C OROZCO,11713 1/2 WASHINGTON BLVD,WHITTIER,In LA County,California,90606
517143,HARBOR AREA GANG ALTERNATIVES PROGRAM,11705 DEPUTY YAMAMOTO PL,LYNWOOD,In LA County,California,90262
26223,GOLDEN WEST PIPE & SUPPLY CO,11700 WOODRUFF AVE,DOWNEY,In LA County,California,90241
205727,A FLASH OF GLAM BY ROSE,11684 VENTURA BLVD # 1049,STUDIO CITY,In LA County,California,91604
61247,ROYAL CONSTRUCTION CORP.,11680 GOLDRING RD STE A,ARCADIA,In LA County,California,91006
43998,"PACIFIC TRUCK EQUIPMENT, INC.",11655 WASHINGTON BLVD.,WHITTIER,In LA County,California,90606
117867,"JM HYDRAULICS, INC.",11628 SHELDON ST,SUN VALLEY,In LA County,California,91352
514535,ABBOT INDUSTRIAL SUPPLIES INTERNATIONAL INC,11604 HART STREET,NORTH HOLLYWOOD,In LA County,California,91605
203905,JEFFERY L JEFFERSON JR,11603 WAKEMAN ST,WHITTIER,In LA County,California,90606
210885,360MEDIA83 L.L.C,11603 WAKEMAN ST,WHITTIER,In LA County,California,90606
503094,SHIELDS FOR FAMILIES,11601 S. WESTERN AVENUE,LOS ANGELES,In LA County,California,90047
24327,MARX BROS FIRE EXTINGUISHER,1159 S SOTO ST,LOS ANGELES,In LA County,California,90023
512065,RONS MAINTENANCE,11542 HORLEY AVE,DOWNEY,In LA County,California,90241
104381,LEWIS SCHOEPLEIN ARCHITECTS,11533 W PICO BLVD,LOS ANGELES,In LA County,California,90064
190811,BAYINFOTECH,11501 DUBLIN BLVD STE 200,DUBLIN,Outside of LA County,California,94568
122421,UNIVERSAL ELECTRONIC ALARMS,1150 W AVENUE J STE 103,LANCASTER,In LA County,California,93534
181896,FMF PANDION,1150 GARDEN VIEW RD # 231787,ENCINITAS,Outside of LA County,California,92024
187028,ABODE COMMUNITIES,1149 S HILL ST,LOS ANGELES,In LA County,California,90015
155263,ASIAN AMERICANS ADVANCING JUSTICE- LOS ANGELES,"1145 WILSHIRE BLVD., 2ND FLOOR",LOS ANGELES,In LA County,California,90017
178867,FUELTEC,1142 S DIAMOND BLVD #263,DIAMOND BAR,In LA County,California,91766
178867,FUELTEC,1142 S DIAMOND BAR BLVD,DIAMOND BAR,In LA County,California,91765
209326,T AND A BUILDERS,11417 HORTON AVE,DOWNEY,In LA County,California,90241
171211,QUEST PROJECT CONTROLS INC,114 W COLORADO BLVD,MONROVIA,In LA County,California,91016
171211,QUEST PROJECT CONTROLS INC,114 W COLORADO BLVD,MONROVIA,In LA County,California,91016
200633,"LA SECURITY CAMERAS, INC.",11375 KAMLOOPS ST,SYLMAR,In LA County,California,91342
145696,"AEGIS HC, LLC",11350 SHERMAN WAY SUITE B,LOS ANGELES,Outside of LA County,California,92685
137241,SAND BUILDING MATERIALS INC,11321 SAN FERNANDO RD,SAN FERNANDO,In LA County,California,91340
195047,805 DISCING AND GRADING INC.,1128 BURTONWOOD AVE,THOUSAND OAKS,Outside of LA County,California,91360
126724,TAMARA GOULD,1127 CANYON TRL,TOPANGA,In LA County,California,90290
126724,TAMARA GOULD,1127 CANYON TRAIL,TOPANGA,In LA County,California,90290
188513,"OPEN TOP CREATIVITY, INC.",11218 LA MAIDA ST,N HOLLYWOOD,In LA County,California,91601
125858,HANDS FOR HOPE,11210 OTSEGO ST,N HOLLYWOOD,In LA County,California,91601
181699,HHJ CONSTRUCTION INC.,11156 S. MAIN STREET,LOS ANGELES,In LA County,California,90061
189211,AARON PROCTOR,11140 SYLVAN ST,N HOLLYWOOD,In LA County,California,91606
135862,DANIEL HERNANDEZ YOUTH FOUNDATION,11138 BUSINESS CIR,CERRITOS,In LA County,California,90703
178405,PACTRACK INC,11135 RUSH ST,S EL MONTE,In LA County,California,91733
178405,PACTRACK INC,11135 RUSH ST,S EL MONTE,In LA County,California,91733
171989,"AF&S PRODUCTS & SERVICES, INC.",11120 E OCEAN AIR DR STE B-101,SAN DIEGO,Outside of LA County,California,92130
171989,"AF&S PRODUCTS & SERVICES, INC.",11120 E OCEAN AIR DR STE B-101,SAN DIEGO,Outside of LA County,California,92130
181441,"DRP ENGINEERING , INC",1111 CORPORATE CENTER DR,MONTEREY PARK,In LA County,California,91754
181441,"DRP ENGINEERING , INC",1111 CORPORATE CENTER DR,MONTEREY PARK,In LA County,California,91754
188235,COMPILER LLC,1110 N VIRGIL AVE PMB 94111,LOS ANGELES,In LA County,California,90029
184897,ADVETAGE SOLUTIONS LLC,111 PENN ST,EL SEGUNDO,In LA County,California,90245
160284,PACIFIC ENGINEERS GROUP,1106 W MAGNOLIA BLVD STE A,BURBANK,In LA County,California,91506
160284,PACIFIC ENGINEERS GROUP,1106 W MAGNOLIA BLVD,BURBANK,In LA County,California,91506
204036,CRAFTWATER ENGINEERING INC,11026 CAMINITO VISTA PACIFICA,SAN DIEGO,Outside of LA County,California,92131
186019,NOHO CONSTRUCTORS,11012 VENTURA BLVD,STUDIO CITY,In LA County,California,91604
187492,"EDIGITALDEALS, INC.",11009 VENICE BLVD STE 4,LOS ANGELES,In LA County,California,90034
187492,"EDIGITALDEALS, INC.",11009 VENICE BLVD,LOS ANGELES,In LA County,California,90034
175228,"BUSINESS U, INC.",11000 WILSHIRE BLVD,LOS ANGELES,In LA County,California,90024
205999,ADDISON-MILLER INC.,1100 W TOWN AND COUNTRY RD,ORANGE,Outside of LA County,California,92868
509769,CENTINELA YOUTH SERVICES INC,110 S LA BREA AVE,INGLEWOOD,In LA County,California,90301
138927,BEACON ECONOMICS LLC,110 S FAIRFAX AVE,LOS ANGELES,In LA County,California,90036
172124,"FATHERS AND MOTHERS WHO CARE, INC",10975 S VERMONT AVE,LOS ANGELES,In LA County,California,90044
174432,"CROWN PROMOTIONS GROUP, INC.",10952 MAIN ST,EL MONTE,In LA County,California,91731
174432,"CROWN PROMOTIONS GROUP, INC.",10952 MAIN ST,EL MONTE,In LA County,California,91731
121321,PSYCHOLOGICAL CONSULTING ASSOCIATES INC,10940 WILSHIRE BLVD STE 1600,LOS ANGELES,In LA County,California,90024
180894,"TRIFILETTI CONSULTING, INC.",10850 DELCO AVE,CHATSWORTH,In LA County,California,91311
195549,PJ EQUIPMENT RENTAL,10847 PAINTER AVE # 100,SANTA FE SPGS,In LA County,California,90670
144300,LOWERS WELDING & FABRICATION,10847 PAINTER AVE,SANTA FE SPRINGS,In LA County,California,90670
47424,HEALTH SCIENCE ASSOCIATES,10771 NOEL ST,LOS ALAMITOS,Outside of LA County,California,90720
189861,MARQUEZ CABLE SYSTEMS INC,10759 FOREST ST,SANTA FE SPGS,In LA County,California,90670
180807,"SIGN TOPIA, INC.",10741 SHERMAN WAY,SUN VALLEY,In LA County,California,91352
153820,DUCKPUNK PRODUCTIONS,10728 WESTMINSTER AVE,LOS ANGELES,In LA County,California,90034
117443,FIVE DOLLAR BLINDS,10718 RUSH ST,S EL MONTE,In LA County,California,91733
152003,MAIER INTERNATIONAL INC,10651 HICKSON ST,EL MONTE,In LA County,California,91731
152003,MAIER INTERNATIONAL INC,10651 HICKSON ST,EL MONTE,In LA County,California,91731
29316,ABISCO PRODUCTS CO,10612 PIONEER BLVD.,SANTA FE SPRINGS,In LA County,California,90670
189323,SOLAR CONNECTION INC,10600 SEPULVEDA BLVD,MISSION HILLS,In LA County,California,91345
169922,AGRI-TURF DISTRIBUTING,10551 HATHAWAY DR,SANTA FE SPGS,In LA County,California,90670
510513,PACIFIC ASIAN CONSORTIUM,1055 WILSHIRE BLVD STE 1475,LOS ANGELES,In LA County,California,90017
109549,SAESHE,1055 W 7TH ST STE 2150,LOS ANGELES,In LA County,California,90017
204469,UNITED PROPERTY ADVOCATES INC,1050 OPPORTUNITY DR STE 135,ROSEVILLE,Outside of LA County,California,95678
191274,RODGER J WRIGHT,105 W FLORAL AVE,ARCADIA,In LA County,California,91006
190861,LANCASTER HOMELESS GROUP,104 E AVENUE K4,LANCASTER,In LA County,California,93535
175399,"STRATO COMMUNICATIONS, INC",10398 ROCKINGHAM DR STE 8,SACRAMENTO,Outside of LA County,California,95827
190228,SOUTH CAL GROUP SCG BUILDER,10336 WILSEY AVE,TUJUNGA,In LA County,California,91042
188472,HYPERIEN INC,1030 FLORENCE PLACE,GLENDALE,In LA County,California,91204
171774,"JFS SPECIALTY SERVICES, INC.",1026 N LAKE ST,BURBANK,In LA County,California,91502
136573,PIGNX INC,10250 COLIMA RD,WHITTIER,In LA County,California,90603
136573,PIGNX INC,10250 COLIMA RD,WHITTIER,In LA County,California,90603
159611,NEXXSOL CORPORATION,1024 S GLENDORA AVE,WEST COVINA,In LA County,California,91790
193635,ARROYOWEST LLC,1024 CAWSTON AVE,S PASADENA,In LA County,California,91030
189440,FIRE STARTER STUDIOS,1023 N HOLLYWOOD WAY,BURBANK,In LA County,California,91505
152280,YOUNG WOMEN'S CHRISTIAN ASSOCIATION,1020 S OLIVE ST FL 7,LOS ANGELES,In LA County,California,90015
190961,IT SYSTEMS SOLUTIONS INC,1015 S WOODS AVE,LOS ANGELES,In LA County,California,90022
508984,AAA ELECTRICAL SUPPLY,1014 S MONTEBELLO BLVD,MONTEBELLO,In LA County,California,90640
155966,THREE SQUARES INTERNATIONAL,1014 BROADWAY PMB 105,SANTA MONICA,In LA County,California,90401
111181,PARTNERS IN DIVERSITY INC,10100 PIONEER BLVD,SANTA FE SPGS,In LA County,California,90670
103355,YWCA OF SAN GABRIEL VALLEY,101 S BARRANCA AVE,COVINA,In LA County,California,91723
200628,IBILOLA OGUN,101 EISENHOWER PKWY STE 300,ROSELAND,Out of State,New Jersey,7068
200628,IBILOLA OGUN,101 EISENHOWER PKWY STE 300,ROSELAND,Out of State,New Jersey,7068
200628,IBILOLA OGUN,101 EISENHOWER PKWY,ROSELAND,Out of State,New Jersey,7068
7980,"WASHEX MACHINERY OF CALIFORNIA, INC.",101 E. SANTA ANITA AVE   .P.O. BOX 310,BURBANK,In LA County,California,91503
212187,COSMIC RELIABLE SERVICES,1008 GLENN CT,LANCASTER,In LA County,California,93535
206091,E&E PROPERTY SERVICES LLC,10075 ARLETA AVE,ARLETA,In LA County,California,91331
130376,CASTLEROCK ENVIRONMENTAL INC,10040 PAINTER AVE,SANTA FE SPGS,In LA County,California,90670
145888,PRIDE INDUSTRIES,10030 FOOTHILLS BLVD,ROSEVILLE,Outside of LA County,California,95747
174493,REMDOX,10020 NATIONAL BLVD.,LOS ANGELES,In LA County,California,90034
54426,SHOWREEL INTERNATIONAL INC,1001 WILSHIRE BLVD,LOS ANGELES,In LA County,California,90017
208466,CITY BBQ & CATERING,1001 E ROSECRANS AVE,E RNCHO DMNGZ,In LA County,California,90221
152079,FACTORY DIRECT DISTRIBUTION CORP,1001 B AVENUE SUITE 100,SAN DIEGO,Outside of LA County,California,92118
184623,"ALLIANCE PLANNING AND MANAGEMENT, INC.",10009 ARTESIA BLVD,BELLFLOWER,In LA County,California,90706
173859,GLORY TO THE LORD INVESTMENTS INC,1000 TOWN CENTER DR STE 300,OXNARD,Outside of LA County,California,93036
159340,"BUDLONG & ASSOCIATES, INC.",1000 PASEO CAMARILLO,CAMARILLO,Outside of LA County,California,93010
205605,CENTURY AFFORDABLE DEVELOPMENT INC.,1000 CORPORATE POINTE STE 200,CULVER CITY,In LA County,California,90230
192142,"OHANAVETS, INC.",100 WILSHIRE BLVD STE 700,SANTA MONICA,In LA County,California,90401
192142,"OHANAVETS, INC.",100 WILSHIRE BLVD STE 700,SANTA MONICA,In LA County,California,90401
211475,"ABUNDANT180CA, LLC",100 WILSHIRE BLVD,SANTA MONICA,In LA County,California,90401
173476,GORILLA STATIONERS,100 W BROADWAY,LONG BEACH,In LA County,California,90802
505703,ASIAN YOUTH CENTER,100 CLARY AVE,SAN GABRIEL,In LA County,California,91776