,Vendor Code,Company,County,City,Zip,Vendor_Address,lat,lon,geometry
0,54358,D&R OFFICE WORKS INC,In LA County,EL MONTE,91731,"9956  BALDWIN PL., EL MONTE, CA, 91731",34.0710498,-118.0526633,POINT (-118.0526633 34.0710498)
1,201591,"PRIMESTOR DEVELOPMENT, LLC",In LA County,CULVER CITY,90232,"9950  JEFFERSON BLVD , CULVER CITY, CA, 90232",34.0111864,-118.3897509,POINT (-118.3897509 34.0111864)
2,181262,"SYBMAN, INC",In LA County,EL MONTE,91731,"9911  GIDLEY STREET, EL MONTE, CA, 91731",34.0855759,-118.0514925,POINT (-118.0514925 34.0855759)
3,189244,CS INC,In LA County,SANTA FE SPRINGS,90670,"9900  BELL RANCH DR , SANTA FE SPRINGS, CA, 90670",33.9499496,-118.0683831,POINT (-118.0683831 33.9499496)
4,204063,STC INTERPRETING INC.,In LA County,LOS ANGELES,90034,"9854  NATIONAL BLVD , LOS ANGELES, CA, 90034",34.0313027,-118.4001463,POINT (-118.4001463 34.0313027)
5,191381,NEXT LEVEL HVAC ENERGY MANAGEMENT SYSTEMS,In LA County,SANTA FE SPRINGS,90670,"9834  NORWALK BLVD, SANTA FE SPRINGS, CA, 90670",33.9485997,-118.0725808,POINT (-118.0725808 33.9485997)
6,125356,SOURCEONE OFFICE PRODUCTS INC,In LA County,SANTA FE SPGS,90670,"9812  ALBURTIS AVE, SANTA FE SPGS, CA, 90670",,,POINT (NaN NaN)
7,184191,KOREAN AMERICAN FEDERATION OF LOS ANGELES,In LA County,LOS ANGELES,90006,"981  S WESTERN AVE, LOS ANGELES, CA, 90006",34.0531823,-118.3091539,POINT (-118.3091539 34.0531823)
8,183355,LUIS GOMEZ,In LA County,SANTA FE SPGS,90670,"9760  JERSEY AVE , SANTA FE SPGS, CA, 90670",,,POINT (NaN NaN)
9,173664,SIMPLY KLEEN USA INC,In LA County,CHATSWORTH,91311,"9734  VARIEL AVE, CHATSWORTH, CA, 91311",34.2470554,-118.592825,POINT (-118.592825 34.2470554)
10,175156,ASAP AUTO PARTS,In LA County,BELLFLOWER,90706,"9714  ARTESIA BLVD, BELLFLOWER, CA, 90706",33.874741,-118.1269573,POINT (-118.1269573 33.874741)
11,165523,"B.I.G. ENTERPRISES, INC.",In LA County,S. EL MONTE,91733,"9702  E. RUSH STREET, S. EL MONTE, CA, 91733",,,POINT (NaN NaN)
12,155573,AIM CONSULTING SERVICES,In LA County,COVINA,91724,"970  S VILLAGE OAKS DRIVE , COVINA, CA, 91724",34.0713559,-117.8632773,POINT (-117.8632773 34.0713559)
13,155573,AIM CONSULTING SERVICES,In LA County,COVINA,91724,"970  S VILLAGE OAKS DR , COVINA, CA, 91724",34.0713559,-117.8632773,POINT (-117.8632773 34.0713559)
14,155573,AIM CONSULTING SERVICES,In LA County,COVINA,91724,"970  S VILLAGE OAKS DR , COVINA, CA, 91724",34.0713559,-117.8632773,POINT (-117.8632773 34.0713559)
15,141211,"CRIME SCENE STERI-CLEAN, LLC",Outside of LA County,RCH CUCAMONGA,91730,"9624  HERMOSA AVE, RCH CUCAMONGA, CA, 91730",,,POINT (NaN NaN)
16,169936,"SOTERIA HOME HEALTH AGENCY, INC",In LA County,INGLEWOOD,90302,"959  N. LA BREA AVENUE, INGLEWOOD, CA, 90302",33.9755355,-118.3577138,POINT (-118.3577138 33.9755355)
17,170101,KEVIN S ANDERSON,In LA County,BELLFLOWER,90706,"9530  ARTESIA BLVD , BELLFLOWER, CA, 90706",33.8747267,-118.1305705,POINT (-118.1305705 33.8747267)
18,120465,"ECOLINE INDUSTRIAL SUPPLY, INC",In LA County,CHATSWORTH,91311,"9520  OWENSMOUTH AVE , CHATSWORTH, CA, 91311",34.2432063,-118.6021947,POINT (-118.6021947 34.2432063)
19,206005,C323 INC,In LA County,PANORAMA CITY,91402,"9519  VAN NUYS BLVD, PANORAMA CITY, CA, 91402",34.243285,-118.450418,POINT (-118.450418 34.243285)
20,103355,YWCA OF SAN GABRIEL VALLEY,In LA County,COVINA,91724,"943  NORTH GRAND AVENUE, COVINA, CA, 91724",34.0963214,-117.8727266,POINT (-117.8727266 34.0963214)
21,198172,US ELECTRIC MOTORS SALES,In LA County,DOWNEY,90241,"9420  , DOWNEY, CA, 90241",33.9577193,-118.1207202,POINT (-118.1207202 33.9577193)
22,39727,CHEM PRO LABORATORY INC,In LA County,GARDENA,90248,"941  W. 190TH ST., GARDENA, CA, 90248",,,POINT (NaN NaN)
23,175306,"CLARITI EYEWEAR, INC.",In LA County,CITY OF INDUSTRY,91748,"940  AJAX AVE., CITY OF INDUSTRY, CA, 91748",34.0022914,-117.9135358,POINT (-117.9135358 34.0022914)
24,165497,"MW LOYD, INC.",In LA County,CHATSWORTH,91311,"9363  HANNA AVE., CHATSWORTH, CA, 91311",34.24096,-118.607739,POINT (-118.607739 34.24096)
25,175395,NATHAN A CLEAVER,Outside of LA County,ROSEVILLE,95747,"9362  PARKSTONE CIRCLE, ROSEVILLE, CA, 95747",,,POINT (NaN NaN)
26,204937,NATHAN CLEAVER,Outside of LA County,ROSEVILLE,95747,"9362  PARKSTONE CIR, ROSEVILLE, CA, 95747",,,POINT (NaN NaN)
27,174216,INTEGRATED IMAGE INC,In LA County,CHATSWORTH,91311,"9301  OAKDALE AVE , CHATSWORTH, CA, 91311",34.239282,-118.56698,POINT (-118.56698 34.239282)
28,114811,PPC CONSTRUCTION INC,In LA County,LOS ANGELES,90041,"930  COLORADO BLVD., , LOS ANGELES, CA, 90041",34.1386794,-118.1862,POINT (-118.1862 34.1386794)
29,204723,AZARLY LLC,In LA County,SANTA MONICA,90403,"930  CALIFORNIA AVE , SANTA MONICA, CA, 90403",34.0246777,-118.4944303,POINT (-118.4944303 34.0246777)
30,142457,DEVON DORSEY,In LA County,WILMINGTON,90744,"926  N WILMINGTON BL , WILMINGTON, CA, 90744",,,POINT (NaN NaN)
31,189782,FEDERAL ONE SUPPLIES LLC,In LA County,PANORAMA CITY,91402,"9253  1/2 CEDROS AVE, PANORAMA CITY, CA, 91402",,,POINT (NaN NaN)
32,189782,FEDERAL ONE SUPPLIES LLC,In LA County,PANORAMA CITY,91402,"9253  1/2 CEDROS AVE, PANORAMA CITY, CA, 91402",,,POINT (NaN NaN)
33,520500,ADVANCED BATTERY SYSTEMS,In LA County,INGLEWOOD,90302,"925  W HYDE PARK BLVD, INGLEWOOD, CA, 90302",33.9662682,-118.368869,POINT (-118.368869 33.9662682)
34,62833,MIRON ELECTRIC CONSTR CORP,In LA County,CHATSWORTH,91311,"9238  DEERING AVE, CHATSWORTH, CA, 91311",34.2380343,-118.5959745,POINT (-118.5959745 34.2380343)
35,199939,PRECISION FORKLIFT SERVICE AND PARTS LLC,In LA County,WHITTIER,90605,"9226  LAUREL AVE, WHITTIER, CA, 90605",33.9526493,-118.0374975,POINT (-118.0374975 33.9526493)
36,35048,DAN MCCOMB,In LA County,INGLEWOOD,90302,"922  WEST HYDE PARK BLVD, INGLEWOOD, CA, 90302",33.9662535,-118.3686716,POINT (-118.3686716 33.9662535)
37,155062,UNITED GARAGE DOORS & GATES,In LA County,PANORAMA CITY,91402,"9213  WILLIS AVE., PANORAMA CITY, CA, 91402",34.2379216,-118.4552698,POINT (-118.4552698 34.2379216)
38,185258,SECURITY OPERATIONS GROUP INTERNATIONAL LLC,Outside of LA County,LA HABRA,90631,"921  N. HARBOR BLVD, LA HABRA, CA, 90631",33.9402099,-117.933143,POINT (-117.933143 33.9402099)
39,60044,MICHAEL E. POWERS & ASSOCIATES,In LA County,AZUSA,91702,"918  W FOOTHILL BLVD, AZUSA, CA, 91702",34.1334619,-117.9186885,POINT (-117.9186885 34.1334619)
40,203713,GEORGE RIZKALLA,In LA County,BEVERLY HILLS,90210,"9171  WILSHIRE BLVD , BEVERLY HILLS, CA, 90210",34.0672868,-118.392413,POINT (-118.392413 34.0672868)
41,149653,TRAINING CONNECTION LLC,In LA County,LOS ANGELES,90017,"915  WILSHIRE BLVD , LOS ANGELES, CA, 90017",34.0510572,-118.2600174,POINT (-118.2600174 34.0510572)
42,177589,"WENMAR, INC.",In LA County,CHATSWORTH,91311,"9132  JORDAN AVE, CHATSWORTH, CA, 91311",34.2361181,-118.6038301,POINT (-118.6038301 34.2361181)
43,165560,LORENA O CARMACK,In LA County,DOWNEY,90240,"9130  EGLISE AVE, DOWNEY, CA, 90240",33.951181,-118.1041185,POINT (-118.1041185 33.951181)
44,517390,SUPERIOR PROPERTY SERVICES INC,In LA County,PICO RIVERA,90660,"9129  PERKINS STREET, PICO RIVERA, CA, 90660",33.9721212,-118.1014656,POINT (-118.1014656 33.9721212)
45,186443,BE SOCIAL PRODUCTIONS,In LA County,BEVERLY HILLS,90212,"9100  WILSHIRE BLVD, BEVERLY HILLS, CA, 90212",34.066968,-118.389821,POINT (-118.389821 34.066968)
46,210380,PROLIFIC STYLES LLC,In LA County,LOS ANGELES,90045,"9100  S SEPULVEDA BLVD, LOS ANGELES, CA, 90045",33.9542725,-118.3957814,POINT (-118.3957814 33.9542725)
47,175228,"BUSINESS U, INC.",In LA County,LOS ANGELES,90024,"907  WESTWOOD BLVD, LOS ANGELES, CA, 90024",34.0635511,-118.445526,POINT (-118.445526 34.0635511)
48,501216,"SPECIAL SERVICE FOR GROUPS, INC.",In LA County,LOS ANGELES,90021,"905  E. 8TH STREET, LOS ANGELES, CA, 90021",34.0312699,-118.2419335,POINT (-118.2419335 34.0312699)
49,501216,"SPECIAL SERVICE FOR GROUPS, INC.",In LA County,LOS ANGELES,90021,"905  E. 8TH ST, LOS ANGELES, CA, 90021",34.0312699,-118.2419335,POINT (-118.2419335 34.0312699)
50,501216,"SPECIAL SERVICE FOR GROUPS, INC.",In LA County,LOS ANGELES,90021,"905  E 8TH STREET, LOS ANGELES, CA, 90021",34.0312699,-118.2419335,POINT (-118.2419335 34.0312699)
51,156649,AAPI EQUITY ALLIANCE,In LA County,LOS ANGELES,90021,"905  E 8TH ST, LOS ANGELES, CA, 90021",34.0312699,-118.2419335,POINT (-118.2419335 34.0312699)
52,501216,"SPECIAL SERVICE FOR GROUPS, INC.",In LA County,LOS ANGELES,90021,"905  E 8TH ST, LOS ANGELES, CA, 90021",34.0312699,-118.2419335,POINT (-118.2419335 34.0312699)
53,501216,"SPECIAL SERVICE FOR GROUPS, INC.",In LA County,LOS ANGELES,90021,"905  E 8TH ST, LOS ANGELES, CA, 90021",34.0312699,-118.2419335,POINT (-118.2419335 34.0312699)
54,193817,JLE PAINTING,In LA County,ALHAMBRA,91801,"904  E MOUNTAIN VIEW TER, ALHAMBRA, CA, 91801",34.0960371,-118.1146367,POINT (-118.1146367 34.0960371)
55,208927,TOURBILLON ENTERPRISES LLC,In LA County,ROSEMEAD,91770,"9038  GARVEY AVENUE, ROSEMEAD, CA, 91770",34.062611,-118.0715898,POINT (-118.0715898 34.062611)
56,208927,TOURBILLON ENTERPRISES LLC,In LA County,ROSEMEAD,91770,"9038  GARVEY AVE, ROSEMEAD, CA, 91770",34.062611,-118.0715898,POINT (-118.0715898 34.062611)
57,37388,"FERBAK, INC.",In LA County,NORTHRIDGE,91325,"9030  BALBOA BLVD, NORTHRIDGE, CA, 91325",34.2354782,-118.5026347,POINT (-118.5026347 34.2354782)
58,159004,LOGIXSERVICE INC,Outside of LA County,SAN CLEMENTE,92673,"903  CALLE AMANECER , SAN CLEMENTE, CA, 92673",33.4484638,-117.6087624,POINT (-117.6087624 33.4484638)
59,159004,LOGIXSERVICE INC,Outside of LA County,SAN CLEMENTE,92673,"903  CALLE AMANACER , SAN CLEMENTE, CA, 92673",,,POINT (NaN NaN)
60,205655,"INNOVATIVE WORKPLACE SOLUTIONS, LLC",In LA County,NORTH HILLS,91343,"8943  COLLETT AVE, NORTH HILLS, CA, 91343",34.2331142,-118.4840927,POINT (-118.4840927 34.2331142)
61,118932,APPLIED ENGINEERING CONCEPTS,In LA County,PASADENA,91103,"894  N FAIR OAKS AVE, PASADENA, CA, 91103",34.1612875,-118.1505077,POINT (-118.1505077 34.1612875)
62,46786,"PATTEN ENERGY ENTERPRISES, INC",In LA County,LOS ANGELES,90045,"8939  S SEPULVEDA BLVD , LOS ANGELES, CA, 90045",33.9550489,-118.3963772,POINT (-118.3963772 33.9550489)
63,177581,POLYCHROME CONSTRUCTION INC,In LA County,NORTHRIDGE,91325,"8908  BALBOA BLVD, NORTHRIDGE, CA, 91325",34.2324363,-118.502465,POINT (-118.502465 34.2324363)
64,163451,CSDA DESIGN GROUP INC,In LA County,EL SEGUNDO,90245,"889  N DOUGLAS STREET, EL SEGUNDO, CA, 90245",33.9285381,-118.3835711,POINT (-118.3835711 33.9285381)
65,163451,CSDA DESIGN GROUP INC,In LA County,EL SEGUNDO,90245,"889  N DOUGLAS ST, EL SEGUNDO, CA, 90245",33.9285381,-118.3835711,POINT (-118.3835711 33.9285381)
66,111511,APSI CONSTRUCTION MANAGEMENT,Outside of LA County,IRVINE,92618,"8885  RESEARCH DR, IRVINE, CA, 92618",33.6430897,-117.7373719,POINT (-117.7373719 33.6430897)
67,43302,VALLEY CONSTRUCTION SUPPLY INC,In LA County,LANCASTER,93535,"888  E AVENUE L 4, LANCASTER, CA, 93535",34.6567382,-118.1134711,POINT (-118.1134711 34.6567382)
68,194581,OCMI,Outside of LA County,IRVINE,92618,"8851  RESEARCH DR, IRVINE, CA, 92618",33.6437972,-117.7377231,POINT (-117.7377231 33.6437972)
69,182836,"ADVANCED MICROSYSTEMS GROUP, INC.",In LA County,LOS ANGELES,90045,"8816  S SEPULVEDA BLVD, LOS ANGELES, CA, 90045",33.955713,-118.3963779,POINT (-118.3963779 33.955713)
70,190398,KEITH JACKSON ENTERPRISES INC,Outside of LA County,RCH CUCAMONGA,91701,"8780  19TH ST, RCH CUCAMONGA, CA, 91701",,,POINT (NaN NaN)
71,167823,"AIR BALANCE CO., INC.",In LA County,COVINA,91724,"874  S VILLAGE OAKS DR, COVINA, CA, 91724",34.0731042,-117.8625233,POINT (-117.8625233 34.0731042)
72,117868,MAURER MARINE INC.,Outside of LA County,COSTA MESA,92627,"873  W. 17TH ST., COSTA MESA, CA, 92627",33.6360047,-117.9350097,POINT (-117.9350097 33.6360047)
73,182164,PG CUTTING SERVICES,In LA County,PARAMOUNT,90723,"8650  SOMERSET BLVD, PARAMOUNT, CA, 90723",33.896342,-118.1475827,POINT (-118.1475827 33.896342)
74,182164,PG CUTTING SERVICES,In LA County,PARAMOUNT,90723,"8650  SOMERSET BLVD, PARAMOUNT, CA, 90723",33.896342,-118.1475827,POINT (-118.1475827 33.896342)
75,190811,BAYINFOTECH,In LA County,W HOLLYWOOD,90069,"8605  SANTA MONICA BLVD, W HOLLYWOOD, CA, 90069",34.0880685,-118.3794279,POINT (-118.3794279 34.0880685)
76,202781,"PHONES USA, INC.",In LA County,LOS ANGELES,90034,"8592  VENICE BLVD, LOS ANGELES, CA, 90034",34.033718,-118.3800347,POINT (-118.3800347 34.033718)
77,513782,DAVID RAYBOULD,In LA County,NORTH HILLS,91343,"8552  AQUEDUCT AVE., NORTH HILLS, CA, 91343",34.2256999,-118.4741373,POINT (-118.4741373 34.2256999)
78,201043,THINKLOGIC INC,In LA County,EL SEGUNDO,90245,"855  N DOUGLAS ST, EL SEGUNDO, CA, 90245",33.9277447,-118.3832385,POINT (-118.3832385 33.9277447)
79,194037,HORIZON DESIGN INTERNATIONAL LLC,In LA County,BEVERLY HILLS,90211,"8549  WILSHIRE BLVD , BEVERLY HILLS, CA, 90211",34.0656649,-118.3777361,POINT (-118.3777361 34.0656649)
80,163141,BRILLIANT CORNERS,Outside of LA County,SAN FRANCISCO,94107,"854  FOLSOM ST, SAN FRANCISCO, CA, 94107",37.7811214,-122.4024492,POINT (-122.4024492 37.7811214)
81,171823,ARDO A VARDANYAN,In LA County,SUN VALLEY,91352,"8532  VINE VALLEY DR, SUN VALLEY, CA, 91352",,,POINT (NaN NaN)
82,168704,ZSM CORP.,In LA County,WINNETKA,91306,"8512  HELMAND DR, WINNETKA, CA, 91306",34.2247979,-118.5694641,POINT (-118.5694641 34.2247979)
83,180362,"DURA BRANDS, INC.",In LA County,DUARTE,91010,"851  MERIDIAN ST, DUARTE, CA, 91010",34.1214567,-117.9868065,POINT (-117.9868065 34.1214567)
84,164801,BBC ELECTRIC INC.,In LA County,AZUSA,91702,"850  W FOOTHILL BLVD , AZUSA, CA, 91702",34.133449,-117.91703,POINT (-117.91703 34.133449)
85,127786,TELENET VOIP INC,In LA County,EL SEGUNDO,90245,"850  PARKVIEW DRIVE NORTH, EL SEGUNDO, CA, 90245",33.9277354,-118.3849764,POINT (-118.3849764 33.9277354)
86,125062,"GOLD ARC, INC.",In LA County,POMONA,91767,"848  TOWNE CENTER DRIVE, POMONA, CA, 91767",34.092407,-117.7336875,POINT (-117.7336875 34.092407)
87,176990,LOS ANGELES CHEMICAL COMPANY,In LA County,CARSON,90746,"845  SANDHILL AVE, CARSON, CA, 90746",33.8787242,-118.2611399,POINT (-118.2611399 33.8787242)
88,117198,HARRIS OFFICE PRODUCTS,In LA County,CANOGA PARK,91304,"8441  CANOGA AVE, CANOGA PARK, CA, 91304",34.2231784,-118.5976408,POINT (-118.5976408 34.2231784)
89,191804,YOUTH MENTORING CONNECTION,In LA County,LOS ANGELES,90044,"8407  S VERMONT AVE, LOS ANGELES, CA, 90044",33.9622356,-118.2913501,POINT (-118.2913501 33.9622356)
90,169691,GC GREEN INCORPORATED,Outside of LA County,VISTA,92084,"837  TIGER TAIL RD, VISTA, CA, 92084",33.19931,-117.229131,POINT (-117.229131 33.19931)
91,186163,TRANSPACIFIC ENVIRONMENTAL SERVICES INC,In LA County,MONTEREY PARK,91755,"837  BROWNING PLACE, MONTEREY PARK, CA, 91755",34.0494324,-118.1092479,POINT (-118.1092479 34.0494324)
92,143231,ARMANDO ZUBIA,In LA County,PICO RIVERA,90660,"8345  CRAVELL AVE, PICO RIVERA, CA, 90660",33.9634047,-118.1056172,POINT (-118.1056172 33.9634047)
93,195083,PASSAGE ENTERTAINMENT INC.,In LA County,PICO RIVERA,90660,"8345  CRAVELL AVE, PICO RIVERA, CA, 90660",33.9634047,-118.1056172,POINT (-118.1056172 33.9634047)
94,202445,AUTOMATED GATE SUPPLY INC,In LA County,N HOLLYWOOD,91605,"8323  LANKERSHIM BLVD, N HOLLYWOOD, CA, 91605",34.1868054,-118.3877736,POINT (-118.3877736 34.1868054)
95,137235,JAMES ADAM TUCKER,In LA County,PASADENA,91103,"830  N PASADENA AVE, PASADENA, CA, 91103",34.1579696,-118.1604787,POINT (-118.1604787 34.1579696)
96,185659,"LA TRUCK & AUTO, INC.",In LA County,LOS ANGELES,90021,"825  E WASHINGTON BLVD, LOS ANGELES, CA, 90021",34.0265617,-118.2545898,POINT (-118.2545898 34.0265617)
97,168442,HOLOS INC,In LA County,N HOLLYWOOD,91606,"8221  LG, LP, N HOLLYWOOD, CA, 91606",,,POINT (NaN NaN)
98,119972,SPECTRUM ENVIRONMENTAL SERVICE,In LA County,N HOLLYWOOD,91605,"8216  LANKERSHIM BLVD , N HOLLYWOOD, CA, 91605",34.1868054,-118.3877736,POINT (-118.3877736 34.1868054)
99,166791,"ROSE EQUIPMENT REPAIR, INC.",In LA County,SANTA FE SPGS,90670,"8143  SECURA WAY, SANTA FE SPGS, CA, 90670",,,POINT (NaN NaN)
100,165245,SAN FERNANDO VALLEY ALARM INC,In LA County,SUN VALLEY,91352,"8111  SAN FERNANDO RD, SUN VALLEY, CA, 91352",34.2331016,-118.38721,POINT (-118.38721 34.2331016)
101,118321,ACE ATTORNEY SERVICE INC,In LA County,LOS ANGELES,90017,"811  WILSHIRE BLVD , LOS ANGELES, CA, 90017",34.0497826,-118.2582443,POINT (-118.2582443 34.0497826)
102,183665,"SUNLIGHT MEDIA, LLC",In LA County,LOS ANGELES,90017,"811  W 7TH ST , LOS ANGELES, CA, 90017",34.0488496,-118.2588524,POINT (-118.2588524 34.0488496)
103,109274,"IMPACT SCIENCES, INC",In LA County,LOS ANGELES,90017,"811  W 7TH ST , LOS ANGELES, CA, 90017",34.0488496,-118.2588524,POINT (-118.2588524 34.0488496)
104,52182,FAST DEER BUS CHARTER INC,In LA County,MONTEBELLO,90640,"8105  SLAUSON AVE, MONTEBELLO, CA, 90640",33.975826,-118.1215909,POINT (-118.1215909 33.975826)
105,511468,POWERS BROS MACHINE INC,In LA County,MONTEBELLO,90640,"8100  SLAUSON AVE., MONTEBELLO, CA, 90640",33.975429,-118.1224571,POINT (-118.1224571 33.975429)
106,165245,SAN FERNANDO VALLEY ALARM INC,In LA County,SAN FERNANDO,91340,"804  PICO ST, SAN FERNANDO, CA, 91340",34.2797804,-118.4407613,POINT (-118.4407613 34.2797804)
107,165245,SAN FERNANDO VALLEY ALARM INC,In LA County,SAN FERNANDO,91340,"804  PICO ST, SAN FERNANDO, CA, 91340",34.2797804,-118.4407613,POINT (-118.4407613 34.2797804)
108,184822,SERVICE CONNECTED INC,In LA County,LOS ANGELES,90046,"8039  HEMET PL, LOS ANGELES, CA, 90046",34.1021345,-118.364531,POINT (-118.364531 34.1021345)
109,173299,F.S.O.C. LLC,In LA County,EL SEGUNDO,90245,"803  EUCALYPTUS DR, EL SEGUNDO, CA, 90245",33.9271421,-118.4137945,POINT (-118.4137945 33.9271421)
110,182010,ESTOLANO ADVISORS,In LA County,LOS ANGELES,90017,"801  S. GRAND AVE, LOS ANGELES, CA, 90017",34.0455248,-118.2586725,POINT (-118.2586725 34.0455248)
111,196209,BETTER WORLD GROUP ADVISORS,In LA County,LOS ANGELES,90017,"801  S GRAND AVE , LOS ANGELES, CA, 90017",34.0455248,-118.2586725,POINT (-118.2586725 34.0455248)
112,182010,ESTOLANO ADVISORS,In LA County,LOS ANGELES,90017,"801  S GRAND AVE, LOS ANGELES, CA, 90017",34.0455248,-118.2586725,POINT (-118.2586725 34.0455248)
113,210395,"KB ELECTRIC MOTORS, LLC",In LA County,LOS ANGELES,90021,"801  E 8TH ST, LOS ANGELES, CA, 90021",34.031772,-118.241299,POINT (-118.241299 34.031772)
114,111107,THE WALL LAS MEMORIAS PROJECT,In LA County,LOS ANGELES,90017,"800  W 6TH ST, LOS ANGELES, CA, 90017",34.0501133,-118.2579611,POINT (-118.2579611 34.0501133)
115,124955,KAL KRISHNAN CONSULTING,In LA County,LOS ANGELES,90017,"800  S. FIGUEROA ST., , LOS ANGELES, CA, 90017",34.0475067,-118.2611076,POINT (-118.2611076 34.0475067)
116,59817,RAW INTERNATIONAL,In LA County,LOS ANGELES,90017,"800  S FIGUEROA ST, LOS ANGELES, CA, 90017",34.0475067,-118.2611076,POINT (-118.2611076 34.0475067)
117,173356,"ESSENTIAL CARES SUPPLIES, INC.",In LA County,LOS ANGELES,90021,"795  EAST WASHINGTON BLVD., LOS ANGELES, CA, 90021",34.0267606,-118.2550187,POINT (-118.2550187 34.0267606)
118,186048,VETERANS FIRST SUPPLY INC,Outside of LA County,FRESNO,93720,"7946  N MAPLE AVE , FRESNO, CA, 93720",36.8514725,-119.7476498,POINT (-119.7476498 36.8514725)
119,55539,M&M PAPER CO.,In LA County,VAN NUYS,91406,"7915  RUFFNER AVE, VAN NUYS, CA, 91406",,,POINT (NaN NaN)
120,513990,L.A. FAMILY HOUSING CORP,In LA County,NORTH HOLLYWOOD,91605,"7843  LANKERSHIM BLVD., NORTH HOLLYWOOD, CA, 91605",34.1868054,-118.3877736,POINT (-118.3877736 34.1868054)
121,160471,"AMERICAN WIRE, INC.",Outside of LA County,SN BERNRDNO,92408,"784  S LUGO AVE, SN BERNRDNO, CA, 92408",,,POINT (NaN NaN)
122,161153,JOE MELENDEZ,In LA County,LOS ANGELES,90001,"7822  WHITSETT AVE, LOS ANGELES, CA, 90001",33.9685656,-118.2404673,POINT (-118.2404673 33.9685656)
123,109365,"T & M PROJECTS, INC.",In LA County,SAN PEDRO,90731,"780  W. CHANNEL ST., SAN PEDRO, CA, 90731",,,POINT (NaN NaN)
124,161594,"ENERGY OPTIONS, INC.",In LA County,PARAMOUNT,90723,"7720  MADISON ST., PARAMOUNT, CA, 90723",33.890987,-118.1645499,POINT (-118.1645499 33.890987)
125,166214,"OMEGA GRAPHICS PRINTING, INC.",In LA County,VAN NUYS,91405,"7710  KESTER AVENUE, VAN NUYS, CA, 91405",34.2105337,-118.4573664,POINT (-118.4573664 34.2105337)
126,202270,"PRIORITY AIRLESS EQUIPMENT, INC.",In LA County,VAN NUYS,91406,"7702  BALBOA BLVD, VAN NUYS, CA, 91406",,,POINT (NaN NaN)
127,503706,CHINATOWN SERVICE CENTER,In LA County,LOS ANGELES,90012,"767  N. HILL ST., LOS ANGELES, CA, 90012",34.062099,-118.2399777,POINT (-118.2399777 34.062099)
128,5316,GENERAL INDUSTRIAL TOOL & SUPPLY INC,In LA County,BURBANK,91505,"7645  SAN FERNANDO RD, BURBANK, CA, 91505",34.2105112,-118.3554491,POINT (-118.3554491 34.2105112)
129,149632,"COMPUTER CONDIMENTS, INC.",In LA County,PANORAMA CITY,91402,"7618  WOODMAN AVE., , PANORAMA CITY, CA, 91402",34.2095968,-118.4312098,POINT (-118.4312098 34.2095968)
130,179973,TECHNION CONTRACTORS TCI INC.,In LA County,NORTHRIDGE,91325,"7618  JELLICO AVE, NORTHRIDGE, CA, 91325",34.2088336,-118.5173065,POINT (-118.5173065 34.2088336)
131,31896,RAYVERN LIGHTING SUPPLY CO,In LA County,PARAMOUNT,90723,"7617  SOMERST BLVD, PARAMOUNT, CA, 90723",,,POINT (NaN NaN)
132,167174,"MONET CONSTRUCTION, INC",In LA County,TUJUNGA,91042,"7610  DAY STREET, TUJUNGA, CA, 91042",34.253983,-118.2819547,POINT (-118.2819547 34.253983)
133,503065,FIVE ACRES-THE BOYS & GIRLS AID SOCIETY,In LA County,ALTADENA,91001,"760  MOUNTAIN VIEW ST, ALTADENA, CA, 91001",34.1917496,-118.1657211,POINT (-118.1657211 34.1917496)
134,213131,ADRIAN CHAVEZ,In LA County,DOWNEY,90241,"7536  BROOKMILL RD, DOWNEY, CA, 90241",33.9421202,-118.1495116,POINT (-118.1495116 33.9421202)
135,29044,"JOHN LISEE PUMPS, INC.",In LA County,BELL GARDENS,90201,"7516  GARFIELD AVE, BELL GARDENS, CA, 90201",33.9632933,-118.1525279,POINT (-118.1525279 33.9632933)
136,174861,316 ENGINEERING AND CONSTRUCTION INC,In LA County,ROSEMEAD,91770,"7434  GARVALIA AVE, ROSEMEAD, CA, 91770",34.0582012,-118.0913733,POINT (-118.0913733 34.0582012)
137,190074,MEDZ VENTURES INC,In LA County,GLENDALE,91203,"743  MILFORD ST, GLENDALE, CA, 91203",34.152297,-118.2715042,POINT (-118.2715042 34.152297)
138,190074,MEDZ VENTURES INC,In LA County,GLENDALE,91203,"743  MILFORD ST, GLENDALE, CA, 91203",34.152297,-118.2715042,POINT (-118.2715042 34.152297)
139,196036,HALTONE INC,In LA County,N HOLLYWOOD,91605,"7332  LAUREL CANYON BLVD, N HOLLYWOOD, CA, 91605",34.186247,-118.3965813,POINT (-118.3965813 34.186247)
140,503078,NEW DIRECTIONS FOR YOUTH,In LA County,NORTH HOLLYWOOD,91605,"7315  LANKERSHIM BLVD, NORTH HOLLYWOOD, CA, 91605",34.1868054,-118.3877736,POINT (-118.3877736 34.1868054)
141,185192,"JONCICH STURM AND ASSOCIATES, INC.",In LA County,RLLNG HLS EST,90274,"727  SILVER SPUR RD, RLLNG HLS EST, CA, 90274",,,POINT (NaN NaN)
142,56965,WOODS MAINTENANCE SERVICES INC,In LA County,NORTH HOLLYWOOD,91605,"7250  COLDWATER CANYON AVE, NORTH HOLLYWOOD, CA, 91605",34.2021082,-118.4136915,POINT (-118.4136915 34.2021082)
143,56965,WOODS MAINTENANCE SERVICES INC,In LA County,NORTH HOLLYWOOD,91605,"7250  COLDWATER CANYON AVE, NORTH HOLLYWOOD, CA, 91605",34.2021082,-118.4136915,POINT (-118.4136915 34.2021082)
144,173924,ALLIANCE FOR COMMUNITY EMPOWERMENT,In LA County,CANOGA PARK,91303,"7227  OWENSMOUTH AVE, CANOGA PARK, CA, 91303",34.2015621,-118.6016671,POINT (-118.6016671 34.2015621)
145,177303,"LA VERNE POWER EQUIPMENT, INC.",In LA County,LA VERNE,91750,"720  ARROW HWY, LA VERNE, CA, 91750",34.091598,-117.760539,POINT (-117.760539 34.091598)
146,120288,"SIMPSON & SIMPSON MANAGEMENT CONSULTING, INC",In LA County,ALHAMBRA,91803,"718  S. DATE AVE., ALHAMBRA, CA, 91803",,,POINT (NaN NaN)
147,120288,"SIMPSON & SIMPSON MANAGEMENT CONSULTING, INC",In LA County,ALHAMBRA,91803,"718  S DATE AVE , ALHAMBRA, CA, 91803",,,POINT (NaN NaN)
148,60682,CONVERSE PROFESSIONAL GROUP,In LA County,MONROVIA,91016,"717  S  MYRTLE AVENUE, MONROVIA, CA, 91016",34.1446374,-118.0010437,POINT (-118.0010437 34.1446374)
149,165571,"HONGJOO KIM LANDSCAPE ARCHITECTS, INC.",In LA County,LOS ANGELES,90015,"714  WEST OLYMPIC BLVD, LOS ANGELES, CA, 90015",34.0440948,-118.26335,POINT (-118.26335 34.0440948)
150,165571,"HONGJOO KIM LANDSCAPE ARCHITECTS, INC.",In LA County,LOS ANGELES,90015,"714  W OLYMPIC BLVD, LOS ANGELES, CA, 90015",34.0440948,-118.26335,POINT (-118.26335 34.0440948)
151,165571,"HONGJOO KIM LANDSCAPE ARCHITECTS, INC.",In LA County,LOS ANGELES,90015,"714  W OLYMPIC BLVD, LOS ANGELES, CA, 90015",34.0440948,-118.26335,POINT (-118.26335 34.0440948)
152,207065,SAMUEL E GORDON JR,In LA County,LOS ANGELES,90011,"708  E 53RD ST, LOS ANGELES, CA, 90011",33.9940776,-118.2628262,POINT (-118.2628262 33.9940776)
153,129509,MEDG INTERNATIONAL INC,In LA County,GLENDALE,91201,"701  SONORA AVE, GLENDALE, CA, 91201",34.163099,-118.291421,POINT (-118.291421 34.163099)
154,109817,"LEE ANDREWS GROUP, INC",In LA County,LOS ANGELES,90017,"700  S FLOWER ST , LOS ANGELES, CA, 90017",34.0481796,-118.258832,POINT (-118.258832 34.0481796)
155,105081,COUNCIL FOR WATERSHED HEALTH,In LA County,LOS ANGELES,90012,"700  N. ALAMEDA ST., LOS ANGELES, CA, 90012",34.055704,-118.237482,POINT (-118.237482 34.055704)
156,510739,MCM INTEGRATED SYSTEMS,In LA County,VAN NUYS,91406,"6961  HAYVENHURST AVE, VAN NUYS, CA, 91406",,,POINT (NaN NaN)
157,503235,OPTIMIST BOYS' HOME AND RANCH INC,In LA County,LOS ANGELES,90042,"6957  N FIGUEROA ST, LOS ANGELES, CA, 90042",34.1285308,-118.1877034,POINT (-118.1877034 34.1285308)
158,503235,OPTIMIST BOYS' HOME AND RANCH INC,In LA County,LOS ANGELES,90042,"6957  N FIGUEROA ST, LOS ANGELES, CA, 90042",34.1285308,-118.1877034,POINT (-118.1877034 34.1285308)
159,503235,OPTIMIST BOYS' HOME AND RANCH INC,In LA County,LOS ANGELES,90042,"6957  N FIGUEROA ST, LOS ANGELES, CA, 90042",34.1285308,-118.1877034,POINT (-118.1877034 34.1285308)
160,173924,ALLIANCE FOR COMMUNITY EMPOWERMENT,In LA County,CANOGA PARK,91303,"6925  CANOGA AVE, CANOGA PARK, CA, 91303",34.1960865,-118.5975758,POINT (-118.5975758 34.1960865)
161,508563,AAA RUBBISH INC,In LA County,BELL GARDENS CA,90201,"6920  FOSTER BRIDGE BLVD, BELL GARDENS CA, CA, 90201",33.9679335,-118.1377819,POINT (-118.1377819 33.9679335)
162,148659,HEALTHCARE STAFFING PROFESSIONALS INC,In LA County,RESEDA,91335,"6914  CANBY AVENUE, RESEDA, CA, 91335",34.1958799,-118.5346251,POINT (-118.5346251 34.1958799)
163,169786,GREEN BUILDING CORPORATION,In LA County,N HOLLYWOOD,91605,"6913  ALCOVE AVE, N HOLLYWOOD, CA, 91605",34.1970825,-118.4127165,POINT (-118.4127165 34.1970825)
164,156188,GREEN TRANSLATIONS,In LA County,LAKE BALBOA,91406,"6907  RUBIO AVE, LAKE BALBOA, CA, 91406",34.195991,-118.4958714,POINT (-118.4958714 34.195991)
165,152509,YAKAR,In LA County,COVINA,91723,"689  E SAN BERNARDINO RD, COVINA, CA, 91723",34.0902142,-117.8899725,POINT (-117.8899725 34.0902142)
166,114452,STERLING VAN LINES,In LA County,BELL GARDENS,90201,"6850  SUVA ST, BELL GARDENS, CA, 90201",33.966562,-118.1395956,POINT (-118.1395956 33.966562)
167,507051,HUMAN SERVICES ASSOCIATION,In LA County,BELL GARDENS,90201,"6800  FLORENCE AVE., BELL GARDENS, CA, 90201",33.9622514,-118.1468488,POINT (-118.1468488 33.9622514)
168,192028,"MODERN TIMES, INC",In LA County,PASADENA,91101,"680  E COLORADO BLVD, PASADENA, CA, 91101",34.1450951,-118.1364248,POINT (-118.1364248 34.1450951)
169,171667,CALCOMP GRAPHIC SOLUTIONS,Outside of LA County,CYPRESS,90630,"6703  INTERNATIONAL AVE., CYPRESS, CA, 90630",33.8052379,-118.0155535,POINT (-118.0155535 33.8052379)
170,169346,"ADAPTCONN, INC.",In LA County,WEST HILLS,91307,"6700  FALLBROOK AVENUE , WEST HILLS, CA, 91307",,,POINT (NaN NaN)
171,119327,EMOTIONAL HEALTH ASSOCIATION,In LA County,CULVER CITY,90230,"6666  GREEN VALLEY CIRCLE, CULVER CITY, CA, 90230",33.9788736,-118.3854052,POINT (-118.3854052 33.9788736)
172,169691,GC GREEN INCORPORATED,Outside of LA County,ESCONDIDO,92029,"665  OPPER ST, ESCONDIDO, CA, 92029",33.1300415,-117.1265553,POINT (-117.1265553 33.1300415)
173,172553,THE CENTER IN HOLLYWOOD,In LA County,LOS ANGELES,90028,"6636  SELMA AVE, LOS ANGELES, CA, 90028",34.0996182,-118.3352977,POINT (-118.3352977 34.0996182)
174,196241,"GO2ZERO STRATEGIES, LLC",In LA County,IRWINDALE,91702,"6625  N CALLE EVA MIRANDA , IRWINDALE, CA, 91702",34.1333504,-117.9318602,POINT (-117.9318602 34.1333504)
175,510868,JVS SOCAL,In LA County,LOS ANGELES,90048,"6505  WILSHIRE BLVD, LOS ANGELES, CA, 90048",34.0640163,-118.3698827,POINT (-118.3698827 34.0640163)
176,199953,INGLEWOOD WRAPPING ARMS AROUND THE COMMUNITY,In LA County,INGLEWOOD,90301,"650  E MANCHESTER BLVD, INGLEWOOD, CA, 90301",33.9602346,-118.3468239,POINT (-118.3468239 33.9602346)
177,139128,JOHN T CHAN ARCHITECTS INC,In LA County,ARCADIA,91006,"65  N 1ST AVE, ARCADIA, CA, 91006",34.1407661,-118.0284571,POINT (-118.0284571 34.1407661)
178,205477,G.IRL,In LA County,LOS ANGELES,90059,"649  E 136TH ST, LOS ANGELES, CA, 90059",33.9082118,-118.263107,POINT (-118.263107 33.9082118)
179,181518,"HOMEBOY RECYCLING, A CALIFORNIA SOCIAL PURPOSE CORPORATION",In LA County,COMMERCE,90040,"6433  CANNING ST, COMMERCE, CA, 90040",33.9857692,-118.1438866,POINT (-118.1438866 33.9857692)
180,38807,INTERNATIONAL RESTAURANT EQUIPMENT CO INC,In LA County,LOS ANGELES,90048,"6432  MOORE DR, LOS ANGELES, CA, 90048",34.0598385,-118.3703056,POINT (-118.3703056 34.0598385)
181,62367,SMA INC,In LA County,LOS ANGELES,90031,"642  MOULTON AVE, LOS ANGELES, CA, 90031",34.0652932,-118.2191504,POINT (-118.2191504 34.0652932)
182,519823,EDNET CAREER INST. INC.,In LA County,WOODLAND HILLS,91367,"6400  CANOGA AVE , WOODLAND HILLS, CA, 91367",34.1865796,-118.5962146,POINT (-118.5962146 34.1865796)
183,519823,EDNET CAREER INST. INC.,In LA County,WOODLAND HLS,91367,"6400  CANOGA AVE, WOODLAND HLS, CA, 91367",34.1804549,-118.5975292,POINT (-118.5975292 34.1804549)
184,158449,DAWN MCKENNA,In LA County,LONG BEACH,90815,"6391  E BIXBY HILL RD, LONG BEACH, CA, 90815",33.7777705,-118.1082738,POINT (-118.1082738 33.7777705)
185,209470,LIFE AND TIMES NETWORK INC.,In LA County,CARSON,90746,"637  E ALBERTONI ST, CARSON, CA, 90746",33.872277,-118.264749,POINT (-118.264749 33.872277)
186,209340,FLORES SERVICES,In LA County,PALMDALE,93552,"6365  ATLAS WAY, PALMDALE, CA, 93552",34.5794092,-118.0154759,POINT (-118.0154759 34.5794092)
187,144542,MORE PREPARED,In LA County,TORRANCE,90503,"635  HAWAII AVE, TORRANCE, CA, 90503",33.8405007,-118.3377224,POINT (-118.3377224 33.8405007)
188,203576,SIMPLE DISCOUNT FURNITURE LLC,In LA County,HUNTINGTON PARK,90255,"6335  PACIFIC BLVD, HUNTINGTON PARK, CA, 90255",33.9828402,-118.225274,POINT (-118.225274 33.9828402)
189,503346,SIMPSON & SIMPSON LLP,In LA County,LOS ANGELES,90071,"633  WEST 5TH ST. , LOS ANGELES, CA, 90071",34.0510508,-118.2544132,POINT (-118.2544132 34.0510508)
190,515310,THE LAGRANT GROUP,In LA County,LOS ANGELES,90071,"633  W 5TH ST FL 48, LOS ANGELES, CA, 90071",,,POINT (NaN NaN)
191,33665,"LA BREA HEATING AND AIR CONDITIONING CO., INC.",In LA County,LOS ANGELES,90043,"6326  WEST BLVD, LOS ANGELES, CA, 90043",33.9824233,-118.3351002,POINT (-118.3351002 33.9824233)
192,120082,"LA BREA AIR, INC.",In LA County,LOS ANGELES,90043,"6326  WEST BLVD, LOS ANGELES, CA, 90043",33.9824233,-118.3351002,POINT (-118.3351002 33.9824233)
193,175802,KAIZER RANGWALA,In LA County,WOODLAND HILLS,91367,"6325  JACKIE AVE, WOODLAND HILLS, CA, 91367",34.1842659,-118.6360967,POINT (-118.6360967 34.1842659)
194,212130,FILM2FUTURE INC,In LA County,LOS ANGELES,90048,"6310  SAN VICENTE BLVD, LOS ANGELES, CA, 90048",34.0608565,-118.3674015,POINT (-118.3674015 34.0608565)
195,194487,RK INDUSTRIES GROUP INC.,Outside of LA County,LA HABRA,90631,"631  S WALNUT ST, LA HABRA, CA, 90631",33.9252935,-117.9505567,POINT (-117.9505567 33.9252935)
196,161716,WATEARTH,In LA County,LOS ANGELES,90065,"631  PHEASANT DR, LOS ANGELES, CA, 90065",34.1056198,-118.2121097,POINT (-118.2121097 34.1056198)
197,182709,TECHNOLOGY MARKETING & MANAGEMENT SERVICES,In LA County,LOS ANGELES,90040,"6303  CORSAIR STREET, LOS ANGELES, CA, 90040",33.9988051,-118.1422618,POINT (-118.1422618 33.9988051)
198,100151,LA CANADA DESIGN GROUP,In LA County,PASADENA,91107,"630  N ROSEMEAD BLVD , PASADENA, CA, 91107",34.1570608,-118.0800584,POINT (-118.0800584 34.1570608)
199,200253,ANTELOPE VALLEY COMMUNITY UPLIFT FOUNDATION,In LA County,LANCASTER,93534,"626  W LANCASTER BLVD , LANCASTER, CA, 93534",34.6977282,-118.1404465,POINT (-118.1404465 34.6977282)
200,128230,MSH VENTURES CORP,In LA County,LOS ANGELES,90048,"6230  WILSHIRE BLVD , LOS ANGELES, CA, 90048",34.0628567,-118.364658,POINT (-118.364658 34.0628567)
201,199860,RECREATE WASTE COLLABORATIVE LLC,In LA County,LONG BEACH,90806,"623  W PACIFIC COAST HWY , LONG BEACH, CA, 90806",,,POINT (NaN NaN)
202,145309,AIR CLEAN ENVIRONMENTAL INC,In LA County,"LOS ANGELES, CA",90022,"6226  WHITTIER BLVD., LOS ANGELES, CA, CA, 90022",34.0161504,-118.1375729,POINT (-118.1375729 34.0161504)
203,145309,AIR CLEAN ENVIRONMENTAL INC,In LA County,LOS ANGELES,90022,"6226  WHITTIER BLVD, LOS ANGELES, CA, 90022",34.0161504,-118.1375729,POINT (-118.1375729 34.0161504)
204,170547,BRENNAN ESTIMATING SERVICES INC,In LA County,WHITTIER,90601,"6217  S. WASHINGTON AVE, WHITTIER, CA, 90601",,,POINT (NaN NaN)
205,175087,FOUNTAINHEAD CONSULTING CORPORATION,In LA County,PLS VRDS EST,90274,"621  PALOS VERDES DR W, PLS VRDS EST, CA, 90274",,,POINT (NaN NaN)
206,175087,FOUNTAINHEAD CONSULTING CORPORATION,In LA County,PLS VRDS EST,90274,"621  PALOS VERDES DR W, PLS VRDS EST, CA, 90274",,,POINT (NaN NaN)
207,51881,FAR EAST LANDSCAPE & MAINTENANCE INC,In LA County,VAN NUYS,91401,"6201  VAN NUYS BLVD, VAN NUYS, CA, 91401",34.182771,-118.448811,POINT (-118.448811 34.182771)
208,38345,WATERLINE TECHNOLOGIES INC,Outside of LA County,SANTA ANA,92701,"620  N SANTIAGO ST, SANTA ANA, CA, 92701",33.75112,-117.8578066,POINT (-117.8578066 33.75112)
209,190624,NOT YOU MAMAS KITCHEN,In LA County,LONG BEACH,90805,"6183  ATLANTIC AVE, LONG BEACH, CA, 90805",33.8669298,-118.1853019,POINT (-118.1853019 33.8669298)
210,198720,MIGHTY MADISON PROTECTION INC.,In LA County,LOS ANGELES,90004,"615  N OXFORD AVE, LOS ANGELES, CA, 90004",34.0820247,-118.308082,POINT (-118.308082 34.0820247)
211,182091,JT SITE SERVICES,Outside of LA County,UPLAND,91786,"615  N BENSON AVE, UPLAND, CA, 91786",34.1030763,-117.6809254,POINT (-117.6809254 34.1030763)
212,191907,ANGEL CITY ADVISORS LLC,In LA County,LOS ANGELES,90048,"6141  BARROWS DR, LOS ANGELES, CA, 90048",34.0603082,-118.3641137,POINT (-118.3641137 34.0603082)
213,193297,UNITED GRILL VENTURES LLC,In LA County,BEVERLY HILLS,90210,"614  N ALTA DR, BEVERLY HILLS, CA, 90210",34.082988,-118.3935113,POINT (-118.3935113 34.082988)
214,181790,"ORRAVAN MECHANICAL, INC.",In LA County,LAKEWOOD,90712,"6134  FACULTY AVE, LAKEWOOD, CA, 90712",33.8666119,-118.1373777,POINT (-118.1373777 33.8666119)
215,196984,"BBD ADVANTAGE, INC",In LA County,N HOLLYWOOD,91606,"6112  WILKINSON AVE, N HOLLYWOOD, CA, 91606",34.2112351,-118.40422,POINT (-118.40422 34.2112351)
216,172405,ANDREA DAMIAN,In LA County,LOS ANGELES,90014,"610  SOUTH MAIN STREET, PH105, LOS ANGELES, CA, 90014",,,POINT (NaN NaN)
217,163451,CSDA DESIGN GROUP INC,In LA County,EL SEGUNDO,90245,"610  E FRANKLIN AVE, EL SEGUNDO, CA, 90245",33.9177967,-118.409687,POINT (-118.409687 33.9177967)
218,171500,VCLOUD TECH INC.,In LA County,ROLLING HILLS ESTATES,90274,"609  DEEP VALLEY DRIVE , ROLLING HILLS ESTATES, CA, 90274",33.7709355,-118.3727945,POINT (-118.3727945 33.7709355)
219,171500,VCLOUD TECH INC.,In LA County,ROLLING HILLS ESTATES,90732,"609  DEEP VALLEY DRIVE , ROLLING HILLS ESTATES, CA, 90732",33.7709355,-118.3727945,POINT (-118.3727945 33.7709355)
220,171500,VCLOUD TECH INC.,In LA County,RLLNG HLS EST,90274,"609  DEEP VALLEY DR, RLLNG HLS EST, CA, 90274",,,POINT (NaN NaN)
221,158233,RIVIERA INC,In LA County,LOS ANGELES,90045,"6080  CENTER DR, LOS ANGELES, CA, 90045",33.9768948,-118.3918069,POINT (-118.3918069 33.9768948)
222,60698,SOURCE PROMOTIONS INC,In LA County,LOS ANGELES,90245,"607  N. NASH ST., LOS ANGELES, CA, 90245",33.9250129,-118.3884956,POINT (-118.3884956 33.9250129)
223,174941,"EVITARUS, INC.",In LA County,LOS ANGELES,90045,"6060  CENTER DR , LOS ANGELES, CA, 90045",33.9760097,-118.3909102,POINT (-118.3909102 33.9760097)
224,209611,ABVI LLC,Outside of LA County,RCH CUCAMONGA,91701,"6055  GARNET ST, RCH CUCAMONGA, CA, 91701",,,POINT (NaN NaN)
225,512124,LOS ANGELES CONSERVATION CORPS,In LA County,LOS ANGELES,90015,"605  W. OLYMPIC BLVD., , LOS ANGELES, CA, 90015",34.043854,-118.2617971,POINT (-118.2617971 34.043854)
226,200105,ANTHONY HOAG,Outside of LA County,ANGELUS OAKS,92305,"6031  PINE AVE, ANGELUS OAKS, CA, 92305",34.1447911,-116.9809645,POINT (-116.9809645 34.1447911)
227,517182,"J & S CIRCUIT BREAKERS, INC.",In LA County,LOS ANGELES,90022,"6024  E. OLYMPIC BLVD., LOS ANGELES, CA, 90022",34.0132474,-118.1432356,POINT (-118.1432356 34.0132474)
228,197899,BIG AL'S MOTORS SALES AND SERVICES LLC,In LA County,WHITTIER,90606,"6022  REDMAN AVE, WHITTIER, CA, 90606",33.9914743,-118.06779,POINT (-118.06779 33.9914743)
229,188537,"BIRDS EYE AERIAL DRONES, LLC",Outside of LA County,LA MESA,91942,"6015  SARITA ST, LA MESA, CA, 91942",32.788142,-117.011691,POINT (-117.011691 32.788142)
230,177135,THE ANTI-RECIDIVISM COALITION,In LA County,LOS ANGELES,90026,"601  N ALVARADO ST, LOS ANGELES, CA, 90026",34.073014,-118.266377,POINT (-118.266377 34.073014)
231,177135,THE ANTI-RECIDIVISM COALITION,In LA County,LOS ANGELES,90026,"601  N ALVARADO ST, LOS ANGELES, CA, 90026",34.073014,-118.266377,POINT (-118.266377 34.073014)
232,515310,THE LAGRANT GROUP,In LA County,LOS ANGELES,90017,"600  WILSHIRE BLVD , LOS ANGELES, CA, 90017",34.0479408,-118.2563218,POINT (-118.2563218 34.0479408)
233,515310,THE LAGRANT GROUP,In LA County,LOS ANGELES,90017,"600  WILSHIRE BLVD , LOS ANGELES, CA, 90017",34.0479408,-118.2563218,POINT (-118.2563218 34.0479408)
234,508085,"LINSCOTT, LAW & GREENSPAN ENG.",In LA County,PASADENA,91106,"600  S LAKE AVE , PASADENA, CA, 91106",34.1356346,-118.1318395,POINT (-118.1318395 34.1356346)
235,508085,"LINSCOTT, LAW & GREENSPAN ENG.",In LA County,PASADENA,91106,"600  S LAKE AVE, PASADENA, CA, 91106",34.1356346,-118.1318395,POINT (-118.1318395 34.1356346)
236,160222,CAL INTERPRETING & TRANSLATIONS INC,In LA County,VAN NUYS,91411,"5990  SEPULVEDA BLVD , VAN NUYS, CA, 91411",34.1791187,-118.4660748,POINT (-118.4660748 34.1791187)
237,163837,PENN AIR CONTROL,Outside of LA County,CYPRESS,90630,"5941  LAKESHORE DR, CYPRESS, CA, 90630",33.8293138,-118.0298806,POINT (-118.0298806 33.8293138)
238,171570,H-D SPECIALTY GROUPS INC,In LA County,COMMERCE,90040,"5913  E. WASHINGTON BLVD, COMMERCE, CA, 90040",33.9975715,-118.1514354,POINT (-118.1514354 33.9975715)
239,214331,VAN ELLS CONSTRUCTION LLC,In LA County,INGLEWOOD,90302,"591  HARGRAVE ST, INGLEWOOD, CA, 90302",33.9789558,-118.3490106,POINT (-118.3490106 33.9789558)
240,59165,SOFFA ELECTRIC INC.,In LA County,COMMERCE,90040,"5901  CORVETTE ST, COMMERCE, CA, 90040",34.006481,-118.143697,POINT (-118.143697 34.006481)
241,110154,"VIZUAL SYMPHONY, INC.",In LA County,GLENDALE,91202,"5900  SAN FERNANDO RD , GLENDALE, CA, 91202",34.158681,-118.279028,POINT (-118.279028 34.158681)
242,105454,CHOICE TECHNICAL SERVICES,In LA County,COMMERCE,90040,"5871  RICKENBACKER RD, COMMERCE, CA, 90040",33.989179,-118.1614562,POINT (-118.1614562 33.989179)
243,208976,"THE WOLCOTT GROUP, LLC",In LA County,LONG BEACH,90803,"5855  E NAPLES PLZ, LONG BEACH, CA, 90803",33.7560252,-118.119595,POINT (-118.119595 33.7560252)
244,176214,"DIMAGI, INC.",Out of State,CAMBRIDGE,2139,"585  MASSACHUSETTS AVE, CAMBRIDGE, CA, 2139",,,POINT (NaN NaN)
245,214071,"THE HUMAN BEAUTY MOVEMENT, PBC",In LA County,WOODLAND HLS,91367,"5826  FAIRHAVEN AVE, WOODLAND HLS, CA, 91367",34.176429,-118.6578213,POINT (-118.6578213 34.176429)
246,184956,ENTERPRISE SYSTEMS SOLUTIONS CORPORATION,In LA County,SHERMAN OAKS,91411,"5805  SEPULVEDA BLVD , SHERMAN OAKS, CA, 91411",34.1675104,-118.4659314,POINT (-118.4659314 34.1675104)
247,169016,SUTHERLAND CONSULTING GROUP,In LA County,CULVER CITY,90230,"5800 A HANNUM AVE , CULVER CITY, CA, 90230",33.9883856,-118.3916563,POINT (-118.3916563 33.9883856)
248,169016,SUTHERLAND CONSULTING GROUP,In LA County,CULVER CITY,90230,"5800 A HANNUM AVE, CULVER CITY, CA, 90230",33.9883856,-118.3916563,POINT (-118.3916563 33.9883856)
249,201842,MELINA SEMPILL WATTS CONSULTING LLC,In LA County,AGOURA HILLS,91301,"5800  KANAN RD, AGOURA HILLS, CA, 91301",34.1550837,-118.7563742,POINT (-118.7563742 34.1550837)
250,128525,"MOSS, LEVY & HARTZHEIM",In LA County,CULVER CITY,90230,"5800  HANNUM AVENUE, CULVER CITY, CA, 90230",33.9876818,-118.386263,POINT (-118.386263 33.9876818)
251,138927,BEACON ECONOMICS LLC,In LA County,LOS ANGELES,90045,"5777  W CENTURE BLVD , LOS ANGELES, CA, 90045",,,POINT (NaN NaN)
252,180493,FEDERAL SUPPLIER INC.,Outside of LA County,WESTLAKE VILLAGE,91362,"5776  LINDERO CANYON ROAD, WESTLAKE VILLAGE, CA, 91362",34.1543853,-118.7960039,POINT (-118.7960039 34.1543853)
253,153159,HALCO SERVICE CORP.,In LA County,LOS ANGELES,90019,"5773  VENICE BLVD., LOS ANGELES, CA, 90019",34.0430638,-118.3643281,POINT (-118.3643281 34.0430638)
254,170515,"MONACO MECHANICAL, INC.",In LA County,LOS ANGELES,90019,"5742  VENICE BOULEVARD, LOS ANGELES, CA, 90019",34.0433291,-118.3635888,POINT (-118.3635888 34.0433291)
255,163692,BUY SUPPLIES 4 LESS,In LA County,AGOURA HILLS,91301,"5737  KANAN RD. , AGOURA HILLS, CA, 91301",34.1555345,-118.758043,POINT (-118.758043 34.1555345)
256,138028,ALLIED NETWORK SOLUTIONS,Outside of LA County,ROCKLIN,95765,"5718  LONETREE BLVD, ROCKLIN, CA, 95765",38.8130436,-121.2898259,POINT (-121.2898259 38.8130436)
257,159717,"FENTON TRANSCRIPTION, LLC",Outside of LA County,WESTLAKE VILLAGE,91362,"5700  CORSA AVE, WESTLAKE VILLAGE, CA, 91362",34.157233,-118.799226,POINT (-118.799226 34.157233)
258,177672,L. A. WORKS INC.,In LA County,LOS ANGELES,90065,"570  WEST AVE 26  , LOS ANGELES, CA, 90065",34.0849497,-118.2238057,POINT (-118.2238057 34.0849497)
259,6482,CRAIG WELDING SUPPLY,In LA County,VERNON,90058,"5670  S SANTA FE AVE, VERNON, CA, 90058",33.9912607,-118.2300838,POINT (-118.2300838 33.9912607)
260,191628,TIM COGSHELL PRODUCTIONS,In LA County,PASADENA,91101,"563  N MARENGO AVE, PASADENA, CA, 91101",34.1557236,-118.1465056,POINT (-118.1465056 34.1557236)
261,111107,THE WALL LAS MEMORIAS PROJECT,In LA County,LOS ANGELES,90042,"5619  MONTE VISTA ST, LOS ANGELES, CA, 90042",34.1113512,-118.1954904,POINT (-118.1954904 34.1113512)
262,112526,CALIFORNIA COMPRESSOR INC,Outside of LA County,HUNTINGTON BEACH,92649,"5592  BUCKINGHAM DRIVE, HUNTINGTON BEACH, CA, 92649",33.7433174,-118.0311151,POINT (-118.0311151 33.7433174)
263,142776,APPLIED MECHANICAL ENGINEERING INC,In LA County,WEST COVINA,91790,"557  N TOLAND AVE, WEST COVINA, CA, 91790",34.0808101,-117.9211163,POINT (-117.9211163 34.0808101)
264,179432,STILLWATER SCIENCES,In LA County,LOS ANGELES,90013,"555  W. 5TH STREET, LOS ANGELES, CA, 90013",34.050161,-118.2535756,POINT (-118.2535756 34.050161)
265,190008,V3GATE LLC,Out of State,COLORADO SPGS,80921,"555  MIDDLE CREEK PKWY, COLORADO SPGS, CA, 80921",,,POINT (NaN NaN)
266,199327,MELVIN PALENCIA,Outside of LA County,MONTCLAIR,91763,"5541  ARROW HWY , MONTCLAIR, CA, 91763",34.0922704,-117.6843313,POINT (-117.6843313 34.0922704)
267,186724,"PRO TINT, INC",In LA County,TEMPLE CITY,91780,"5528  ROSEMEAD BLVD, TEMPLE CITY, CA, 91780",34.0994614,-118.0733062,POINT (-118.0733062 34.0994614)
268,198627,"AMERICAN TRAFFIC BARRICADE & SAFETY COMPANY, INC.",In LA County,CARSON,90745,"552  E CARSON ST , CARSON, CA, 90745",33.8314999,-118.2665138,POINT (-118.2665138 33.8314999)
269,181599,"SHARPLINE SOLUTIONS, INC",In LA County,COVINA,91722,"545  N RIMSDALE AVE , COVINA, CA, 91722",34.0897118,-117.911742,POINT (-117.911742 34.0897118)
270,179924,"TAKE A BYTE, INC.",In LA County,GARDENA,90248,"545  FINNEY CT., GARDENA, CA, 90248",,,POINT (NaN NaN)
271,42711,J.C.M. & ASSOCIATES INC.,In LA County,CITY OF COMMERCE,90040,"5443  E. WASHINGTON BLVD., CITY OF COMMERCE, CA, 90040",,,POINT (NaN NaN)
272,111512,SWIFT LEE OFFICE,In LA County,PASADENA,91105,"543  S RAYMOND AVE, PASADENA, CA, 91105",34.1366972,-118.1488978,POINT (-118.1488978 34.1366972)
273,33404,ACTION DOOR REPAIR CORP,In LA County,HUNTINGTON PARK,90255,"5420  MALABAR STREET, HUNTINGTON PARK, CA, 90255",33.9936873,-118.227674,POINT (-118.227674 33.9936873)
274,33404,ACTION DOOR REPAIR CORP,In LA County,HUNTINGTON PARK,90255,"5420  MALABAR ST, HUNTINGTON PARK, CA, 90255",33.9936873,-118.227674,POINT (-118.227674 33.9936873)
275,196984,"BBD ADVANTAGE, INC",In LA County,VALLEY VLG,91607,"5404  WHITSETT AVE, VALLEY VLG, CA, 91607",,,POINT (NaN NaN)
276,159004,LOGIXSERVICE INC,In LA County,LOS ANGELES,90045,"5353  W IMPERIAL HWY , LOS ANGELES, CA, 90045",33.9309924,-118.374039,POINT (-118.374039 33.9309924)
277,132397,MINDS ON EDUCATION INC,In LA County,AGOURA HILLS,91301,"5312  DERRY AVE, AGOURA HILLS, CA, 91301",34.1473234,-118.7479653,POINT (-118.7479653 34.1473234)
278,108307,TAYLOR WALK INC,In LA County,AGOURA HILLS,91301,"5304  DERRY AVE , AGOURA HILLS, CA, 91301",34.1475653,-118.7479483,POINT (-118.7479483 34.1475653)
279,188924,CAUSEIMPACTS,In LA County,INGLEWOOD,90304,"5301  W 119TH PL, INGLEWOOD, CA, 90304",,,POINT (NaN NaN)
280,147249,"ZUSSER COMPANY, INC.",In LA County,LOS ANGELES,90272,"528  PALISADES DR., , LOS ANGELES, CA, 90272",34.0451568,-118.5518126,POINT (-118.5518126 34.0451568)
281,163141,BRILLIANT CORNERS,In LA County,LOS ANGELES,90014,"527  W 7TH ST, LOS ANGELES, CA, 90014",34.0468847,-118.2558008,POINT (-118.2558008 34.0468847)
282,166532,KNIGHTSBRIDGE INDUSTRIES INC.,In LA County,COVINA,91722,"527  N. AZUSA AVE, COVINA, CA, 91722",34.0897315,-117.9088878,POINT (-117.9088878 34.0897315)
283,200291,GOODSIDES LLC,In LA County,N HOLLYWOOD,91601,"5250  LANKERSHIM BLVD, N HOLLYWOOD, CA, 91601",34.166717,-118.3751401,POINT (-118.3751401 34.166717)
284,2458,REFRIG. CONTRACTING & MAINT.,In LA County,CITY OF COMMERCE,90040,"5250  EAST WASHINGTON BLVD, CITY OF COMMERCE, CA, 90040",,,POINT (NaN NaN)
285,150407,THE ENERGY COALITION,Outside of LA County,IRVINE,92618,"525  TECHNOLOGY DR, IRVINE, CA, 92618",33.6733775,-117.757733,POINT (-117.757733 33.6733775)
286,171022,"VERDICAL GROUP, INC.",In LA County,LOS ANGELES,90013,"525  S HEWITT ST, LOS ANGELES, CA, 90013",34.0409705,-118.2355157,POINT (-118.2355157 34.0409705)
287,156332,"VINIEGRA & VINIEGRAARCHITECTURE, LLP",In LA County,TARZANA,91356,"5232  OTIS AVE., TARZANA, CA, 91356",34.1661887,-118.5354347,POINT (-118.5354347 34.1661887)
288,210331,DELTA FOOD SERVICE MANAGEMENT,In LA County,LOS ANGELES,90032,"5230  CONEY RD, LOS ANGELES, CA, 90032",34.0718285,-118.1701912,POINT (-118.1701912 34.0718285)
289,187575,MODERN CORNERSTONE BUILDERS,In LA County,LA CRESCENTA,91214,"5213  LA CRESCENTA AVE, LA CRESCENTA, CA, 91214",34.2375619,-118.2399275,POINT (-118.2399275 34.2375619)
290,188996,"J.R.L.R. ENTERPRISES, INC.",In LA County,COMMERCE,90040,"5211  E WASHINGTON BLVD , COMMERCE, CA, 90040",34.0027727,-118.1667149,POINT (-118.1667149 34.0027727)
291,34147,PLUMBING & INDUSTRIAL SUPPLY,In LA County,LOS ANGELES,90039,"5181  W SAN FERNANDO RD, LOS ANGELES, CA, 90039",,,POINT (NaN NaN)
292,34147,PLUMBING & INDUSTRIAL SUPPLY,In LA County,LOS ANGELES,90039,"5181  SAN FERNANDO RD W, LOS ANGELES, CA, 90039",34.1463161,-118.2722337,POINT (-118.2722337 34.1463161)
293,187691,KARIM SAAFIR PHOTOGRAPHY,In LA County,LOS ANGELES,90056,"5174  W SLAUSON AVE, LOS ANGELES, CA, 90056",33.987639,-118.3695477,POINT (-118.3695477 33.987639)
294,519341,JUDITH SEGAL PHD.,In LA County,BEVERLY HILLS,90210,"517  NORTH ALTA DRIVE, BEVERLY HILLS, CA, 90210",34.0808344,-118.3939302,POINT (-118.3939302 34.0808344)
295,146623,MAJESTIC FIRE INC,In LA County,SHERMAN OAKS,91403,"5160  VAN NUYS BLVD , SHERMAN OAKS, CA, 91403",34.1643739,-118.4482448,POINT (-118.4482448 34.1643739)
296,515010,PLUMBING WHOLESALE OUTLET INC,In LA County,PASADENA,91103,"516  N FAIR OAKS AVE, PASADENA, CA, 91103",34.1545734,-118.1504477,POINT (-118.1504477 34.1545734)
297,140608,LOS ANGELES UNIVERSAL PRESCHOOL,In LA County,LOS ANGELES,90071,"515  S FIGUEROA ST, LOS ANGELES, CA, 90071",34.0520935,-118.2580793,POINT (-118.2580793 34.0520935)
298,145500,"OAK TREE CONSTRUCTION, INC.",In LA County,WOODLAND HILLS,91364,"5149  CATALON AVE., WOODLAND HILLS, CA, 91364",34.164119,-118.5897181,POINT (-118.5897181 34.164119)
299,181424,TRI-XECUTEX CORPORATION,In LA County,SAN DIMAS,91773,"512  E. BONITA AVE, SAN DIMAS, CA, 91773",34.1065706,-117.797759,POINT (-117.797759 34.1065706)
300,195621,"AVENUE HOME CARE, INC",Outside of LA County,CARLSBAD,92008,"5115  AVENIDA ENCINAS, CARLSBAD, CA, 92008",33.1311542,-117.329878,POINT (-117.329878 33.1311542)
301,185718,"GRBCON, INC.",In LA County,BALDWIN PARK,91706,"5114  ELTON ST, BALDWIN PARK, CA, 91706",34.1055229,-117.9505444,POINT (-117.9505444 34.1055229)
302,120191,INDUSTRIAL MAINTENANCE SUPPLY INC,In LA County,SAN FERNANDO,91340,"511  FIFTH ST , SAN FERNANDO, CA, 91340",,,POINT (NaN NaN)
303,104240,DEL RICHARDSON & ASSOCIATES,In LA County,INGLEWOOD,90301,"510  S. LA BREA AVE, INGLEWOOD, CA, 90301",33.957573,-118.3531738,POINT (-118.3531738 33.957573)
304,56710,ARROW RESTAURANT EQUIPMENT & SUPPLIES INC,Outside of LA County,MONTCLAIR,91763,"5061  ARROW HWY, MONTCLAIR, CA, 91763",34.0931678,-117.6955831,POINT (-117.6955831 34.0931678)
305,145309,AIR CLEAN ENVIRONMENTAL INC,In LA County,BALDWIN PARK,91706,"5053  HEINTZ ST, BALDWIN PARK, CA, 91706",34.104862,-117.952961,POINT (-117.952961 34.104862)
306,204764,EMPLOY CALIFORNIA,In LA County,LONG BEACH,90853,"5050  E 2ND ST, LONG BEACH, CA, 90853",33.7607901,-118.1362995,POINT (-118.1362995 33.7607901)
307,526213,BEST WAY MARBLE & TILE,In LA County,LOS ANGELES,90022,"5037  TELEGRAPH RD, LOS ANGELES, CA, 90022",34.0126404,-118.1632303,POINT (-118.1632303 34.0126404)
308,121731,APPLOON THE MURDOCK CORP.,In LA County,LAKEWOOD,90712,"5032  MEADOW WOOD AVE, LAKEWOOD, CA, 90712",33.848315,-118.164631,POINT (-118.164631 33.848315)
309,183827,"LA TERRA BUILDING SOLUTIONS, LLC",In LA County,LOS ANGELES,90041,"5016  EAGLE ROCK BLVD , LOS ANGELES, CA, 90041",34.137534,-118.2143606,POINT (-118.2143606 34.137534)
310,183827,"LA TERRA BUILDING SOLUTIONS, LLC",In LA County,LOS ANGELES,90041,"5016  EAGLE ROCK BLVD, LOS ANGELES, CA, 90041",34.137534,-118.2143606,POINT (-118.2143606 34.137534)
311,116466,HARDER+COMPANY COMMUNITY RESEARCH,Outside of LA County,SAN DIEGO,92103,"501  WASHINGTON ST, SAN DIEGO, CA, 92103",32.749858,-117.160297,POINT (-117.160297 32.749858)
312,171500,VCLOUD TECH INC.,Out of State,SANFORD,27330,"500  WESTOVER DR , SANFORD, CA, 27330",,,POINT (NaN NaN)
313,56701,WESTRIDGE ASSOCIATES,In LA County,LOS ANGELES,90071,"500  S FIGUEROA, LOS ANGELES, CA, 90071",34.0539542,-118.2556035,POINT (-118.2556035 34.0539542)
314,180080,CENTER FOR EMPLOYMENT OPPORTUNITIES,Out of State,NEW YORK,10004,"50  BROADWAY, NEW YORK, CA, 10004",,,POINT (NaN NaN)
315,177957,NAME ON THE LINE ADVERTISING LLC,In LA County,PASADENA,91109,"5  MILE MEDIA, PASADENA, CA, 91109",,,POINT (NaN NaN)
316,195818,JACOB A YANES,In LA County,LOS ANGELES,90042,"4955  1/2 SYCAMORE TER, LOS ANGELES, CA, 90042",,,POINT (NaN NaN)
317,193694,PARS EQUALITY CENTER,In LA County,SHERMAN OAKS,91403,"4954  VAN NUYS BLVD, SHERMAN OAKS, CA, 91403",34.1609703,-118.448265,POINT (-118.448265 34.1609703)
318,199711,JOSE FUENTES,In LA County,LOS ANGELES,90022,"4931  WHITTIER BLVD, LOS ANGELES, CA, 90022",34.0216461,-118.1628365,POINT (-118.1628365 34.0216461)
319,144443,WIRELESS INNOVATION SOLUTION I,In LA County,LOS ANGELES,90041,"4917  GLACIER DR, LOS ANGELES, CA, 90041",34.1361318,-118.1916536,POINT (-118.1916536 34.1361318)
320,194317,HIGH SPEED LOGISTICS INC,Outside of LA County,SAN DIEGO,92107,"4876  SANTA MONICA AVE, SAN DIEGO, CA, 92107",32.746666,-117.247958,POINT (-117.247958 32.746666)
321,211703,"SIGN ZONE, INC.",In LA County,LOS ANGELES,90029,"4873  MELROSE AVE, LOS ANGELES, CA, 90029",34.0836056,-118.3064888,POINT (-118.3064888 34.0836056)
322,502072,"JJJ FLOOR COVERING, INC.",In LA County,PICO RIVERA,90660,"4831 -A PASSONS BLVD, PICO RIVERA, CA, 90660",33.9795191,-118.0899611,POINT (-118.0899611 33.9795191)
323,144442,CITADEL CPM INC,In LA County,PASADENA,91105,"482  S ARROYO PKWY, PASADENA, CA, 91105",34.1373245,-118.1472523,POINT (-118.1472523 34.1373245)
324,154453,YATES TRUCKING INC,In LA County,QUARTZ HILL,93536,"4817  W AVENUE N, QUARTZ HILL, CA, 93536",34.6310509,-118.1924733,POINT (-118.1924733 34.6310509)
325,529724,SWA ARCHITECTS,In LA County,PASADENA,91103,"48  E. HOLLY ST., PASADENA, CA, 91103",34.1475701,-118.1494714,POINT (-118.1494714 34.1475701)
326,186006,"RIPE MEDIA, INC.",In LA County,N HOLLYWOOD,91602,"4789  VINELAND AVE, N HOLLYWOOD, CA, 91602",34.1573574,-118.370128,POINT (-118.370128 34.1573574)
327,138234,MJK CONSTRUCTION INC,Outside of LA County,CHINO,91710,"4780  CHEYENNE WAY, CHINO, CA, 91710",34.0031192,-117.7005463,POINT (-117.7005463 34.0031192)
328,140648,SUNWEST ENGINEERING,Outside of LA County,CHINO,91710,"4780  CHEYENNE WAY, CHINO, CA, 91710",34.0031192,-117.7005463,POINT (-117.7005463 34.0031192)
329,207329,1 A SERVICE,In LA County,LOS ANGELES,90022,"4776  DOZIER ST, LOS ANGELES, CA, 90022",34.0414204,-118.1626261,POINT (-118.1626261 34.0414204)
330,148067,DICK NIGRA INSPECTIONS INC,In LA County,LA CANADA,91011,"4735  OAKADO PLACE, LA CANADA, CA, 91011",34.2189829,-118.2233889,POINT (-118.2233889 34.2189829)
331,204768,ACE BROKERAGE AND TRANSPORT LLC,In LA County,LAWNDALE,90260,"4730  W 173RD ST, , LAWNDALE, CA, 90260",33.8738199,-118.3566808,POINT (-118.3566808 33.8738199)
332,125632,COMPUTER 1 PRODUCTS OF AMERICA,In LA County,LONG BEACH,90803,"4712  E 2ND ST , LONG BEACH, CA, 90803",33.7617371,-118.1385143,POINT (-118.1385143 33.7617371)
333,191037,"BEYOND 2000 ENTERPRISES, LLC",In LA County,MARINA DL REY,90292,"4712  ADMIRALTY WAY , MARINA DL REY, CA, 90292",,,POINT (NaN NaN)
334,56888,SPECIALTY DOORS AND AUTOMATION,In LA County,LONG BEACH,90805,"4700  LONG BEACH BLVD, LONG BEACH, CA, 90805",33.8431632,-118.1924124,POINT (-118.1924124 33.8431632)
335,203984,"MCMAVERICK, INC.",Outside of LA County,SAN DIEGO,92130,"4653  CARMEL MOUNTAIN RD, SAN DIEGO, CA, 92130",32.9203964,-117.2135338,POINT (-117.2135338 32.9203964)
336,504823,CLARKE CONTRACTING CORPORATION,In LA County,LAWNDALE,90260,"4646  MANHATTAN BEACH BLVD., LAWNDALE, CA, 90260",33.8872327,-118.3588576,POINT (-118.3588576 33.8872327)
337,504823,CLARKE CONTRACTING CORPORATION,In LA County,LAWNDALE,90260,"4646  MANHATTAN BEACH BLVD, LAWNDALE, CA, 90260",33.8872327,-118.3588576,POINT (-118.3588576 33.8872327)
338,192142,"OHANAVETS, INC.",In LA County,MARINA DL REY,90292,"4640  ADMIRALTY WAY , MARINA DL REY, CA, 90292",,,POINT (NaN NaN)
339,197786,"TRYFACTA, INC.",Outside of LA County,PLEASANTON,94588,"4637  CHABOT DR , PLEASANTON, CA, 94588",37.6924636,-121.9006459,POINT (-121.9006459 37.6924636)
340,37039,SUPERIOR ELECTRIC MOTOR SERV,In LA County,VERNON,90058,"4622  ALCOA AVE, VERNON, CA, 90058",34.0018126,-118.2085955,POINT (-118.2085955 34.0018126)
341,56491,BAR/SCAN INC,Outside of LA County,WESTLAKE VILLAGE,91361,"4607  LAKEVIEW CANYON ROAD, , WESTLAKE VILLAGE, CA, 91361",34.1424411,-118.8207636,POINT (-118.8207636 34.1424411)
342,516751,CENTER FOR HEALTH CARE RIGHTS,In LA County,LOS ANGELES,90010,"4601  WILSHIRE BLVD, LOS ANGELES, CA, 90010",34.062028,-118.329599,POINT (-118.329599 34.062028)
343,516751,CENTER FOR HEALTH CARE RIGHTS,In LA County,LOS ANGELES,90010,"4601  WILSHIRE BLVD, LOS ANGELES, CA, 90010",34.062028,-118.329599,POINT (-118.329599 34.062028)
344,111854,R.L. KLEIN & ASSOCIATES,In LA County,RLLNG HLS EST,90274,"46  PENINSULA CTR , RLLNG HLS EST, CA, 90274",,,POINT (NaN NaN)
345,111854,R.L. KLEIN & ASSOCIATES,In LA County,ROLLING HILLS ESTATES,90274,"46  E PENINSULA CENTER DR, ROLLING HILLS ESTATES, CA, 90274",,,POINT (NaN NaN)
346,8030,LITTLEJOHN REULAND CORP,In LA County,VERNON,90058,"4575  PACIFIC BLVD., VERNON, CA, 90058",34.0022764,-118.2253379,POINT (-118.2253379 34.0022764)
347,8030,LITTLEJOHN REULAND CORP,In LA County,VERNON,90058,"4575  PACIFIC BLVD, VERNON, CA, 90058",34.0022764,-118.2253379,POINT (-118.2253379 34.0022764)
348,42545,PJ HILTON & ASSOCIATES,In LA County,SAN DIMAS,91773,"457  WEST ALLEN AVE , SAN DIMAS, CA, 91773",34.1176464,-117.8150509,POINT (-117.8150509 34.1176464)
349,161728,GEO-ADVANTEC INC,In LA County,SAN DIMAS,91773,"457  W ALLEN AVE , SAN DIMAS, CA, 91773",34.1176464,-117.8150509,POINT (-117.8150509 34.1176464)
350,506335,LEE DIBLOSI,In LA County,MANHATTAN BEACH,90266,"457  31ST STREET, MANHATTAN BEACH, CA, 90266",33.8980839,-118.4139323,POINT (-118.4139323 33.8980839)
351,169227,LINDA R GATSON-WARD,In LA County,LOS ANGELES,90008,"4569  DON DIEGO DR, LOS ANGELES, CA, 90008",34.0076264,-118.3547187,POINT (-118.3547187 34.0076264)
352,154408,"GERONIMO CONCRETE, INC",In LA County,LOS ANGELES,90032,"4560  HUNTINGTON DR N, LOS ANGELES, CA, 90032",34.0852385,-118.1892254,POINT (-118.1892254 34.0852385)
353,101336,ATHENA ENGINEERING INC.,In LA County,SAN DIMAS,91773,"456  EAST FOOTHILL BOULEVARD, SAN DIMAS, CA, 91773",34.1231468,-117.7987319,POINT (-117.7987319 34.1231468)
354,180965,"NR DEVELOPMENT, INC.",Outside of LA County,FONTANA,92336,"4559  FOXBOROUGH DR, FONTANA, CA, 92336",34.1704088,-117.4835058,POINT (-117.4835058 34.1704088)
355,179157,WENGER FURNITURE AND APPLIANCES CO,In LA County,LOS ANGELES,90022,"4552  WHITTIER BLVD, LOS ANGELES, CA, 90022",34.0228534,-118.1693114,POINT (-118.1693114 34.0228534)
356,172781,SOUTHERN CALIFORNIA FLAGPOLE COMPANY INC,In LA County,LOS ANGELES,90041,"4551  YORK BLVD, LOS ANGELES, CA, 90041",34.123497,-118.216996,POINT (-118.216996 34.123497)
357,185197,LUMOS TRANSFORMS,In LA County,LOS ANGELES,90042,"454  N AVENUE 56 , LOS ANGELES, CA, 90042",34.1181061,-118.1970544,POINT (-118.1970544 34.1181061)
358,183044,GAMES ON WHEELZ,In LA County,LOS ANGELES,90013,"453  S SPRING ST , LOS ANGELES, CA, 90013",34.0481177,-118.2490727,POINT (-118.2490727 34.0481177)
359,170720,CLC PUBLICIDAD,In LA County,SHERMAN OAKS,91423,"4528  , SHERMAN OAKS, CA, 91423",34.1528515,-118.4691805,POINT (-118.4691805 34.1528515)
360,60698,SOURCE PROMOTIONS INC,In LA County,STUDIO CITY,91604,"4526  COLDWATER CANYON AVE, STUDIO CITY, CA, 91604",34.153111,-118.413675,POINT (-118.413675 34.153111)
361,200296,EQUIPMENT CONNECTION INC,In LA County,LANCASTER,93536,"45259  23RD ST W, LANCASTER, CA, 93536",34.7051885,-118.1716476,POINT (-118.1716476 34.7051885)
362,160245,AMAZING BALLOONS BY GEE,In LA County,HAWTHORNE,90250,"4516  W. BROADWAY AVE., HAWTHORNE, CA, 90250",,,POINT (NaN NaN)
363,170136,PATRICIA SONTAG,In LA County,LAKEWOOD,90713,"4513  NIPOMO AVENUE, LAKEWOOD, CA, 90713",33.8398585,-118.1017679,POINT (-118.1017679 33.8398585)
364,100045,CHOYASSOCIATES,In LA County,LAWNDALE,90260,"4511  W. 171ST STREET, LAWNDALE, CA, 90260",33.8757868,-118.3551841,POINT (-118.3551841 33.8757868)
365,179797,ALAS MEDIA,In LA County,SAN FERNANDO,91340,"451  S BRAND BLVD, SAN FERNANDO, CA, 91340",34.280036,-118.442262,POINT (-118.442262 34.280036)
366,212510,EAST LOS TACOS,In LA County,LOS ANGELES,90022,"4500  E CESAR E CHAVEZ AVE, LOS ANGELES, CA, 90022",34.040337,-118.1689966,POINT (-118.1689966 34.040337)
367,211460,"PAT V MACK, INC",Out of State,ST PETERSBURG,33701,"450  8TH AVE SE, ST PETERSBURG, CA, 33701",,,POINT (NaN NaN)
368,160695,PAVING THE WAY FOUNDATION,In LA County,LANCASTER,93534,"44818  FERN AVE, LANCASTER, CA, 93534",34.6961437,-118.1441882,POINT (-118.1441882 34.6961437)
369,189473,SALT LANDSCAPE ARCHITECTS INC,In LA County,LOS ANGELES,90013,"448  S HILL ST , LOS ANGELES, CA, 90013",34.0494608,-118.2510126,POINT (-118.2510126 34.0494608)
370,191269,LOST ANGELS CHILDREN'S PROJECT,In LA County,LANCASTER,93534,"44528  BEECH AVE, LANCASTER, CA, 93534",34.6914921,-118.1370801,POINT (-118.1370801 34.6914921)
371,111179,PEERLESS MATERIALS COMPANY,In LA County,VERNON,90058,"4442  E 26TH STREET, VERNON, CA, 90058",34.0028373,-118.1802315,POINT (-118.1802315 34.0028373)
372,111179,PEERLESS MATERIALS COMPANY,In LA County,VERNON,90058,"4442  E 26TH ST, VERNON, CA, 90058",34.0028373,-118.1802315,POINT (-118.1802315 34.0028373)
373,63235,"ANIL VERMA ASSOCIATES, INC.",In LA County,LOS ANGELES,90071,"444  S. FLOWER ST., , LOS ANGELES, CA, 90071",34.05124,-118.255221,POINT (-118.255221 34.05124)
374,186151,"MOZAIC MEDIA & COMMUNICATIONS, INC.",In LA County,LOS ANGELES,90071,"444  S FLOWER ST, LOS ANGELES, CA, 90071",34.05124,-118.255221,POINT (-118.255221 34.05124)
375,211040,"WILLIAM SCHAEFER CONSTRUCTION, INC.",In LA County,LANCASTER,93535,"44391  STANRIDGE AVE, LANCASTER, CA, 93535",34.6890375,-118.1275495,POINT (-118.1275495 34.6890375)
376,195787,NATIONAL WILDFIRE PROTECTION SERVICE LLC,In LA County,LANCASTER,93535,"44218  GILLAN AVE, LANCASTER, CA, 93535",34.6864556,-118.1117003,POINT (-118.1117003 34.6864556)
377,186979,GOURMET PAPER PLATES,In LA County,LANCASTER,93534,"44214  HEATON AVE, LANCASTER, CA, 93534",34.6860881,-118.1452382,POINT (-118.1452382 34.6860881)
378,131116,DOWNTOWN WOMEN'S CENTER,In LA County,LOS ANGELES,90013,"442  S SAN PEDRO ST, LOS ANGELES, CA, 90013",34.0447431,-118.2434571,POINT (-118.2434571 34.0447431)
379,200017,"360 MEDICAL, LLC.",In LA County,SAN DIMAS,91773,"441  W ALLEN AVE , SAN DIMAS, CA, 91773",34.117646,-117.814857,POINT (-117.814857 34.117646)
380,207787,"THILLERY GROUP, LLC",In LA County,LANCASTER,93535,"43928  FALLON DR, LANCASTER, CA, 93535",34.6811517,-118.1017106,POINT (-118.1017106 34.6811517)
381,141782,EAST LA WHOLESALE ELECTRIC,In LA County,LOS ANGELES,90023,"4385  EAST OLYMPIC BLVD, LOS ANGELES, CA, 90023",34.0188141,-118.1792044,POINT (-118.1792044 34.0188141)
382,167201,"COMPATIOR, INC.",In LA County,SOUTH GATE,90280,"4363  TWEEDY BLVD, SOUTH GATE, CA, 90280",33.9431485,-118.1952344,POINT (-118.1952344 33.9431485)
383,146436,HUB CITIES CAREER CENTER,In LA County,SOUTH GATE,90280,"4354  TWEEDY BLVD, SOUTH GATE, CA, 90280",33.9428204,-118.1953925,POINT (-118.1953925 33.9428204)
384,133842,INSTANT INFOSYSTEMS,In LA County,REDONDO BEACH,90277,"435  N PACIFIC COAST HWY , REDONDO BEACH, CA, 90277",33.84866,-118.3887159,POINT (-118.3887159 33.84866)
385,515464,"COMMUNITY HEALTH COUNCILS, INC",In LA County,LOS ANGELES,90018,"4335  W ADAMS BLVD, LOS ANGELES, CA, 90018",34.0325028,-118.3333436,POINT (-118.3333436 34.0325028)
386,515464,"COMMUNITY HEALTH COUNCILS, INC",In LA County,LOS ANGELES,90018,"4335  W ADAMS BLVD, LOS ANGELES, CA, 90018",34.0325028,-118.3333436,POINT (-118.3333436 34.0325028)
387,515464,"COMMUNITY HEALTH COUNCILS, INC",In LA County,LOS ANGELES,90018,"4335  W ADAMS BLVD, LOS ANGELES, CA, 90018",34.0325028,-118.3333436,POINT (-118.3333436 34.0325028)
388,161846,NLESYSTEMS INC,In LA County,GLENDALE,91204,"433  W. COLORADO ST, GLENDALE, CA, 91204",34.1426127,-118.2620908,POINT (-118.2620908 34.1426127)
389,152921,ELEVATORS ETC,In LA County,LOS ANGELES,90022,"4327  E CESAR CHAVEZ AVE, LOS ANGELES, CA, 90022",,,POINT (NaN NaN)
390,123762,OCEAN SIDE HOME HEALTH  SERVICES INC,In LA County,LOS ANGELES,90010,"4322  WILSHIRE BOULEVARD, , LOS ANGELES, CA, 90010",34.0617119,-118.3220868,POINT (-118.3220868 34.0617119)
391,7544,WESTERN TRUCK EXCHANGE,In LA County,LOS ANGELES,90003,"432  W. MANCHESTER AVE., LOS ANGELES, CA, 90003",33.9597739,-118.2815554,POINT (-118.2815554 33.9597739)
392,115404,SELBERT PERKINS DESIGN,In LA County,PLAYA DEL REY,90293,"432  CULVER BLVD, PLAYA DEL REY, CA, 90293",33.9611864,-118.4450978,POINT (-118.4450978 33.9611864)
393,504652,GARVEY EQUIPMENT COMPANY,In LA County,SAN GABRIEL,91776,"430  S PINE ST, SAN GABRIEL, CA, 91776",34.0756578,-118.0917897,POINT (-118.0917897 34.0756578)
394,155173,"JLEE ENGINEERING, INC",In LA County,ALHAMBRA,91801,"430  S GARFIELD AVE , ALHAMBRA, CA, 91801",34.0902901,-118.1232104,POINT (-118.1232104 34.0902901)
395,103548,THREE D PLASTICS INC,In LA County,BURBANK,91502,"430  N. VARNEY ST., BURBANK, CA, 91502",34.1801071,-118.3164633,POINT (-118.3164633 34.1801071)
396,130335,SPADARO ENTERPRISES INC,In LA County,LANCASTER,93534,"42612  8TH ST W, LANCASTER, CA, 93534",34.6571274,-118.1453958,POINT (-118.1453958 34.6571274)
397,201425,MICHAEL NOBLEZA,In LA County,INGLEWOOD,90301,"426  W OLIVE ST, INGLEWOOD, CA, 90301",33.960743,-118.362937,POINT (-118.362937 33.960743)
398,511218,ECONO WEST INC,In LA County,LANCASTER,93534,"42332  1/2 10TH ST W, LANCASTER, CA, 93534",,,POINT (NaN NaN)
399,208450,NOEMY MACIEL,Outside of LA County,ONTARIO,91761,"422  S LEMON AVE, ONTARIO, CA, 91761",34.0597445,-117.6496763,POINT (-117.6496763 34.0597445)
400,214899,BLUETEK UNLIMITED LLC,In LA County,BALDWIN PARK,91706,"4219  ALDERSON AVE, BALDWIN PARK, CA, 91706",34.0896441,-117.9548741,POINT (-117.9548741 34.0896441)
401,207237,GALPH ENTERPRISES,In LA County,BURBANK,91505,"4211  W TOLUCA LAKE LN, BURBANK, CA, 91505",34.1476445,-118.3444941,POINT (-118.3444941 34.1476445)
402,183677,"IMAGEN, INC",In LA County,GLENDORA,91740,"421  E ROUTE 66, GLENDORA, CA, 91740",34.1292021,-117.8594054,POINT (-117.8594054 34.1292021)
403,165378,"R&K MEDICAL, INC",In LA County,GLENDALE,91204,"4205  SAN FERNANDO RD, GLENDALE, CA, 91204",34.129975,-118.260667,POINT (-118.260667 34.129975)
404,113065,"A-1 ELECTRIC SERVICE CO., INC.",In LA County,CULVER  CITY,90230,"4204  SO. SEPULVEDA BL., CULVER  CITY, CA, 90230",,,POINT (NaN NaN)
405,173398,ECONOMY TREE CARE,In LA County,LONG BEACH,90807,"4201  LONG BEACH BLVD, , LONG BEACH, CA, 90807",33.834627,-118.189488,POINT (-118.189488 33.834627)
406,186683,PLACE AND PAGE LLC,In LA County,LOS ANGELES,90031,"420  W AVENUE 33, LOS ANGELES, CA, 90031",34.0837841,-118.2169217,POINT (-118.2169217 34.0837841)
407,41089,UNITED RIGGERS & ERECTORS INC.,In LA County,WALNUT,91789,"4188  VALLEY BLVD., WALNUT, CA, 91789",34.0077765,-117.8624807,POINT (-117.8624807 34.0077765)
408,41089,UNITED RIGGERS & ERECTORS INC.,In LA County,WALNUT,91789,"4188  VALLEY BLVD., WALNUT, CA, 91789",34.0077765,-117.8624807,POINT (-117.8624807 34.0077765)
409,155842,FIRST CLASS PLUMBING CO,Outside of LA County,THREE RIVERS,93271,"41804  SIERRA DR, THREE RIVERS, CA, 93271",36.4372771,-118.9055165,POINT (-118.9055165 36.4372771)
410,521832,CITY TERRACE SERVICE INC,In LA County,LOS ANGELES,90063,"4167  WHITESIDE ST, LOS ANGELES, CA, 90063",34.0605415,-118.1775441,POINT (-118.1775441 34.0605415)
411,203080,US2U SERVICES,In LA County,QUARTZ HILL,93536,"41545  YANCEY LN, QUARTZ HILL, CA, 93536",34.6371783,-118.2215423,POINT (-118.2215423 34.6371783)
412,193760,CLEO WARE AND BRANDI BUTLER,In LA County,QUARTZ HILL,93536,"41545  YANCEY LN, QUARTZ HILL, CA, 93536",34.6371783,-118.2215423,POINT (-118.2215423 34.6371783)
413,506313,DIESELTRON INC,In LA County,LOS ANGELES,90023,"4150  E. WASHINGTON BLVD., LOS ANGELES, CA, 90023",34.0093019,-118.1865383,POINT (-118.1865383 34.0093019)
414,126335,"PARTY PRONTO, INC.",In LA County,ARCADIA,91006,"4131  LIVE OAK AVENUE, ARCADIA, CA, 91006",34.109878,-118.013592,POINT (-118.013592 34.109878)
415,131302,CALLOR SALES,In LA County,HACIENDA HEIGHTS,91745,"4125  NOVEL COURT, HACIENDA HEIGHTS, CA, 91745",33.9775504,-117.9873915,POINT (-117.9873915 33.9775504)
416,171983,"AAA ATTORNEY SERVICES II, INC",Outside of LA County,ORANGE,92869,"4122  E. CHAPMAN AVE, , ORANGE, CA, 92869",33.7876733,-117.8091556,POINT (-117.8091556 33.7876733)
417,161778,"STUDENTNEST, INC.",In LA County,GLENDALE,91203,"411  N CENTRAL AVE, GLENDALE, CA, 91203",34.1525695,-118.2584252,POINT (-118.2584252 34.1525695)
418,131930,"CALVADA SURVEYING, INC.",Outside of LA County,CORONA,92880,"411  JENKS CIRCLE, , CORONA, CA, 92880",33.8907026,-117.5939657,POINT (-117.5939657 33.8907026)
419,210911,GOMEZ IT SERVICES,In LA County,PALMDALE,93551,"41021  RIVEROCK LN, PALMDALE, CA, 93551",34.6268195,-118.2157562,POINT (-118.2157562 34.6268195)
420,205701,"WORLD FOOD BANK, KITCHEN, AND URBAN FARM",In LA County,LOS ANGELES,90020,"410  S VAN NESS AVE, LOS ANGELES, CA, 90020",34.066857,-118.3150433,POINT (-118.3150433 34.066857)
421,205701,"WORLD FOOD BANK, KITCHEN, AND URBAN FARM",In LA County,LOS ANGELES,90020,"410  S VAN NESS AVE, LOS ANGELES, CA, 90020",34.066857,-118.3150433,POINT (-118.3150433 34.066857)
422,200253,ANTELOPE VALLEY COMMUNITY UPLIFT FOUNDATION,In LA County,LANCASTER,93535,"410  E AVENUE K12, LANCASTER, CA, 93535",,,POINT (NaN NaN)
423,153725,ALFRED R MERCADO,Outside of LA County,ONTARIO,91761,"4091  S WILDFLAX PASEO, ONTARIO, CA, 91761",,,POINT (NaN NaN)
424,203526,RACAIA INC.,In LA County,LOS ANGELES,90015,"409  W OLYMPIC BLVD, LOS ANGELES, CA, 90015",34.042775,-118.2596436,POINT (-118.2596436 34.042775)
425,151808,ANTELOPE VALLEY PARTNERS FOR HEALTH,In LA County,LANCASTER,93536,"4083  W AVENUE L PMB 370, LANCASTER, CA, 93536",,,POINT (NaN NaN)
426,151808,ANTELOPE VALLEY PARTNERS FOR HEALTH,In LA County,LANCASTER,93536,"4083  W AVENUE L PMB 370, LANCASTER, CA, 93536",,,POINT (NaN NaN)
427,100913,DONALD R STULL,In LA County,LANCASTER,93536,"4083  W AVENUE L PMB 232, LANCASTER, CA, 93536",,,POINT (NaN NaN)
428,529089,JULIE MITCHELL,In LA County,SAN DIMAS,91773,"408  S. DARWOOD AVE., SAN DIMAS, CA, 91773",34.1022102,-117.8367157,POINT (-117.8367157 34.1022102)
429,199351,WOULD WORKS,In LA County,LOS ANGELES,90015,"407  E PICO BLVD, LOS ANGELES, CA, 90015",34.034468,-118.256873,POINT (-118.256873 34.034468)
430,199351,WOULD WORKS,In LA County,LOS ANGELES,90015,"407  E PICO BLVD, LOS ANGELES, CA, 90015",34.034468,-118.256873,POINT (-118.256873 34.034468)
431,205533,WLG INC,In LA County,PALMDALE,93551,"40437  10TH ST W, PALMDALE, CA, 93551",34.617129,-118.1478462,POINT (-118.1478462 34.617129)
432,205551,LUV N' POPCORN LLC,In LA County,PALMDALE,93591,"40107  RONAR ST, PALMDALE, CA, 93591",,,POINT (NaN NaN)
433,193708,CERTIFIED SAFE DRIVER INC.,In LA County,WALNUT,91789,"4000  E VALLEY BLVD , WALNUT, CA, 91789",,,POINT (NaN NaN)
434,159340,"BUDLONG & ASSOCIATES, INC.",Outside of LA County,CAMARILLO,93010,"400  W VENTURA BLVD , CAMARILLO, CA, 93010",34.2159108,-119.0858912,POINT (-119.0858912 34.2159108)
435,167247,ARISE HOSPITALITY SOLUTIONS LLC,In LA County,PASADENA,91107,"40  NORTH ALTADENA DRIVE, PASADENA, CA, 91107",34.1466804,-118.0985573,POINT (-118.0985573 34.1466804)
436,167247,ARISE HOSPITALITY SOLUTIONS LLC,In LA County,PASADENA,91107,"40  NORTH ALTADENA DRIVE, PASADENA, CA, 91107",34.1466804,-118.0985573,POINT (-118.0985573 34.1466804)
437,187285,"EARTHCHEM INDUSTRIAL SUPPLY, LLC",Outside of LA County,HEMET,92543,"39789  VISTA RD, HEMET, CA, 92543",,,POINT (NaN NaN)
438,136905,SERVICON SYSTEMS INC,In LA County,CULVER CITY,90232,"3965  LANDMARK ST, CULVER CITY, CA, 90232",34.0266542,-118.3862847,POINT (-118.3862847 34.0266542)
439,136905,SERVICON SYSTEMS INC,In LA County,CULVER CITY,90232,"3965  LANDMARK ST, CULVER CITY, CA, 90232",34.0266542,-118.3862847,POINT (-118.3862847 34.0266542)
440,213734,CASKIE GOODS LLC,In LA County,WALNUT,91789,"3950  VALLEY BLVD , WALNUT, CA, 91789",34.0341586,-117.8249231,POINT (-117.8249231 34.0341586)
441,200663,S3DVBE,Outside of LA County,EL DORADO HLS,95762,"3941  PARK DR , EL DORADO HLS, CA, 95762",38.6552202,-121.0696722,POINT (-121.0696722 38.6552202)
442,169056,MICHEL A KOZAK,In LA County,STUDIO CITY,91604,"3940  LAUREL CANYON BLVD., STUDIO CITY, CA, 91604",34.1420713,-118.3945953,POINT (-118.3945953 34.1420713)
443,180133,P AND S SCAFFOLD SERVICES INC,In LA County,LONG BEACH,90807,"3939  ATLANTIC AVE, LONG BEACH, CA, 90807",33.8296828,-118.1850978,POINT (-118.1850978 33.8296828)
444,18841,"NATIONAL EMBLEM, INC.",In LA County,LONG BEACH,90810,"3925  E. VERNON ST., LONG BEACH, CA, 90810",33.8034885,-118.1905628,POINT (-118.1905628 33.8034885)
445,113464,PLUMBERS DEPOT INC,In LA County,HAWTHORNE,90250,"3921  W. 139TH ST., HAWTHORNE, CA, 90250",33.9056508,-118.342205,POINT (-118.342205 33.9056508)
446,186684,CICERO BROTHERS ENTERPRISES LLC,In LA County,WALNUT,91789,"3920  VALLEY BLVD , WALNUT, CA, 91789",34.0341403,-117.8249301,POINT (-117.8249301 34.0341403)
447,107027,CONSOLIDATED MECHANICAL AIR CONDITIONING & HEATING INC,In LA County,PASADENA,91107,"3848  E COLORADO BLVD , PASADENA, CA, 91107",34.1461785,-118.0867973,POINT (-118.0867973 34.1461785)
448,107027,CONSOLIDATED MECHANICAL AIR CONDITIONING & HEATING INC,In LA County,PASADENA,91107,"3848  E COLORADO BLVD, PASADENA, CA, 91107",34.1461785,-118.0867973,POINT (-118.0867973 34.1461785)
449,214114,LA PIPE & SUPPLY INC,In LA County,WALNUT,91789,"382  N LEMON AVE , WALNUT, CA, 91789",34.0208353,-117.866237,POINT (-117.866237 34.0208353)
450,100130,CALIFORNIA ARBOR CARE INC,In LA County,POMONA,91766,"3770  E. GRAND AVENUE, POMONA, CA, 91766",34.0485178,-117.7217425,POINT (-117.7217425 34.0485178)
451,160430,SISTAHFRIENDS,In LA County,LOS ANGELES,90008,"3756  SANTA ROSALIA DR , LOS ANGELES, CA, 90008",34.0088131,-118.3389508,POINT (-118.3389508 34.0088131)
452,163982,TURNING POINT ALCOHOL & DRUG EDUCATION PROGRAM INC,In LA County,LOS ANGELES,90008,"3756  SANTA ROSALIA DR , LOS ANGELES, CA, 90008",34.0088131,-118.3389508,POINT (-118.3389508 34.0088131)
453,160430,SISTAHFRIENDS,In LA County,LOS ANGELES,90008,"3756  SANTA ROSALIA DR, LOS ANGELES, CA, 90008",34.0088131,-118.3389508,POINT (-118.3389508 34.0088131)
454,142763,"HIGH DENSITY, INC.",In LA County,LONG BEACH,90814,"375  REDONDO AVE , LONG BEACH, CA, 90814",33.7708733,-118.1527202,POINT (-118.1527202 33.7708733)
455,117286,EPIDAURUS,In LA County,LOS ANGELES,90007,"3745  SOUTH GRAND AVENUE, LOS ANGELES, CA, 90007",34.0159793,-118.2789222,POINT (-118.2789222 34.0159793)
456,140533,RADIOWAVE MARKETING & PROMOTIONS,In LA County,LOS ANGELES,90066,"3740  MOORE STREET, LOS ANGELES, CA, 90066",34.0020223,-118.4416823,POINT (-118.4416823 34.0020223)
457,509772,INDUSTRIAL SPECIALTY PRODUCTS,In LA County,PICO RIVERA,90660,"3731 A SAN GABRIEL RIVER PKWY., PICO RIVERA, CA, 90660",34.0177975,-118.0542631,POINT (-118.0542631 34.0177975)
458,208813,JON A SCHULTZ,In LA County,LAKEWOOD,90712,"3730  INDUSTRY AVE, LAKEWOOD, CA, 90712",33.8250644,-118.1653324,POINT (-118.1653324 33.8250644)
459,501192,KOREATOWN YOUTH & COMMUNITY,In LA County,LOS ANGELES,90020,"3727  W 6TH ST , LOS ANGELES, CA, 90020",34.0639161,-118.3037415,POINT (-118.3037415 34.0639161)
460,199941,GUIDING PRINCIPLES TECHNOLOGY INC,In LA County,LONG BEACH,90807,"3711  LONG BEACH BLVD , LONG BEACH, CA, 90807",33.824327,-118.189445,POINT (-118.189445 33.824327)
461,513983,"E.W. MOON, INC.",In LA County,CULVER CITY,90232,"3710  SOUTH ROBERTSON BLVD, CULVER CITY, CA, 90232",,,POINT (NaN NaN)
462,201619,SOLA COMMUNITY PEACE CENTER,In LA County,LOS ANGELES,90007,"3651  S VERMONT AVE, LOS ANGELES, CA, 90007",34.0217927,-118.2916358,POINT (-118.2916358 34.0217927)
463,211478,KELLY POFAHL,In LA County,PALMDALE,93552,"36507  RODEO ST, PALMDALE, CA, 93552",34.5446263,-118.052815,POINT (-118.052815 34.5446263)
464,163451,CSDA DESIGN GROUP INC,Outside of LA County,SAN FRANCISCO,94104,"364  BUSH ST FL 2, SAN FRANCISCO, CA, 94104",,,POINT (NaN NaN)
465,63138,CARD INTEGRATORS,Outside of LA County,LOS ALAMITOS,90720,"3625  SERPENTINE DR, LOS ALAMITOS, CA, 90720",33.8075752,-118.0702073,POINT (-118.0702073 33.8075752)
466,175859,VET NATIONAL INC,Outside of LA County,SANTA BARBARA,93105,"3621  STATE ST, SANTA BARBARA, CA, 93105",34.4403283,-119.7406392,POINT (-119.7406392 34.4403283)
467,160284,PACIFIC ENGINEERS GROUP,In LA County,LOS ANGELES,90068,"3611  CAHUENGA BLVD W FL 1, LOS ANGELES, CA, 90068",,,POINT (NaN NaN)
468,174723,US ROCK CORPORATION,In LA County,INGLEWOOD,90305,"3609  W. CHAPMAN LANE, INGLEWOOD, CA, 90305",33.9557226,-118.3329677,POINT (-118.3329677 33.9557226)
469,131235,A-PLUS SUPERIOR SANITATION,In LA County,ACTON,93510,"3601  SMITH AVE, ACTON, CA, 93510",34.4682,-118.195181,POINT (-118.195181 34.4682)
470,120288,"SIMPSON & SIMPSON MANAGEMENT CONSULTING, INC",In LA County,LOS ANGELES,90010,"3600  WILSHIRE BLVD , LOS ANGELES, CA, 90010",34.0622784,-118.2988969,POINT (-118.2988969 34.0622784)
471,190895,"EFFICIENT AIRE MECHANICAL, INC",In LA County,LOS ANGELES,90012,"360  E 2ND ST, LOS ANGELES, CA, 90012",34.0479225,-118.2400661,POINT (-118.2400661 34.0479225)
472,190895,"EFFICIENT AIRE MECHANICAL, INC",In LA County,LOS ANGELES,90012,"360  E 2ND ST, LOS ANGELES, CA, 90012",34.0479225,-118.2400661,POINT (-118.2400661 34.0479225)
473,506494,INSTITUTE FOR MULTICULTURAL,In LA County,LOS ANGELES,90010,"3580  WILSHIRE BLVD., , LOS ANGELES, CA, 90010",34.061646,-118.3029771,POINT (-118.3029771 34.061646)
474,137040,FAITH AND COMMUNITY EMPOWERMENT,In LA County,LOS ANGELES,90010,"3550  WILSHIRE BLVD , LOS ANGELES, CA, 90010",34.061646,-118.302929,POINT (-118.302929 34.061646)
475,137040,FAITH AND COMMUNITY EMPOWERMENT,In LA County,LOS ANGELES,90010,"3550  WILSHIRE BLVD, LOS ANGELES, CA, 90010",34.061646,-118.302929,POINT (-118.302929 34.061646)
476,123400,"POWER-TECH ENGINEERS, INC.",In LA County,WALNUT,91789,"355  S. LEMON AVE., , WALNUT, CA, 91789",34.0208353,-117.866237,POINT (-117.866237 34.0208353)
477,172309,"LOTUS USA, INC.",In LA County,LOS ANGELES,90071,"355  S GRAND AVE, LOS ANGELES, CA, 90071",34.0522001,-118.2527889,POINT (-118.2527889 34.0522001)
478,174665,PARTY PLANET SUPPLIES INC,In LA County,LOS ANGELES,90063,"3545  E 1ST ST, LOS ANGELES, CA, 90063",34.0360926,-118.1907193,POINT (-118.1907193 34.0360926)
479,511690,STEMAR EQUIPMENT SUPPLY,In LA County,LOS ANGELES,90013,"353  S CENTRAL AVE, LOS ANGELES, CA, 90013",34.0452365,-118.2397129,POINT (-118.2397129 34.0452365)
480,186797,SQUARE SIGNS LLC,In LA County,BURBANK,91505,"3520  W VALHALLA DR, BURBANK, CA, 91505",34.1897349,-118.3505548,POINT (-118.3505548 34.1897349)
481,112305,ASBESTOS INSTANT RESPONSE INC.,In LA County,LOS ANGELES,90018,"3517  W. WASHINGTON BLVD., LOS ANGELES, CA, 90018",34.0399775,-118.3227456,POINT (-118.3227456 34.0399775)
482,152423,TAYLOR FLAG & BANNER CO,In LA County,LONG BEACH,90808,"3508  KNOXVILLE AVE., LONG BEACH, CA, 90808",33.8205662,-118.1042684,POINT (-118.1042684 33.8205662)
483,149245,EXMED INC.,In LA County,BURBANK,91505,"3500  W OLIVE AVE, BURBANK, CA, 91505",34.1525465,-118.3379417,POINT (-118.3379417 34.1525465)
484,107413,JCE STRUCTURAL ENGINEERING GROUP INC,In LA County,PASADENA,91103,"35  HUGUS ALLEY , PASADENA, CA, 91103",34.146285,-118.1513371,POINT (-118.1513371 34.146285)
485,172012,EVERPARK,In LA County,LOS ANGELES,90010,"3470  WILSHIRE BLVE , LOS ANGELES, CA, 90010",,,POINT (NaN NaN)
486,108271,"THE KULIT GROUP, INC.",In LA County,INGLEWOOD,90301,"347  W ARBOR VITAE ST, INGLEWOOD, CA, 90301",33.9527217,-118.3474298,POINT (-118.3474298 33.9527217)
487,167777,GUADALUPE RODRIGUEZ,In LA County,LOS ANGELES,90023,"3468  GARNET STREET, LOS ANGELES, CA, 90023",34.0223251,-118.2022753,POINT (-118.2022753 34.0223251)
488,151427,KAMBRIAN CORPORATION,In LA County,LA PUENTE,91744,"346  N AZUSA AVE, LA PUENTE, CA, 91744",34.0131712,-117.9229071,POINT (-117.9229071 34.0131712)
489,149561,TSG ENTERPRISES INC,In LA County,PASADENA,91107,"3452  E FOOTHILL BLVD, PASADENA, CA, 91107",34.1500445,-118.0787029,POINT (-118.0787029 34.1500445)
490,142649,ABCO DEVELOPMENT CORPORATION,In LA County,LOS ANGELES,90010,"3435  WILSHIRE BLVD , LOS ANGELES, CA, 90010",34.0618333,-118.2989835,POINT (-118.2989835 34.0618333)
491,59054,"L TECH NETWORK SERVICES, INC.",In LA County,COMMERCE,90040,"3424 A GARFIELD AVE, COMMERCE, CA, 90040",33.9808592,-118.1424964,POINT (-118.1424964 33.9808592)
492,160503,HORIZON MECHANICAL CONTRACTORS OF CALIFORNIA,In LA County,ACTON,93510,"34234  MOUNTAIN PL, ACTON, CA, 93510",,,POINT (NaN NaN)
493,104896,GOODWILL INDUSTRIES OF SOUTHERN CALIFORNIA,In LA County,LOS ANGELES,90031,"342  SAN FERNANDO RD, LOS ANGELES, CA, 90031",34.1207768,-118.2517791,POINT (-118.2517791 34.1207768)
494,104896,GOODWILL INDUSTRIES OF SOUTHERN CALIFORNIA,In LA County,LOS ANGELES,90031,"342  N SAN FERNANDO RD, LOS ANGELES, CA, 90031",34.0774377,-118.2230381,POINT (-118.2230381 34.0774377)
495,104896,GOODWILL INDUSTRIES OF SOUTHERN CALIFORNIA,In LA County,LOS ANGELES,91307,"342  N SAN FERNANDO RD, LOS ANGELES, CA, 91307",34.0774377,-118.2230381,POINT (-118.2230381 34.0774377)
496,188885,CAB COMMUNICATIONS,In LA County,MONTEBELLO,90640,"3417  W BEVERLY BLVD, MONTEBELLO, CA, 90640",34.024267,-118.1404256,POINT (-118.1404256 34.024267)
497,209075,ERSEVON LLC,In LA County,LOS ANGELES,90034,"3415  S SEPULVEDA BLVD, LOS ANGELES, CA, 90034",34.0208782,-118.4233876,POINT (-118.4233876 34.0208782)
498,209075,ERSEVON LLC,In LA County,LOS ANGELES,90034,"3415  S SEPULVEDA BLVD, LOS ANGELES, CA, 90034",34.0208782,-118.4233876,POINT (-118.4233876 34.0208782)
499,192865,YOUTH N MOTION ACADEMY INCORPORATED,In LA County,LOS ANGELES,90008,"3403  W 43RD ST, LOS ANGELES, CA, 90008",34.0060672,-118.3316322,POINT (-118.3316322 34.0060672)
500,106358,AHR SIGNS INC,In LA County,LOS ANGELES,90065,"3400  N SAN FERNANDO RD, LOS ANGELES, CA, 90065",34.118326,-118.2494047,POINT (-118.2494047 34.118326)
501,210885,360MEDIA83 L.L.C,Outside of LA County,SACRAMENTO,95825,"3400  COTTAGE WAY , SACRAMENTO, CA, 95825",38.603284,-121.383857,POINT (-121.383857 38.603284)
502,520245,P.A.T.H.,In LA County,LOS ANGELES,90004,"340  N MADISON AVE., LOS ANGELES, CA, 90004",34.0769268,-118.2890577,POINT (-118.2890577 34.0769268)
503,171989,"AF&S PRODUCTS & SERVICES, INC.",Outside of LA County,PALM DESERT,92211,"34  MARRICOPA CT., PALM DESERT, CA, 92211",,,POINT (NaN NaN)
504,189471,"KISBA CONTRACTING, INC.",Outside of LA County,ONTARIO,91764,"337  N VINEYARD AVE, ONTARIO, CA, 91764",34.0668606,-117.6115025,POINT (-117.6115025 34.0668606)
505,189085,HIGH PERFORMANCE MOBILE GAMING LLC,In LA County,LA VERNE,91750,"3355  N WHITE AVE, LA VERNE, CA, 91750",34.0900483,-117.7644595,POINT (-117.7644595 34.0900483)
506,512266,R.P. LAURAIN & ASSOCIATES,In LA County,LONG BEACH,90807,"3353  LINDEN AVENUE, , LONG BEACH, CA, 90807",33.8180465,-118.1861994,POINT (-118.1861994 33.8180465)
507,106326,MANAGED CAREER SOLUTIONS SOCIAL PURPOSE CORPORATION,In LA County,LOS ANGELES,90010,"3333  WILSHIRE BLVD., LOS ANGELES, CA, 90010",34.0618521,-118.2957208,POINT (-118.2957208 34.0618521)
508,178179,"LAUSD STUDENT HEALTH SERVICES SUPPORT FUND, INC.",In LA County,LOS ANGELES,90017,"333  S BEAUDRY AVE FL 29-205, LOS ANGELES, CA, 90017",,,POINT (NaN NaN)
509,208137,DYSON & WOMACK,In LA County,LOS ANGELES,90065,"3327  VERDUGO RD, LOS ANGELES, CA, 90065",34.1122578,-118.2359358,POINT (-118.2359358 34.1122578)
510,156870,LOS ANGELES METROPOLITAN CHURCHES,In LA County,LOS ANGELES,90011,"3320  S CENTRAL AVE, LOS ANGELES, CA, 90011",34.0134207,-118.2564117,POINT (-118.2564117 34.0134207)
511,123181,H&H JOBBING INC,In LA County,SANTA MONICA,90405,"3316  PICO BLVD, SANTA MONICA, CA, 90405",34.0270289,-118.4547225,POINT (-118.4547225 34.0270289)
512,44952,ENVIRONMENTAL ENGINEERING,In LA County,GLENDALE,91208,"3312  BARNES CIRCLE, GLENDALE, CA, 91208",34.1970601,-118.2414866,POINT (-118.2414866 34.1970601)
513,170394,MATTHEW GEIGER,In LA County,MONROVIA,91016,"331  W CHESTNUT AVE, MONROVIA, CA, 91016",34.142631,-118.0059739,POINT (-118.0059739 34.142631)
514,185599,NTS COMMUNICATIONS,In LA County,LOS ANGELES,90007,"3301  S BROADWAY, LOS ANGELES, CA, 90007",34.019803,-118.273454,POINT (-118.273454 34.019803)
515,105311,ENVIRONMENTAL TREATMENT & TECHNOLOGY INC,In LA County,SIGNAL HILL,90755,"3275  WALNUT AVENUE, SIGNAL HILL, CA, 90755",33.8165965,-118.1720771,POINT (-118.1720771 33.8165965)
516,179485,DISTINCTIVETECH LLC,In LA County,ARCADIA,91006,"324  E FOOTHILL BLVD , ARCADIA, CA, 91006",34.151014,-118.0219,POINT (-118.0219 34.151014)
517,206750,LUZ M CHACON,In LA County,LOS ANGELES,90032,"3229  STOCKBRIDGE AVE, LOS ANGELES, CA, 90032",34.082713,-118.1634582,POINT (-118.1634582 34.082713)
518,160493,BUTERA & JOCHEN,In LA County,CASTAIC,91384,"32264  CASTAIC ROAD, CASTAIC, CA, 91384",34.5041408,-118.6286487,POINT (-118.6286487 34.5041408)
519,517818,"ILLUMINOUS ENTERPRISES, INC.",In LA County,HACIENDA HEIGHTS,91745,"3225  BELLE RIVER DR., HACIENDA HEIGHTS, CA, 91745",33.9854006,-117.9931081,POINT (-117.9931081 33.9854006)
520,141199,MARIANNE NEMES,In LA County,LOS ANGELES,90034,"3218  CHEVIOT VISTA PL, LOS ANGELES, CA, 90034",34.0305333,-118.4146367,POINT (-118.4146367 34.0305333)
521,134674,CLEAN ENVIRONMENTAL INC,In LA County,LOS ANGELES,90011,"321  E 47TH PLACE, LOS ANGELES, CA, 90011",34.00026,-118.2710593,POINT (-118.2710593 34.00026)
522,168442,HOLOS INC,In LA County,N HOLLYWOOD,91606,"321  AVENIDA LLC, N HOLLYWOOD, CA, 91606",,,POINT (NaN NaN)
523,134640,"BORETTI, INC.",Outside of LA County,VISALIA,93291,"3206  N DINUBA BLVD, VISALIA, CA, 93291",36.3579898,-119.2965079,POINT (-119.2965079 36.3579898)
524,506525,DAVIS BLUE PRINT CO INC,In LA County,LOS ANGELES,90031,"3205  N. MAIN ST., LOS ANGELES, CA, 90031",34.0661876,-118.2074399,POINT (-118.2074399 34.0661876)
525,128960,KT INDUSTRIES INC.,In LA County,LOS ANGELES,90065,"3203  FLETCHER DRIVE, LOS ANGELES, CA, 90065",34.1165783,-118.2432225,POINT (-118.2432225 34.1165783)
526,170378,NATIONAL EAGLE SECURITY INC.,In LA County,LOS ANGELES,90010,"3200  WILSHIRE BLVD , LOS ANGELES, CA, 90010",34.06171,-118.291786,POINT (-118.291786 34.06171)
527,156854,HILLTOP ENGINEERING AND CONSTRUCTION CORP,In LA County,PLAYA DEL REY,90293,"319  REES ST, PLAYA DEL REY, CA, 90293",33.9584992,-118.4458109,POINT (-118.4458109 33.9584992)
528,151748,"BARBARA L. HALL, PE, INC.",In LA County,MONROVIA,91016,"318  WEST EVERGREEN AVENUE, MONROVIA, CA, 91016",34.1348428,-118.0056465,POINT (-118.0056465 34.1348428)
529,500532,LANCASTER PLUMBING SUPPLIES INC,In LA County,LANCASTER,93534,"317  W. AVENUE I, LANCASTER, CA, 93534",34.7040524,-118.1332937,POINT (-118.1332937 34.7040524)
530,194572,REX WILDE,In LA County,LOS ANGELES,90042,"317  1/2 S AVENUE 55, LOS ANGELES, CA, 90042",34.1057135,-118.1945505,POINT (-118.1945505 34.1057135)
531,178770,CATALYST ENVIRONMENTAL SOLUTIONS CORPORATION,In LA County,SANTA MONICA,90403,"315  MONTANA AVE , SANTA MONICA, CA, 90403",34.024291,-118.505045,POINT (-118.505045 34.024291)
532,150188,AMERICAN TRANSPORTATION SYSTEMS,In LA County,LONG BEACH,90805,"3133  E SOUTH ST, LONG BEACH, CA, 90805",33.8602777,-118.1552546,POINT (-118.1552546 33.8602777)
533,121633,"A-TECH SYSTEMS, INC.",In LA County,HACIENDA HEIGHTS,91745,"3129  S. HACIENDA BLVD, , HACIENDA HEIGHTS, CA, 91745",33.9805466,-117.972589,POINT (-117.972589 33.9805466)
534,172080,ARC CONSTRUCTION INC,In LA County,LA CRESCENTA,91214,"3123  HARMONY PLACE, LA CRESCENTA, CA, 91214",34.2339463,-118.2328632,POINT (-118.2328632 34.2339463)
535,133264,"C. R. & A CUSTOM APPAREL, INC.",In LA County,LOS ANGELES,90015,"312  W. PICO BLVD., LOS ANGELES, CA, 90015",34.038374,-118.2635789,POINT (-118.2635789 34.038374)
536,199062,GLADEO INC,In LA County,SANTA MONICA,90405,"3110  MAIN ST, SANTA MONICA, CA, 90405",33.9980831,-118.4795122,POINT (-118.4795122 33.9980831)
537,210574,SEASIDE COMPANIES LLC,Out of State,MILLSBORO,19966,"30951  HICKORY HILL RD, MILLSBORO, CA, 19966",,,POINT (NaN NaN)
538,517143,HARBOR AREA GANG ALTERNATIVES PROGRAM,In LA County,WILMINGTON,90744,"309  W. OPP ST., WILMINGTON, CA, 90744",33.7828284,-118.2652831,POINT (-118.2652831 33.7828284)
539,204198,TAYLOR PRINTING COMPANY LLC,In LA County,BURBANK,91505,"3088  N CLYBOURN AVE, BURBANK, CA, 91505",,,POINT (NaN NaN)
540,175228,"BUSINESS U, INC.",Outside of LA County,RMV,92694,"30767  GATEWAY PL, RMV, CA, 92694",,,POINT (NaN NaN)
541,187696,"HALLSTA 360, INC.",In LA County,MONROVIA,91016,"306  S MYRTLE AVE FL 2, MONROVIA, CA, 91016",,,POINT (NaN NaN)
542,187696,"HALLSTA 360, INC.",In LA County,MONROVIA,91016,"306  S MYRTLE AVE, MONROVIA, CA, 91016",34.1489853,-118.000939,POINT (-118.000939 34.1489853)
543,109859,ADVANCED INFRASTRUCTURE TECHNOLOGIES LLC,In LA County,TORRANCE,90505,"3055  KASHIWA STREET, TORRANCE, CA, 90505",33.8151526,-118.3389016,POINT (-118.3389016 33.8151526)
544,175412,ROBERT BURGESS,Outside of LA County,SEASIDE,93955,"305  HATTEN RD, SEASIDE, CA, 93955",36.629178,-121.812635,POINT (-121.812635 36.629178)
545,505843,DAVE WILLIAMS,In LA County,EL MONTE,91731,"3047  TYLER AVE., EL MONTE, CA, 91731",34.0640288,-118.035911,POINT (-118.035911 34.0640288)
546,142169,"VISION ELECTRIC WHOLESALE, INC",In LA County,ALHAMBRA,91801,"3044  W. MAIN ST., ALHAMBRA, CA, 91801",34.094951,-118.1568178,POINT (-118.1568178 34.094951)
547,173097,ROBIN O'CONNELL,In LA County,SANTA MONICA,90405,"3044  PAULA DRIVE, SANTA MONICA, CA, 90405",34.0062527,-118.4674569,POINT (-118.4674569 34.0062527)
548,125418,GEORGE HILLS COMPANY,Outside of LA County,RANCHO CORDOVA,95670,"3043  GOLD CANAL DR , RANCHO CORDOVA, CA, 95670",38.5930899,-121.2684583,POINT (-121.2684583 38.5930899)
549,169970,TONY M RUFFOLO,In LA County,PASADENA,91107,"3042  E. CALIFORNIA BLVD., PASADENA, CA, 91107",34.1357255,-118.0874929,POINT (-118.0874929 34.1357255)
550,187276,ALICIA DIAZ,In LA County,HUNTINGTON PARK,90255,"3037  CUDAHY STREET, HUNTINGTON PARK, CA, 90255",33.9635292,-118.2029378,POINT (-118.2029378 33.9635292)
551,818,CALOX INC,In LA County,LOS ANGELES,90065,"3034  FIERRO ST., LOS ANGELES, CA, 90065",34.1204415,-118.2506323,POINT (-118.2506323 34.1204415)
552,521546,NEW ECONOMICS FOR WOMEN,In LA County,LOS ANGELES,90017,"303  LOMA DR, LOS ANGELES, CA, 90017",34.0598191,-118.2657455,POINT (-118.2657455 34.0598191)
553,118972,INTEGRATED ENGINEERING MANAGEMENT,In LA County,SAN PEDRO,90731,"302  W 5TH ST, SAN PEDRO, CA, 90731",33.7398995,-118.2840471,POINT (-118.2840471 33.7398995)
554,145333,"STEEL EXCHANGE, INCORPORATED",In LA County,SAN PEDRO,90731,"302  W 5TH ST, SAN PEDRO, CA, 90731",33.7398995,-118.2840471,POINT (-118.2840471 33.7398995)
555,147015,TRILLAMED LLC,Out of State,BINGHAM FARMS,48025,"30100  TELEGRAPH RD , BINGHAM FARMS, CA, 48025",,,POINT (NaN NaN)
556,171911,"ON TARGET ELECTRIC, INC.",Outside of LA County,TUSTIN,92780,"3002  DOW AVE BLDG 100 , TUSTIN, CA, 92780",,,POINT (NaN NaN)
557,171911,"ON TARGET ELECTRIC, INC.",Outside of LA County,TUSTIN,92780,"3002  DOW AVE, TUSTIN, CA, 92780",33.70864,-117.8045601,POINT (-117.8045601 33.70864)
558,506348,TRIANGLE TRUCK PARTS INC.,In LA County,AZUSA,91702,"300  S. IRWINDALE AVE., AZUSA, CA, 91702",34.117864,-117.9337,POINT (-117.9337 34.117864)
559,100595,"GATEWAY SCIENCE & ENGINEERING,INC.",In LA County,PASADENA,91101,"300  N LAKE AVE, PASADENA, CA, 91101",34.150623,-118.132304,POINT (-118.132304 34.150623)
560,208162,"SCALECAPACITY, INC.",In LA County,BURBANK,91502,"300  N 3RD ST , BURBANK, CA, 91502",34.18365,-118.309522,POINT (-118.309522 34.18365)
561,210321,GOLDEN PIG COLLECTION LLC,Outside of LA County,OXNARD,93036,"300  E ESPLANADE DR , OXNARD, CA, 93036",34.2283358,-119.1744441,POINT (-119.1744441 34.2283358)
562,118419,"HULS ENVIRONMENTAL MANAGEMENT,LLC",Outside of LA County,LAGUNA NIGUEL,92607,"29911  NIGUEL RD, LAGUNA NIGUEL, CA, 92607",33.5281593,-117.7150277,POINT (-117.7150277 33.5281593)
563,155018,"TOTAL RECALL CAPTIONING, INC.",In LA County,AGOURA HILLS,91301,"29629  CANWOOD ST., AGOURA HILLS, CA, 91301",34.1480014,-118.7720669,POINT (-118.7720669 34.1480014)
564,59116,ORION ENVIRONMENTAL INC.,In LA County,LONG BEACH,90806,"2955  REDONDO AVE, LONG BEACH, CA, 90806",33.8093327,-118.1514339,POINT (-118.1514339 33.8093327)
565,143025,"TALLAL, INC.",In LA County,MALIBU,90265,"29500  HEATHERCLIFF RD, MALIBU, CA, 90265",34.015729,-118.814178,POINT (-118.814178 34.015729)
566,181094,"GRAFFITI SHIELD, INC.",Outside of LA County,ANAHEIM,92806,"2940  E LA PALMA AVE , ANAHEIM, CA, 92806",33.8493798,-117.8637928,POINT (-117.8637928 33.8493798)
567,202258,PROED CONSULTING AND STAFFING INC,In LA County,WEST COVINA,91791,"2934  E GARVEY AVE S, WEST COVINA, CA, 91791",34.0713063,-117.8828192,POINT (-117.8828192 34.0713063)
568,152079,FACTORY DIRECT DISTRIBUTION CORP,In LA County,COMMERCE,90040,"2930  SUPPLY AVE, COMMERCE, CA, 90040",33.9883378,-118.1280068,POINT (-118.1280068 33.9883378)
569,178720,"VERMONT OUTLET, INC.",In LA County,LOS ANGELES,90007,"2929  S. VERMONT AVENUE, LOS ANGELES, CA, 90007",34.0279693,-118.2917269,POINT (-118.2917269 34.0279693)
570,44187,ALHAMBRA GLASS CO INC,In LA County,ALHAMBRA,91803,"2904  W. VALLEY BLVD., ALHAMBRA, CA, 91803",34.0764859,-118.1562469,POINT (-118.1562469 34.0764859)
571,170427,ELEVATING SALES CORP.,Outside of LA County,BREA,92821,"2903  SATURN ST , BREA, CA, 92821",33.9086787,-117.8585463,POINT (-117.8585463 33.9086787)
572,170427,ELEVATING SALES CORP.,Outside of LA County,BREA,92821,"2903  SATURN ST , BREA, CA, 92821",33.9086787,-117.8585463,POINT (-117.8585463 33.9086787)
573,152163,"LIVEVIEWGPS, INC.",In LA County,VALENCIA,91355,"29021  AVE SHERMAN , VALENCIA, CA, 91355",,,POINT (NaN NaN)
574,519912,FSY ARCHITECTS INC.,In LA County,LOS ANGELES,90039,"2902  KNOX AVE., 2ND , LOS ANGELES, CA, 90039",,,POINT (NaN NaN)
575,30742,PARAMOUNT MATTRESS INC,In LA County,LOS ANGELES,90023,"2900  E. OLYMPIC BLVD., LOS ANGELES, CA, 90023",34.02233,-118.215537,POINT (-118.215537 34.02233)
576,201894,RESMED 1 LLC (CA),Outside of LA County,MENIFEE,92584,"28807  ROSEISLE CT, MENIFEE, CA, 92584",,,POINT (NaN NaN)
577,145696,"AEGIS HC, LLC",Outside of LA County,LAGUNA NIGUEL,92677,"28511  SILVERTON DR, LAGUNA NIGUEL, CA, 92677",33.5489428,-117.6856735,POINT (-117.6856735 33.5489428)
578,142173,EFS WEST,In LA County,VALENCIA,91355,"28472  CONSTELLATION RD, VALENCIA, CA, 91355",,,POINT (NaN NaN)
579,142368,AMMMM INC,In LA County,RANCHO PALOS VERDES,90275,"28364  SOUTH WESTERN AVE , RANCHO PALOS VERDES, CA, 90275",33.7592841,-118.3126365,POINT (-118.3126365 33.7592841)
580,155039,"ACCESS PACIFIC, INC.",In LA County,PASADENA,91107,"2835  SIERRA GRANDE ST, PASADENA, CA, 91107",34.1487884,-118.0917747,POINT (-118.0917747 34.1487884)
581,189440,FIRE STARTER STUDIOS,In LA County,SANTA CLARITA,91355,"28348  CONSTELLATION RD, SANTA CLARITA, CA, 91355",34.4520293,-118.5766424,POINT (-118.5766424 34.4520293)
582,171038,"INTELLIGENT FIRE SYSTEMS & SOLUTIONS, INC.",In LA County,VALENCIA,91355,"28338  CONSTELLATION RD, VALENCIA, CA, 91355",,,POINT (NaN NaN)
583,171038,"INTELLIGENT FIRE SYSTEMS & SOLUTIONS, INC.",In LA County,VALENCIA,91355,"28338  CONSTELLATION RD, VALENCIA, CA, 91355",,,POINT (NaN NaN)
584,122107,SAFE ENVIRONMENT ENGINEERING,In LA County,VALENCIA,91355,"28318  CONSTELLATION RD, VALENCIA, CA, 91355",,,POINT (NaN NaN)
585,512124,LOS ANGELES CONSERVATION CORPS,In LA County,LOS ANGELES,90007,"2824  S. MAIN ST., LOS ANGELES, CA, 90007",34.0228616,-118.2698258,POINT (-118.2698258 34.0228616)
586,170932,SLB PRINTING INC,In LA County,LOS ANGELES,90034,"2818  S ROBERTSON BVD, LOS ANGELES, CA, 90034",34.0361893,-118.3888592,POINT (-118.3888592 34.0361893)
587,164285,KACEY ROUNTREE,In LA County,GLENDALE,91208,"2812  HERMOSITA DRIVE, GLENDALE, CA, 91208",34.187073,-118.231839,POINT (-118.231839 34.187073)
588,522450,TEAGUE CUSTOM MARINE,In LA County,VALENCIA,91355,"28115  AVENUE STANFORD, VALENCIA, CA, 91355",,,POINT (NaN NaN)
589,205443,AMY TRINH,In LA County,WALNUT,91788,"280  S LEMON AVE , WALNUT, CA, 91788",34.0208353,-117.866237,POINT (-117.866237 34.0208353)
590,28700,"POWERLAND EQUIPMENT, INC.",Outside of LA County,VALLEY CENTER,92082,"27943  VALLEY CENTER RD., VALLEY CENTER, CA, 92082",33.2180496,-117.0334209,POINT (-117.0334209 33.2180496)
591,181979,CROWN TROPHY OF SANTA CLARITA,In LA County,VALENCIA,91355,"27811  AVENUE HOPKINS , VALENCIA, CA, 91355",,,POINT (NaN NaN)
592,210925,"SENSE TECHNOLOGY SOLUTIONS, LLC.",In LA County,SANTA CLARITA,91350,"27648  SKYLARK LN, SANTA CLARITA, CA, 91350",34.4375099,-118.5003217,POINT (-118.5003217 34.4375099)
593,212279,"WADECO BUSINESS CENTER, LLC",In LA County,CASTAIC,91384,"27305  LIVE OAK RD, CASTAIC, CA, 91384",34.4534207,-118.6165189,POINT (-118.6165189 34.4534207)
594,512997,SEPCO EARTHSCAPE INC,In LA County,SANTA MONICA,90403,"2730  WILSHIRE BLVD , SANTA MONICA, CA, 90403",34.0299763,-118.4849302,POINT (-118.4849302 34.0299763)
595,170466,HADI  PISHDADIAN,In LA County,ALHAMBRA,91803,"2727  WEST VALLEY BLVD, ALHAMBRA, CA, 91803",34.076895,-118.1531075,POINT (-118.1531075 34.076895)
596,185029,ARTS FOR HEALING AND JUSTICE NETWORK,In LA County,LONG BEACH,90804,"2727  E ANAHEIM ST, LONG BEACH, CA, 90804",33.7826808,-118.1596744,POINT (-118.1596744 33.7826808)
597,517389,SANTA CLARITA VALLEY COMMITTEE ON AGING CORP.,In LA County,SANTA CLARITA,91350,"27180  GOLDEN VALLEY RD, SANTA CLARITA, CA, 91350",34.4302853,-118.4999213,POINT (-118.4999213 34.4302853)
598,51881,FAR EAST LANDSCAPE & MAINTENANCE INC,In LA County,VALENCIA,91354,"27118  COLEBROOK PL, VALENCIA, CA, 91354",34.4340672,-118.5447409,POINT (-118.5447409 34.4340672)
599,187313,IGNITED LLC,In LA County,MANHATTAN BCH,90266,"2711  N SEPULVEDA BLVD , MANHATTAN BCH, CA, 90266",33.8962504,-118.3963763,POINT (-118.3963763 33.8962504)
600,177249,BOYLE HEIGHTS ARTS CONSERVATORY,In LA County,LOS ANGELES,90033,"2708  E CESAR E CHAVEZ AVE , LOS ANGELES, CA, 90033",34.044992,-118.203885,POINT (-118.203885 34.044992)
601,211911,EDUARDO ESCUTIA,In LA County,LA VERNE,91750,"2702  HANAWALT ST, LA VERNE, CA, 91750",34.1042779,-117.7575674,POINT (-117.7575674 34.1042779)
602,34147,PLUMBING & INDUSTRIAL SUPPLY,In LA County,VERNON,90058,"2700  S SANTE FE AVE., VERNON, CA, 90058",,,POINT (NaN NaN)
603,62973,ELECTRIC SERVICE & SUPPLY CO OF PASADENA,In LA County,PASADENA,91107,"2668  E FOOTHILL BLVD, PASADENA, CA, 91107",34.1497909,-118.0952927,POINT (-118.0952927 34.1497909)
604,100189,AURORA INDUSTRIAL HYGIENE INC,In LA County,SIGNAL HILL,90755,"2667  E 28TH ST , SIGNAL HILL, CA, 90755",33.808104,-118.1624116,POINT (-118.1624116 33.808104)
605,179953,AP SAFETY,In LA County,SIGNAL HILL,90755,"2667  E 28TH ST , SIGNAL HILL, CA, 90755",33.808104,-118.1624116,POINT (-118.1624116 33.808104)
606,100189,AURORA INDUSTRIAL HYGIENE INC,In LA County,SIGNAL HILL,90755,"2667  E 28TH ST, SIGNAL HILL, CA, 90755",33.808104,-118.1624116,POINT (-118.1624116 33.808104)
607,179953,AP SAFETY,In LA County,SIGNAL HILL,90755,"2667  E 28TH ST, SIGNAL HILL, CA, 90755",33.808104,-118.1624116,POINT (-118.1624116 33.808104)
608,56710,ARROW RESTAURANT EQUIPMENT & SUPPLIES INC,In LA County,VALENCIA,91381,"26512  OAK TERRACE PL, VALENCIA, CA, 91381",34.4013542,-118.5868328,POINT (-118.5868328 34.4013542)
609,506099,KALBAN INC,In LA County,SANTA CLARITA,91350,"26450  RUETHER AVE, SANTA CLARITA, CA, 91350",34.4147335,-118.4993235,POINT (-118.4993235 34.4147335)
610,111456,LINCOLN TRAINING CENTER,In LA County,SOUTH EL MONTE,91733,"2643  LOMA AVE., SOUTH EL MONTE, CA, 91733",34.0596523,-118.0688727,POINT (-118.0688727 34.0596523)
611,505696,PROJECT IMPACT,In LA County,LYNWOOD,90262,"2640  INDUSTRY WAY., LYNWOOD, CA, 90262",33.9234349,-118.2264356,POINT (-118.2264356 33.9234349)
612,187354,"VETUP, LLC",In LA County,SANTA CLARITA,91321,"26375  PIAZZA DI SARRO, SANTA CLARITA, CA, 91321",34.3996273,-118.4845829,POINT (-118.4845829 34.3996273)
613,185384,RC LAO AIR CONDITIONING,In LA County,ALHAMBRA,91803,"2620  ORANGE GROVE AVE, ALHAMBRA, CA, 91803",34.0641525,-118.1554581,POINT (-118.1554581 34.0641525)
614,109531,"MULTI W SYSTEMS, INC.",In LA County,EL MONTE,91733,"2615  STROZIER AVE., EL MONTE, CA, 91733",34.0581572,-118.0499889,POINT (-118.0499889 34.0581572)
615,173783,WESTERN INDOOR ENVIRONMENTAL SERVICES,In LA County,MONTEBELLO,90640,"2609  W BEVERLY BLVD, MONTEBELLO, CA, 90640",34.0208759,-118.1312949,POINT (-118.1312949 34.0208759)
616,187026,THE SAUCE CREATIVE SERVICES CORP,In LA County,MONROVIA,91016,"2600  S CALIFORNIA AVE , MONROVIA, CA, 91016",34.117271,-117.999621,POINT (-117.999621 34.117271)
617,164470,PMCS GROUP INC.,In LA County,LONG BEACH,90804,"2600  E PACIFIC COAST HWY, LONG BEACH, CA, 90804",33.7868481,-118.1381959,POINT (-118.1381959 33.7868481)
618,157534,RELEVANT-IT,In LA County,STEVENSON RNH,91381,"25876  THE OLD RD PMB 302, STEVENSON RNH, CA, 91381",,,POINT (NaN NaN)
619,173212,"BAE URBAN ECONOMICS, INC.",Outside of LA County,BERKELEY,94710,"2560  9TH ST, BERKELEY, CA, 94710",37.8591636,-122.2917396,POINT (-122.2917396 37.8591636)
620,173212,"BAE URBAN ECONOMICS, INC.",Outside of LA County,BERKELEY,94710,"2560  9TH ST, BERKELEY, CA, 94710",37.8591636,-122.2917396,POINT (-122.2917396 37.8591636)
621,213451,FOREVERLAMP INC.,In LA County,TORRANCE,90505,"2550  W 237TH ST, TORRANCE, CA, 90505",33.8114667,-118.3319053,POINT (-118.3319053 33.8114667)
622,183499,D & S SECURITY INC,In LA County,MONTEREY PARK,91754,"2550  CORPORATE PL , MONTEREY PARK, CA, 91754",34.046482,-118.1647523,POINT (-118.1647523 34.046482)
623,157552,"ONYX ARCHITECTS, INC.",In LA County,PASADENA,91107,"2540  E COLORADO BLVD, PASADENA, CA, 91107",34.1460276,-118.0979978,POINT (-118.0979978 34.1460276)
624,207219,WILBERT KIGULU,In LA County,PASADENA,91101,"254  N LAKE AVE , PASADENA, CA, 91101",34.150077,-118.1322974,POINT (-118.1322974 34.150077)
625,123894,"SAFETYVIBE, INC.",In LA County,MONTEREY PARK,91754,"2530  CORPORATE PL, MONTEREY PARK, CA, 91754",34.0464863,-118.1645398,POINT (-118.1645398 34.0464863)
626,187035,CG RESOURCE MANAGEMENT AND ENGINEERING,In LA County,LA VERNE,91750,"2529  AMHERST ST, LA VERNE, CA, 91750",34.116326,-117.7584537,POINT (-117.7584537 34.116326)
627,180346,DIANA M ADAROS,Outside of LA County,ORANGE,92865,"2525  N BOURBON ST, ORANGE, CA, 92865",33.8306369,-117.8388385,POINT (-117.8388385 33.8306369)
628,195621,"AVENUE HOME CARE, INC",Outside of LA County,VISTA,92081,"2515  PIONEER AVE , VISTA, CA, 92081",33.149167,-117.222342,POINT (-117.222342 33.149167)
629,212963,ALPINE TECHNOLOGIES LLC,In LA County,TORRANCE,90505,"2510  W 237TH ST , TORRANCE, CA, 90505",33.8102427,-118.3294122,POINT (-118.3294122 33.8102427)
630,142713,JAIME HERNANDEZ,In LA County,VALENCIA,91355,"25040  AVENUE TIBBITTS, , VALENCIA, CA, 91355",,,POINT (NaN NaN)
631,194096,ZHAN PAUL KING,In LA County,ALTADENA,91001,"2502  EL SOL, ALTADENA, CA, 91001",,,POINT (NaN NaN)
632,503082,"PARENTS ANONYMOUS, INC",In LA County,CLAREMONT,91711,"250  WEST FIRST STREET, , CLAREMONT, CA, 91711",,,POINT (NaN NaN)
633,199335,GOD'S PANTRY,In LA County,POMONA,91767,"250  E CENTER ST, POMONA, CA, 91767",34.061448,-117.7469713,POINT (-117.7469713 34.061448)
634,164178,TALIN BAHADARIAN,In LA County,STEVENSON RANCH,91381,"24980  GREENSBRIER DR., STEVENSON RANCH, CA, 91381",,,POINT (NaN NaN)
635,132373,ADVANCED WINDOW FILM SOLUTIONS INC,In LA County,LOS ANGELES,90018,"2464  W WASHINGTON BLVD, LOS ANGELES, CA, 90018",34.0399966,-118.3170027,POINT (-118.3170027 34.0399966)
636,28943,"PORTER BOILER SERVICE, INC.",In LA County,SIGNAL HILL,90755,"2460  CERRITOS AVE., SIGNAL HILL, CA, 90755",33.8019885,-118.177302,POINT (-118.177302 33.8019885)
637,146460,ABSOLUTE ACCURACY INC,In LA County,LOS ANGELES,90039,"2451  RIVERSIDE DRIVE, LOS ANGELES, CA, 90039",34.105609,-118.255844,POINT (-118.255844 34.105609)
638,166716,"ALAN J. TERRANO CO., INC.",In LA County,VALENCIA,91355,"24307  MAGIC MOUNTAIN PKWY , VALENCIA, CA, 91355",34.4197178,-118.5631206,POINT (-118.5631206 34.4197178)
639,177054,"VMA COMMUNICATIONS, INC",In LA County,CLAREMONT,91711,"243  OBERLIN AVE, CLAREMONT, CA, 91711",34.0959889,-117.7207686,POINT (-117.7207686 34.0959889)
640,184368,"TEC-LINK, LLC",In LA County,INGLEWOOD,90301,"241  S MARKET , INGLEWOOD, CA, 90301",33.9612377,-118.3519521,POINT (-118.3519521 33.9612377)
641,161303,"SO-CAL INSULATION, INC.",In LA County,LOS ANGELES,90031,"2401  EADS STREET, LOS ANGELES, CA, 90031",34.0944306,-118.2403413,POINT (-118.2403413 34.0944306)
642,148807,3 WEST CAPITAL INC.,In LA County,CALABASAS,91302,"24007  VENTURA BLVD, CALABASAS, CA, 91302",,,POINT (NaN NaN)
643,213965,"HAZMAT RESOURCE, INC.",Outside of LA County,OXNARD,93030,"2400  CELSIUS AVE , OXNARD, CA, 93030",34.2037608,-119.1447621,POINT (-119.1447621 34.2037608)
644,202915,AMERICAN POLYMERS LLC,In LA County,VERNON,90058,"2380  E 51ST ST, VERNON, CA, 90058",33.9966646,-118.2306432,POINT (-118.2306432 33.9966646)
645,158171,"VISTAM, INC.",In LA County,SIGNAL HILL,90755,"2375  WALNUT AVE., SIGNAL HILL, CA, 90755",33.799946,-118.172085,POINT (-118.172085 33.799946)
646,191034,APEX INTEGRATED DISTRIBUTION LLC,Outside of LA County,IRVINE,92614,"2372  MORSE AVE , IRVINE, CA, 92614",33.6815992,-117.8491435,POINT (-117.8491435 33.6815992)
647,178215,POWER CAPITAL MANAGEMENT,In LA County,CALABASAS,91302,"23679  CALABASAS ROAD 539, CALABASAS, CA, 91302",,,POINT (NaN NaN)
648,154928,CPM ONE SOURCE INC,In LA County,CALABASAS,91302,"23679  CALABASAS RD., , CALABASAS, CA, 91302",34.1549747,-118.6448442,POINT (-118.6448442 34.1549747)
649,105066,UNISERVE FACILITIES SERVICES CORP,In LA County,COMMERCE,90040,"2363  S ATLANTIC BLVD, COMMERCE, CA, 90040",34.003877,-118.166632,POINT (-118.166632 34.003877)
650,183516,REM SUPPLY INC,In LA County,PASADENA,91103,"236  W MOUNTAIN ST, PASADENA, CA, 91103",34.1610868,-118.1546908,POINT (-118.1546908 34.1610868)
651,174941,"EVITARUS, INC.",In LA County,LOS ANGELES,90064,"2355  WESTWOOD BLVD, LOS ANGELES, CA, 90064",34.0411019,-118.42946,POINT (-118.42946 34.0411019)
652,172298,BCA WATSON RICE LLP,In LA County,TORRANCE,90501,"2355  CRENSHAW BLVD., TORRANCE, CA, 90501",33.823973,-118.32859,POINT (-118.32859 33.823973)
653,210920,GL PLUMBING SERVICE,In LA County,COMMERCE,90040,"2355  COWLIN AVE, COMMERCE, CA, 90040",34.0046298,-118.1671784,POINT (-118.1671784 34.0046298)
654,505984,INTERIOR DEMOLITION INC,In LA County,NEWHALL,91321,"23508  PINE ST, NEWHALL, CA, 91321",34.3630568,-118.5233015,POINT (-118.5233015 34.3630568)
655,505984,INTERIOR DEMOLITION INC,In LA County,NEWHALL,91321,"23508  PINE ST, NEWHALL, CA, 91321",34.3630568,-118.5233015,POINT (-118.5233015 34.3630568)
656,44939,DUTHIE ELECTRIC SERVICE CORP,In LA County,LONG BEACH,90805,"2335  E CHERRY INDUSTRIAL CIR, LONG BEACH, CA, 90805",33.8576543,-118.1669671,POINT (-118.1669671 33.8576543)
657,103291,CALIFORNIA INTEGRATED SOLUTIONS INC,In LA County,DIAMOND BAR,91765,"23341  GOLDEN SPRINGS DRIVE, DIAMOND BAR, CA, 91765",34.008578,-117.818473,POINT (-117.818473 34.008578)
658,153330,TRIDENT SUPPLY INCORPORATED,In LA County,DIAMOND BAR,91765,"23341  GOLDEN SPRINGS DR , DIAMOND BAR, CA, 91765",34.008578,-117.818473,POINT (-117.818473 34.008578)
659,153330,TRIDENT SUPPLY INCORPORATED,In LA County,DIAMOND BAR,91765,"23341  GOLDEN SPRINGS DR, DIAMOND BAR, CA, 91765",34.008578,-117.818473,POINT (-117.818473 34.008578)
660,153330,TRIDENT SUPPLY INCORPORATED,In LA County,DIAMOND BAR,91765,"23341  GOLDEN SPRINGS DR, DIAMOND BAR, CA, 91765",34.008578,-117.818473,POINT (-117.818473 34.008578)
661,200878,DREADNOUGHT ENDEAVORS INC,In LA County,CALABASAS,91302,"23332  PARK MARIPOSA, CALABASAS, CA, 91302",34.1464396,-118.6375995,POINT (-118.6375995 34.1464396)
662,187924,"ENVIRONMENTAL OUTREACH STRATEGIES, INC.",In LA County,CALABASAS,91302,"23285  PARK ENSENADA, CALABASAS, CA, 91302",34.1491839,-118.6352555,POINT (-118.6352555 34.1491839)
663,209598,MONARKA DEVELOPMENT CORPORATION,In LA County,LOS ANGELES,90043,"2327  SOUTHWEST DR, LOS ANGELES, CA, 90043",33.9824193,-118.3198988,POINT (-118.3198988 33.9824193)
664,207452,"MAMMOTH RX, INC",Outside of LA County,LAGUNA HILLS,92653,"23151  ALCALDE DR , LAGUNA HILLS, CA, 92653",33.6231158,-117.7256065,POINT (-117.7256065 33.6231158)
665,123380,LTSC COMMUNITY DEVELOPMENT CORPORATION,In LA County,LOS ANGELES,90013,"231  E. 3RD ST. , LOS ANGELES, CA, 90013",34.0484523,-118.2436599,POINT (-118.2436599 34.0484523)
666,176964,KHUSH COOPER & ASSOCIATES,In LA County,WOODLAND HLS,91367,"23029  COLLINS ST, WOODLAND HLS, CA, 91367",34.173928,-118.6210861,POINT (-118.6210861 34.173928)
667,185419,"ROSE CITY COFFEE, LLC",In LA County,PASADENA,91107,"2302  E COLORADO BLVD, PASADENA, CA, 91107",34.1458816,-118.1029861,POINT (-118.1029861 34.1458816)
668,133842,INSTANT INFOSYSTEMS,In LA County,TORRANCE,90504,"2301  W 190TH ST, TORRANCE, CA, 90504",33.8584383,-118.3188378,POINT (-118.3188378 33.8584383)
669,190811,BAYINFOTECH,Outside of LA County,LIVERMORE,94550,"2300  1ST ST , LIVERMORE, CA, 94550",37.68222,-121.768391,POINT (-121.768391 37.68222)
670,187683,G&G MECHANICAL INC.,In LA County,LANCASTER,93535,"230  E AVENUE K4 , LANCASTER, CA, 93535",34.6715037,-118.0839618,POINT (-118.0839618 34.6715037)
671,182417,"NH ENVIRONMENTAL, INC.",In LA County,CITY OF INDUSTRY,91744,"229  N. CALIFORNIA AVE, CITY OF INDUSTRY, CA, 91744",34.0327931,-117.9681131,POINT (-117.9681131 34.0327931)
672,200195,"TERI & YAKI ASIAN COMFORT FOOD #3, INC.",In LA County,PASADENA,91101,"229  N LAKE AVE, PASADENA, CA, 91101",34.1499723,-118.1326183,POINT (-118.1326183 34.1499723)
673,211164,INSSKI INC.,In LA County,WOODLAND HLS,91364,"22704  VENTURA BLVD PMB 141, WOODLAND HLS, CA, 91364",,,POINT (NaN NaN)
674,206102,V & Z ENTERPRISES INC.,In LA County,WOODLAND HLS,91364,"22647  VENTURA BLVD PMB 411, WOODLAND HLS, CA, 91364",,,POINT (NaN NaN)
675,110023,TRINUS CORPORATION,In LA County,PASADENA,91101,"225  S LAKE AVE, PASADENA, CA, 91101",34.1418847,-118.1335197,POINT (-118.1335197 34.1418847)
676,190116,ROY E WHITEHEAD INC.,Outside of LA County,RIVERSIDE,92509,"2245  VIA CERRO, RIVERSIDE, CA, 92509",34.0165055,-117.3836795,POINT (-117.3836795 34.0165055)
677,199058,THE MACLEAN GROUP LLC,Outside of LA County,SACRAMENTO,95825,"2233  WATT AVE , SACRAMENTO, CA, 95825",38.604489,-121.3836677,POINT (-121.3836677 38.604489)
678,169805,"NO SWEAT HEATING AND AIR CONDITIONING, INC.",In LA County,TORRANCE,90502,"22325  HARBOR RIDGE LANE , TORRANCE, CA, 90502",,,POINT (NaN NaN)
679,199293,JON S HEYMAN,In LA County,TORRANCE,90505,"22320  WARMSIDE AVE, TORRANCE, CA, 90505",33.8255741,-118.3720742,POINT (-118.3720742 33.8255741)
680,184143,"INFINITY GOVERNMENT PROCUREMENT CONSULTING, LLC",In LA County,GLENDORA,91741,"223  S GLENDORA AVE, GLENDORA, CA, 91741",34.1337443,-117.8655859,POINT (-117.8655859 34.1337443)
681,205305,"ENTOURAGE TRANSPORTATION, LLC.",In LA County,CALABASAS,91302,"22287  MULHOLLAND HWY, CALABASAS, CA, 91302",34.1466129,-118.612466,POINT (-118.612466 34.1466129)
682,176472,PRIME ELECTRIC WHOLESALE CORP.,In LA County,ALHAMBRA,91801,"2220  W. MAIN STREET, ALHAMBRA, CA, 91801",34.0924753,-118.1472761,POINT (-118.1472761 34.0924753)
683,188711,TANO LOGISTICS LLC,In LA County,SAN PEDRO,90731,"222  W 6TH ST , SAN PEDRO, CA, 90731",33.7389201,-118.2832624,POINT (-118.2832624 33.7389201)
684,189925,TIBURON INDUSTRIAL INC,In LA County,SAN PEDRO,90731,"222  W 6TH ST, SAN PEDRO, CA, 90731",33.7389201,-118.2832624,POINT (-118.2832624 33.7389201)
685,131748,"LINCUS, INC.",In LA County,MONROVIA,91016,"222  E HUNTINGTON DR, MONROVIA, CA, 91016",34.1404595,-117.9953092,POINT (-117.9953092 34.1404595)
686,215308,"CAY INDUSTRIES, LLC",In LA County,BURBANK,91506,"2219  W OLIVE AVE, BURBANK, CA, 91506",34.1633429,-118.3273187,POINT (-118.3273187 34.1633429)
687,52375,THE MACHADO ENVIRONMENTAL CORP,In LA County,GLENDALE,91208,"2219  BROADVIEW DR, GLENDALE, CA, 91208",34.2027975,-118.2235153,POINT (-118.2235153 34.2027975)
688,100446,TRANSLATING SERVICES INC,In LA County,WOODLAND HLS,91364,"22141  VENTURA BLVD, WOODLAND HLS, CA, 91364",34.1686716,-118.6089234,POINT (-118.6089234 34.1686716)
689,32724,BRIAN ZIMMERMAN PHOTOGRAPHICS,In LA County,TORRANCE,90502,"22114  S. VERMONT AVE., , TORRANCE, CA, 90502",,,POINT (NaN NaN)
690,137826,"SEBASTIAN WATERWORKS, INC.",In LA County,MONTEREY PARK,91754,"221  W POMONA BLVD, MONTEREY PARK, CA, 91754",34.0336565,-118.1314303,POINT (-118.1314303 34.0336565)
691,137826,"SEBASTIAN WATERWORKS, INC.",In LA County,MONTEREY PARK,91754,"221  W POMONA BLVD, MONTEREY PARK, CA, 91754",34.0336565,-118.1314303,POINT (-118.1314303 34.0336565)
692,61135,NAKATOMI & ASSOCIATES INC,In LA County,LOS ANGELES,90064,"2207  COLBY AVENUE, LOS ANGELES, CA, 90064",34.0357312,-118.4449114,POINT (-118.4449114 34.0357312)
693,117286,EPIDAURUS,In LA County,LOS ANGELES,90007,"2202  S FIGUEROA ST PMB , LOS ANGELES, CA, 90007",,,POINT (NaN NaN)
694,172357,WESTON INDUSTRIES INC.,In LA County,SAN PEDRO,90731,"220  W 8TH ST, SAN PEDRO, CA, 90731",33.7370042,-118.2818941,POINT (-118.2818941 33.7370042)
695,513874,DON WOLF & ASSOCIATES INC,In LA County,CHATSWORTH,91311,"21955  PLUMMER STREET, CHATSWORTH, CA, 91311",34.2427824,-118.6055832,POINT (-118.6055832 34.2427824)
696,178124,"NUTECH PRINT AND APPAREL, INC.",In LA County,TORRANCE,90502,"21814  1/2 S VERMONT AVE, TORRANCE, CA, 90502",,,POINT (NaN NaN)
697,173924,ALLIANCE FOR COMMUNITY EMPOWERMENT,In LA County,CANOGA PARK,91305,"21801  SHERMAN WAY, CANOGA PARK, CA, 91305",34.201101,-118.603005,POINT (-118.603005 34.201101)
698,183625,MASSOUD KARIMZADEH,In LA County,LOS ANGELES,90025,"2180  S BEVERLY GLEN BLVD, LOS ANGELES, CA, 90025",34.0507416,-118.4207739,POINT (-118.4207739 34.0507416)
699,121874,AVALON RAFTS SALES & SERVICE,In LA County,WILMINGTON,90744,"218  N. MARINE AVE., WILMINGTON, CA, 90744",33.7715531,-118.2629784,POINT (-118.2629784 33.7715531)
700,120489,CALIFORNIA HEALTH & SAFETY INC,In LA County,LONG BEACH,90810,"21720  S WILMINGTON AVE , LONG BEACH, CA, 90810",,,POINT (NaN NaN)
701,126740,LAURA NIXHOLM,In LA County,CHATSWORTH,91311,"21704  DEVONSHIRE ST., , CHATSWORTH, CA, 91311",34.2571489,-118.6019476,POINT (-118.6019476 34.2571489)
702,107361,"LIN CONSULTING, INC",In LA County,DIAMOND BAR,91765,"21660  COPLEY DR., , DIAMOND BAR, CA, 91765",33.9992321,-117.8313237,POINT (-117.8313237 33.9992321)
703,149940,SHARESQUARED INC,In LA County,MONTROSE,91020,"2155  VERDUGO BLVD , MONTROSE, CA, 91020",,,POINT (NaN NaN)
704,185921,"SOUTHBAY SUPPLIERS, LLC",In LA County,TORRANCE,90503,"21515  HAWTHORNE BLVD, TORRANCE, CA, 90503",33.8335351,-118.352708,POINT (-118.352708 33.8335351)
705,126275,"IMAGE QUEST PLUS, LLC",In LA County,PASADENA,91101,"215  N MARENGO AVE FL 3, PASADENA, CA, 91101",,,POINT (NaN NaN)
706,168482,SOUTHWEST FIRE PROTECTION CO.,In LA County,MONROVIA,91016,"215  E. EL SUR STREET, MONROVIA, CA, 91016",34.1265448,-118.0012318,POINT (-118.0012318 34.1265448)
707,187772,GUNDARA DESIGN INC.,In LA County,CHATSWORTH,91311,"21439  CELTIC COURT, CHATSWORTH, CA, 91311",34.2715233,-118.5983394,POINT (-118.5983394 34.2715233)
708,185078,INDEPENDENCE CAPITAL LLC,In LA County,LOS ANGELES,90037,"214  W 49TH ST, LOS ANGELES, CA, 90037",33.9982356,-118.2764287,POINT (-118.2764287 33.9982356)
709,60679,PROFESSIONAL REFINISHING ORG,In LA County,LA PUENTE,91746,"214  S 5TH AVE, LA PUENTE, CA, 91746",,,POINT (NaN NaN)
710,190179,"SILVER STAR MOVERS, INC.",In LA County,TORRANCE,90501,"2132  W 237TH ST, TORRANCE, CA, 90501",33.8098279,-118.313121,POINT (-118.313121 33.8098279)
711,174165,LEKSON INC,In LA County,HAWAIIAN GARDENS,90716,"21309  NORWALK BLVD , HAWAIIAN GARDENS, CA, 90716",33.8360874,-118.0721085,POINT (-118.0721085 33.8360874)
712,136260,"CONSTANT AND ASSOCIATES, INC.",In LA County,TORRANCE,90503,"21250  HAWTHORNE BLVD , TORRANCE, CA, 90503",33.8362182,-118.3526499,POINT (-118.3526499 33.8362182)
713,100045,CHOYASSOCIATES,In LA County,TORRANCE,90503,"21250  HAWTHORNE BLVD, TORRANCE, CA, 90503",33.8362182,-118.3526499,POINT (-118.3526499 33.8362182)
714,140193,HH FREMER ARCHITECTS,In LA County,SANTA MONICA,90403,"2120  WILSHIRE BLVD, SANTA MONICA, CA, 90403",34.0299763,-118.4849302,POINT (-118.4849302 34.0299763)
715,189738,"J. ROSE INDUSTRIES, LLC",In LA County,REDONDO BEACH,90278,"2110  ARTESIA BOULEVARD , REDONDO BEACH, CA, 90278",33.8725164,-118.373911,POINT (-118.373911 33.8725164)
716,193505,"ALL PRO SIGNS, INC.",In LA County,TORRANCE,90501,"2107  BORDER AVE, TORRANCE, CA, 90501",33.8266937,-118.313098,POINT (-118.313098 33.8266937)
717,178217,THE GREGGROUP INC,In LA County,REDONDO BEACH,90278,"2106  ROCKEFELLER LN , REDONDO BEACH, CA, 90278",33.8697399,-118.3743026,POINT (-118.3743026 33.8697399)
718,124955,KAL KRISHNAN CONSULTING,In LA County,EL SEGUNDO,90245,"2101  E EL SEGUNDO BLVD, EL SEGUNDO, CA, 90245",33.9169007,-118.3903892,POINT (-118.3903892 33.9169007)
719,157512,REBEL VAN LINES,In LA County,COMPTON,90221,"2100  S ALAMEDA ST, COMPTON, CA, 90221",33.874126,-118.216847,POINT (-118.216847 33.874126)
720,6662,GRACE COMMUNICATIONS INC,In LA County,LOS ANGELES,90012,"210  S SPRING ST, LOS ANGELES, CA, 90012",34.0514284,-118.2457371,POINT (-118.2457371 34.0514284)
721,122867,HOT SHOTS ATHLETIC APPAREL INC,In LA County,WALNUT,91789,"20947  CURRIER RD , WALNUT, CA, 91789",,,POINT (NaN NaN)
722,508085,"LINSCOTT, LAW & GREENSPAN ENG.",In LA County,WOODLAND HLS,91367,"20931  BURBANK BLVD, WOODLAND HLS, CA, 91367",34.1733844,-118.5887903,POINT (-118.5887903 34.1733844)
723,118972,INTEGRATED ENGINEERING MANAGEMENT,Outside of LA County,SANTA ANA,92705,"2091  SALT AIR DR, SANTA ANA, CA, 92705",,,POINT (NaN NaN)
724,172138,TRIANGLE SPORTS INCORPORATED,In LA County,LA PUENTE,91746,"209  S 9TH AVE, LA PUENTE, CA, 91746",,,POINT (NaN NaN)
725,166962,"ORGANICSORB, LLC",In LA County,LOS ANGELES,90014,"208  E 6TH ST , LOS ANGELES, CA, 90014",34.0443857,-118.2488166,POINT (-118.2488166 34.0443857)
726,166962,"ORGANICSORB, LLC",In LA County,LOS ANGELES,90014,"208  E 6TH ST, LOS ANGELES, CA, 90014",34.0443857,-118.2488166,POINT (-118.2488166 34.0443857)
727,173724,INNOVATIVE INSPECTION SERVICES INC,In LA County,TORRANCE,90501,"20775  S WESTERN AVE , TORRANCE, CA, 90501",33.8421712,-118.309406,POINT (-118.309406 33.8421712)
728,208056,ADERSA GROUP LLC,In LA County,LOS ANGELES,90061,"207  W 138TH ST, LOS ANGELES, CA, 90061",33.9069228,-118.2759022,POINT (-118.2759022 33.9069228)
729,144452,"SRFS, INC",In LA County,WINNETKA,91306,"20615  VANOWEN ST, WINNETKA, CA, 91306",34.1938675,-118.5825705,POINT (-118.5825705 34.1938675)
730,191334,MARGARET MANNING,In LA County,TORRANCE,90502,"20614  BUDLONG AVE, TORRANCE, CA, 90502",,,POINT (NaN NaN)
731,182445,"STEELMAN BUILD & CONSTRUCTION, INC.",In LA County,CLAREMONT,91711,"2058  N MILLS AVE NUM 224, CLAREMONT, CA, 91711",,,POINT (NaN NaN)
732,182149,"CORONADO DISTRIBUTION COMPANY, INC.",Outside of LA County,NATIONAL CITY,91950,"205  W 35TH ST, NATIONAL CITY, CA, 91950",32.6501222,-117.0993673,POINT (-117.0993673 32.6501222)
733,57091,"MARRS SERVICES, INC.",In LA County,LOS ANGELES,90012,"205  S BROADWAY , LOS ANGELES, CA, 90012",34.0524032,-118.2469651,POINT (-118.2469651 34.0524032)
734,31075,ALCO TARGET COMPANY INC,In LA County,DUARTE,91010,"2048  CENTRAL AVE, DUARTE, CA, 91010",34.1359783,-117.9622663,POINT (-117.9622663 34.1359783)
735,176366,"SJD&B, INC.",In LA County,WALNUT,91789,"20451  VALLEY BLVD, WALNUT, CA, 91789",34.0102176,-117.8583171,POINT (-117.8583171 34.0102176)
736,119972,SPECTRUM ENVIRONMENTAL SERVICE,In LA County,CHATSWORTH,91311,"20434  CORISCO ST, CHATSWORTH, CA, 91311",34.2353807,-118.5783708,POINT (-118.5783708 34.2353807)
737,507514,UNIVERSAL REPROGRAPHICS INC,In LA County,LOS ANGELES,90025,"2043  PONTIUS AVENUE, LOS ANGELES, CA, 90025",34.0419843,-118.440427,POINT (-118.440427 34.0419843)
738,199971,LOTUS DESIGNS LLC,In LA County,LOS ANGELES,90047,"2041  W 109TH ST, LOS ANGELES, CA, 90047",33.9374142,-118.31429,POINT (-118.31429 33.9374142)
739,170080,TOTAL CORPORATE SOLUTIONS,In LA County,TORRANCE,90501,"20335  S WESTERN AVE, TORRANCE, CA, 90501",33.846388,-118.309454,POINT (-118.309454 33.846388)
740,176413,ENVIRO PRODUCTS WEST INC,In LA County,MONTROSE,91020,"2029  VERDUGO BLVD, MONTROSE, CA, 91020",,,POINT (NaN NaN)
741,117886,"PARKER LIGHTING, INC.",In LA County,INGLEWOOD,90301,"201  WEST MANCHESTER BLVD, INGLEWOOD, CA, 90301",33.9615939,-118.357483,POINT (-118.357483 33.9615939)
742,179357,"PRECISE WEIGHING SYSTEMS, INC.",In LA County,SANTA CLARITA,91351,"20011  JACANA CT, SANTA CLARITA, CA, 91351",34.405953,-118.485706,POINT (-118.485706 34.405953)
743,186200,"CLASSIC FLOOR CARE, INC.",In LA County,GLENDORA,91741,"2001  E FINANCIAL WAY , GLENDORA, CA, 91741",34.1287847,-117.8265831,POINT (-117.8265831 34.1287847)
744,171022,"VERDICAL GROUP, INC.",In LA County,PASADENA,91101,"199  S LOS ROBLES AVE, PASADENA, CA, 91101",34.142237,-118.14147,POINT (-118.14147 34.142237)
745,47964,IMAGING PRODUCTS INTERNATIONAL INC,In LA County,NORTHRIDGE,91324,"19849  NORDHOFF ST, NORTHRIDGE, CA, 91324",34.2355115,-118.5427547,POINT (-118.5427547 34.2355115)
746,52590,"SALAM INTERNATIONAL, INC.",Outside of LA County,FOOTHILL RANCH,92610,"19781  PAULING, FOOTHILL RANCH, CA, 92610",33.6750846,-117.6527838,POINT (-117.6527838 33.6750846)
747,189554,COLEMAN EQUIPMENT RENTALS LLC,In LA County,LOS ANGELES,90062,"1973  W 48TH ST, LOS ANGELES, CA, 90062",34.00014,-118.3156147,POINT (-118.3156147 34.00014)
748,104573,"EPIC LAND SOLUTIONS, INC.",In LA County,TORRANCE,90504,"1971  W 190TH ST, TORRANCE, CA, 90504",33.8584472,-118.3130073,POINT (-118.3130073 33.8584472)
749,104573,"EPIC LAND SOLUTIONS, INC.",In LA County,TORRANCE,90504,"1971  W 190TH ST, TORRANCE, CA, 90504",33.8584472,-118.3130073,POINT (-118.3130073 33.8584472)
750,182718,WITH LOVE MARKET AND CAFE,In LA County,LOS ANGELES,90007,"1969  S. VERMONT AVE., LOS ANGELES, CA, 90007",34.0386855,-118.2916553,POINT (-118.2916553 34.0386855)
751,137619,GREEN MOUNTAIN CORPORATION,In LA County,E RNCHO DMNGZ,90221,"19501  S SANTA FE AVE , E RNCHO DMNGZ, CA, 90221",,,POINT (NaN NaN)
752,198576,KNIGHTFOX LOGISTICS LLC,In LA County,COMPTON,90222,"1947  E 123RD ST, COMPTON, CA, 90222",,,POINT (NaN NaN)
753,198576,KNIGHTFOX LOGISTICS LLC,In LA County,COMPTON,90222,"1947  E 123RD ST, COMPTON, CA, 90222",,,POINT (NaN NaN)
754,198576,KNIGHTFOX LOGISTICS LLC,In LA County,COMPTON,90222,"1947  E 123RD ST, COMPTON, CA, 90222",,,POINT (NaN NaN)
755,108118,GRAND STANDS INC,In LA County,MONROVIA,91016,"1946  S MYRTLE AVE, MONROVIA, CA, 91016",34.1292137,-118.0015175,POINT (-118.0015175 34.1292137)
756,196549,"FRESHLUNCHES, INC.",In LA County,NORTHRIDGE,91324,"19431  BUSINESS CENTER DR, NORTHRIDGE, CA, 91324",34.2314878,-118.5554352,POINT (-118.5554352 34.2314878)
757,196549,"FRESHLUNCHES, INC.",In LA County,NORTHRIDGE,91324,"19431  BUSINESS CENTER DR, NORTHRIDGE, CA, 91324",34.2314878,-118.5554352,POINT (-118.5554352 34.2314878)
758,192877,CERVUS INC.,In LA County,CANYON CNTRY,91351,"19425  SOLEDAD CANYON RD, CANYON CNTRY, CA, 91351",,,POINT (NaN NaN)
759,111875,"UNIQUE IMAGE, INC.",In LA County,NORTHRIDGE,91324,"19365  BUSINESS CENTER DR., , NORTHRIDGE, CA, 91324",34.2311287,-118.5545962,POINT (-118.5545962 34.2311287)
760,35767,"AXIOM MEDICAL, INC.",In LA County,TORRANCE,90501,"19320  SOUTH VAN NESS AVENUE, TORRANCE, CA, 90501",,,POINT (NaN NaN)
761,186870,RJ NAUTICAL,In LA County,CARSON,90810,"1930  E CARSON ST, CARSON, CA, 90810",33.831643,-118.237976,POINT (-118.237976 33.831643)
762,190698,"THUNDERCAT TECHNOLOGY, LLC",Out of State,RESTON,20190,"1925  ISAAC NEWTON SQ E , RESTON, CA, 20190",,,POINT (NaN NaN)
763,57072,"KAR WING TRADING CO., INC",In LA County,S EL MONTE,91733,"1923  FRANK STILES ST, S EL MONTE, CA, 91733",34.046283,-118.0322986,POINT (-118.0322986 34.046283)
764,180612,A-BEST INDUSTRIAL INC.,In LA County,SAN PEDRO,90731,"1911  N GAFFEY STREET, SAN PEDRO, CA, 90731",33.746762,-118.2924529,POINT (-118.2924529 33.746762)
765,184368,"TEC-LINK, LLC",Out of State,TAMPA,33647,"19101  CLIMBING ASTER DR, TAMPA, CA, 33647",,,POINT (NaN NaN)
766,507037,"UNITED DIESEL SERVICE, INC.",In LA County,SOUTH EL MONTE,91733,"1903  PENN MAR AVE., SOUTH EL MONTE, CA, 91733",34.0479252,-118.0345896,POINT (-118.0345896 34.0479252)
767,188454,ALEX AND EDIZEN LLC,In LA County,VENICE,90291,"1901  OCEAN FRONT WALK , VENICE, CA, 90291",33.9952463,-118.4810318,POINT (-118.4810318 33.9952463)
768,52547,KH CONSULTING GROUP,In LA County,LOS ANGELES,90067,"1901  AVENUE OF THE STARS, , LOS ANGELES, CA, 90067",34.0597332,-118.4178815,POINT (-118.4178815 34.0597332)
769,170927,RELIABLE MONITORING SERVICES,In LA County,SIGNAL HILL,90755,"1899  FREEMAN AVE, SIGNAL HILL, CA, 90755",33.7916877,-118.1557556,POINT (-118.1557556 33.7916877)
770,170927,RELIABLE MONITORING SERVICES,In LA County,SIGNAL HILL,90755,"1899  FREEMAN AVE, SIGNAL HILL, CA, 90755",33.7916877,-118.1557556,POINT (-118.1557556 33.7916877)
771,200158,GENERATION CONNECT,In LA County,TARZANA,91335,"18811  TOPHAM ST, TARZANA, CA, 91335",34.180684,-118.5428799,POINT (-118.5428799 34.180684)
772,143193,"MNR CONSTRUCTION, INC.",In LA County,LA VERNE,91750,"1880  WRIGHT AVE, LA VERNE, CA, 91750",34.095242,-117.77674,POINT (-117.77674 34.095242)
773,187822,"MULHOLLAND CONSULTING GROUP, LLC",In LA County,SANTA CLARITA,91387,"18751  CEDAR CREST DR, SANTA CLARITA, CA, 91387",34.3898083,-118.4545193,POINT (-118.4545193 34.3898083)
774,31658,G & C EQUIPMENT CORP,In LA County,GARDENA,90247,"1875  W REDONDO BEACH BLVD , GARDENA, CA, 90247",33.8882688,-118.3101809,POINT (-118.3101809 33.8882688)
775,130805,JMDIAZ INC,In LA County,CITY OF INDUSTRY,91748,"18645  E. GALE AVENUE, , CITY OF INDUSTRY, CA, 91748",,,POINT (NaN NaN)
776,192877,CERVUS INC.,In LA County,CANYON CNTRY,91351,"18565  SOLEDAD CANYON RD, CANYON CNTRY, CA, 91351",,,POINT (NaN NaN)
777,185644,VISHAL SINGH,In LA County,WEST COVINA,91792,"1854  JUNE COURT, WEST COVINA, CA, 91792",34.0183727,-117.9068967,POINT (-117.9068967 34.0183727)
778,151072,GAMA CONTRACTING SERVICES INC,In LA County,SOUTH EL MONTE,91733,"1835  FLORADALE AVE, SOUTH EL MONTE, CA, 91733",34.0483948,-118.0379203,POINT (-118.0379203 34.0483948)
779,145076,ROHAM INTERNATIONAL INC,In LA County,LOMITA,90717,"1828  LOMITA BLVD, LOMITA, CA, 90717",33.7983633,-118.3110145,POINT (-118.3110145 33.7983633)
780,61135,NAKATOMI & ASSOCIATES INC,In LA County,SANTA MONICA,90404,"1820  14TH STREET , SANTA MONICA, CA, 90404",34.0177207,-118.4788869,POINT (-118.4788869 34.0177207)
781,201698,SAILAND USA INC,In LA County,S EL MONTE,91733,"1819  FLORADALE AVE, S EL MONTE, CA, 91733",34.0481921,-118.0381569,POINT (-118.0381569 34.0481921)
782,209075,ERSEVON LLC,In LA County,LOS ANGELES,90062,"1816  W 45TH ST, LOS ANGELES, CA, 90062",34.00271,-118.3118344,POINT (-118.3118344 34.00271)
783,184772,NMK CORPORATION,In LA County,CERRITOS,90703,"18122  CARMENITA RD , CERRITOS, CA, 90703",33.8671044,-118.0462488,POINT (-118.0462488 33.8671044)
784,165225,STAY SAFE SOLUTIONS INC,Outside of LA County,SACRAMENTO,95811,"1809  S STREET, SACRAMENTO, CA, 95811",38.5674534,-121.4862363,POINT (-121.4862363 38.5674534)
785,165225,STAY SAFE SOLUTIONS INC,Outside of LA County,SACRAMENTO,95811,"1809  S STREET, SACRAMENTO, CA, 95811",38.5674534,-121.4862363,POINT (-121.4862363 38.5674534)
786,33847,"T & H INTERIOR SERVICES, INC",In LA County,MONROVIA,91016,"1803  S. MYRTLE AVENUE, MONROVIA, CA, 91016",34.1320607,-118.0009125,POINT (-118.0009125 34.1320607)
787,33847,"T & H INTERIOR SERVICES, INC",In LA County,MONROVIA,91016,"1803  S MYRTLE AVE, MONROVIA, CA, 91016",34.1320607,-118.0009125,POINT (-118.0009125 34.1320607)
788,524159,CITADEL ENVIRONMENTAL SERVICESINC,In LA County,PASADENA,91199,"1801  W OLYMPIC BLVD, PASADENA, CA, 91199",,,POINT (NaN NaN)
789,174205,LEXTECH INC,In LA County,CERRITOS,90703,"18000  STUDEBAKER RD , CERRITOS, CA, 90703",33.868335,-118.0969988,POINT (-118.0969988 33.868335)
790,185599,NTS COMMUNICATIONS,In LA County,LOS ANGELES,90011,"180  E 35TH ST, LOS ANGELES, CA, 90011",34.0168994,-118.271284,POINT (-118.271284 34.0168994)
791,2466,IDEAL PRINTING CO,In LA County,LA PUENTE,91744,"17855  MACLAREN ST, LA PUENTE, CA, 91744",34.0120062,-117.9352697,POINT (-117.9352697 34.0120062)
792,201668,"TEKISTRY, INC",In LA County,CERRITOS,90703,"17777  CENTER COURT DR N, CERRITOS, CA, 90703",33.8695071,-118.0611971,POINT (-118.0611971 33.8695071)
793,47397,SIRACUSA ENTERPRISES INC,In LA County,GRANADA HILLS,91344,"17737  CHATSWORTH ST, GRANADA HILLS, CA, 91344",34.2649687,-118.5204491,POINT (-118.5204491 34.2649687)
794,178505,SATWIC INC.,In LA County,PASADENA,91105,"177  E COLORADO BLVD , PASADENA, CA, 91105",34.1461421,-118.1469283,POINT (-118.1469283 34.1461421)
795,105081,COUNCIL FOR WATERSHED HEALTH,In LA County,PASADENA,91105,"177  E COLORADO BLVD, PASADENA, CA, 91105",34.1461421,-118.1469283,POINT (-118.1469283 34.1461421)
796,207826,"ECONOPRINT, INC.",In LA County,PASADENA,91106,"1765  E COLORADO BLVD, PASADENA, CA, 91106",34.1460941,-118.1138972,POINT (-118.1138972 34.1460941)
797,192587,AYARD RENTALS,In LA County,E RNCHO DMNGZ,90221,"17621  S SUSANA RD, E RNCHO DMNGZ, CA, 90221",,,POINT (NaN NaN)
798,120421,"WATERWISE CONSULTING , INC.",In LA County,GLENDORA,91740,"1751  S GRAND AVE, GLENDORA, CA, 91740",34.1076014,-117.87276,POINT (-117.87276 34.1076014)
799,129913,DILTEX INC,In LA County,WEST COVINA,91790,"1750  W CAMERON AVE, , WEST COVINA, CA, 91790",34.0700044,-117.9442392,POINT (-117.9442392 34.0700044)
800,188318,WAKING MEDIA INC.,In LA County,LOS ANGELES,90027,"1745  WINONA BLVD , LOS ANGELES, CA, 90027",34.1028704,-118.3021099,POINT (-118.3021099 34.1028704)
801,188833,"HOLLIDAY'S HELPING HANDS, INC.",In LA County,CARSON,90746,"17420  AVALON BLVD , CARSON, CA, 90746",33.8729931,-118.2656727,POINT (-118.2656727 33.8729931)
802,188833,"HOLLIDAY'S HELPING HANDS, INC.",In LA County,CARSON,90746,"17420  AVALON BLVD , CARSON, CA, 90746",33.8729931,-118.2656727,POINT (-118.2656727 33.8729931)
803,524389,ONEGENERATION,In LA County,VAN NUYS,91406,"17400  VICTORY BLVD, VAN NUYS, CA, 91406",34.1866507,-118.474126,POINT (-118.474126 34.1866507)
804,160021,GOOD PEOPLE INC,In LA County,CERRITOS,90703,"17315  STUDEBAKER RD , CERRITOS, CA, 90703",33.8737995,-118.0998213,POINT (-118.0998213 33.8737995)
805,160021,GOOD PEOPLE INC,In LA County,CERRITOS,90703,"17315  STUDEBAKER RD, CERRITOS, CA, 90703",33.8737995,-118.0998213,POINT (-118.0998213 33.8737995)
806,160021,GOOD PEOPLE INC,In LA County,CERRITOS,90703,"17315  STUDEBAKER RD, CERRITOS, CA, 90703",33.8737995,-118.0998213,POINT (-118.0998213 33.8737995)
807,156189,SYNERGY TRAFFIC CONTROL INC,In LA County,GARDENA,90248,"17311  S MAIN ST, GARDENA, CA, 90248",,,POINT (NaN NaN)
808,156189,SYNERGY TRAFFIC CONTROL INC,In LA County,GARDENA,90248,"17311  S MAIN ST, GARDENA, CA, 90248",,,POINT (NaN NaN)
809,108241,CABAN RESOURCES LLC,In LA County,EL SEGUNDO,90245,"1730  E HOLLY AVE, EL SEGUNDO, CA, 90245",33.920635,-118.3976786,POINT (-118.3976786 33.920635)
810,524159,CITADEL ENVIRONMENTAL SERVICESINC,In LA County,GLENDALE,91201,"1725  VICTORY BOULEVARD, GLENDALE, CA, 91201",34.1618573,-118.3007612,POINT (-118.3007612 34.1618573)
811,140294,MICHAEL BAROFF,In LA County,SANTA MONICA,90401,"1725  OCEAN AVE. , SANTA MONICA, CA, 90401",34.009185,-118.4921028,POINT (-118.4921028 34.009185)
812,109909,KEEFE BUSINESS SERVICES INC,In LA County,GLENDALE,91204,"1725  GARDENA AVE, GLENDALE, CA, 91204",34.1230256,-118.2573422,POINT (-118.2573422 34.1230256)
813,115594,WAGNER ENGINEERING & SURVEY INC,In LA County,NORTHRIDGE,91325,"17134  DEVONSHIRE STREET, NORTHRIDGE, CA, 91325",34.2572707,-118.5356845,POINT (-118.5356845 34.2572707)
814,204934,PAMELA R BOBOC,In LA County,PLS VRDS EST,90274,"1713  VIA ESTUDILLO, PLS VRDS EST, CA, 90274",,,POINT (NaN NaN)
815,186279,ANDA'S WELLNESS LLC,In LA County,CERRITOS,90703,"17100  NORWALK BLVD, CERRITOS, CA, 90703",33.8756158,-118.0717215,POINT (-118.0717215 33.8756158)
816,126916,GOLDEN HANDS AUTO BODY INC.,In LA County,PASADENA,91107,"171  N. PARKWOOD AVE., PASADENA, CA, 91107",34.1489805,-118.111984,POINT (-118.111984 34.1489805)
817,174508,POSITIVE EXISTENCE,In LA County,SANTA MONICA,90404,"1703  , SANTA MONICA, CA, 90404",34.0264496,-118.4826419,POINT (-118.4826419 34.0264496)
818,190624,NOT YOU MAMAS KITCHEN,In LA County,COMPTON,90221,"1701  E COMPTON BLVD, COMPTON, CA, 90221",33.896135,-118.204428,POINT (-118.204428 33.896135)
819,148272,HARWOOD CONSTRUCTION INC,In LA County,LA VERNE,91750,"1695  CURTISS COURT, LA VERNE, CA, 91750",34.095895,-117.78018,POINT (-117.78018 34.095895)
820,210655,CERVANTES MEJIA DESSERTS,In LA County,BELLFLOWER,90706,"16801  BELLFLOWER BLVD, BELLFLOWER, CA, 90706",33.881963,-118.125319,POINT (-118.125319 33.881963)
821,166267,NATIX INC,Outside of LA County,MEADOW VISTA,95722,"16790  PLACER HILLS ROAD , MEADOW VISTA, CA, 95722",38.9955749,-121.0231222,POINT (-121.0231222 38.9955749)
822,146480,JAMES T EDSON,In LA County,SANTA CLARITA,91387,"16654  SOLEDAD CANYON RD , SANTA CLARITA, CA, 91387",34.4262016,-118.4280959,POINT (-118.4280959 34.4262016)
823,137241,SAND BUILDING MATERIALS INC,In LA County,SANTA CLARITA,91351,"16641  SIERRA HIGHWAY, SANTA CLARITA, CA, 91351",34.3953564,-118.4851678,POINT (-118.4851678 34.3953564)
824,501254,GUY L. WARDEN & SONS,In LA County,CERRITOS,90703,"16626  PARKSIDE AVE, CERRITOS, CA, 90703",33.8792993,-118.0742411,POINT (-118.0742411 33.8792993)
825,209437,"ABG INSPECTIONS, INC.",In LA County,POMONA,91766,"1662  NORVAL ST, POMONA, CA, 91766",34.0415353,-117.7354185,POINT (-117.7354185 34.0415353)
826,201295,MARIA G MAGDESYAN,In LA County,MONTEBELLO,90640,"1661  NEIL ARMSTRONG ST, MONTEBELLO, CA, 90640",34.0392362,-118.0958319,POINT (-118.0958319 34.0392362)
827,505571,BUSINESS MACHINES CONSULANTS INC,In LA County,VAN NUYS,91406,"16525  SHERMAN WAY , VAN NUYS, CA, 91406",34.2012493,-118.4728282,POINT (-118.4728282 34.2012493)
828,505571,BUSINESS MACHINES CONSULANTS INC,In LA County,VAN NUYS,91406,"16525  SHERMAN WAY , VAN NUYS, CA, 91406",34.2012493,-118.4728282,POINT (-118.4728282 34.2012493)
829,199727,BENCHMARQ,In LA County,LOS ANGELES,90027,"1652  N HOOVER ST, LOS ANGELES, CA, 90027",34.1012315,-118.28385,POINT (-118.28385 34.1012315)
830,171706,EDDINGS ENTERPRISES INC.,In LA County,GARDENA,90247,"16517  S. NORMANDIE AVE., GARDENA, CA, 90247",33.881086,-118.299832,POINT (-118.299832 33.881086)
831,171706,EDDINGS ENTERPRISES INC.,In LA County,GARDENA,90247,"16517  S NORMANDIE AVE, GARDENA, CA, 90247",33.881086,-118.299832,POINT (-118.299832 33.881086)
832,516402,ULTRASYSTEMS ENVIRONMENTAL INC,Outside of LA County,IRVINE,92618,"16431  SCIENTIFIC, IRVINE, CA, 92618",33.631296,-117.733434,POINT (-117.733434 33.631296)
833,116338,"A-TECH CONSULTING, INC.",Outside of LA County,ORANGE,92867,"1640  N BATAVIA ST, ORANGE, CA, 92867",33.8142601,-117.8625369,POINT (-117.8625369 33.8142601)
834,522066,CARDE TEN ARCHITECTS,In LA County,SANTA MONICA,90404,"1638  19TH STREET, SANTA MONICA, CA, 90404",34.024685,-118.477289,POINT (-118.477289 34.024685)
835,210321,GOLDEN PIG COLLECTION LLC,Outside of LA County,OXNARD,93036,"1637  RANGE RD, OXNARD, CA, 93036",,,POINT (NaN NaN)
836,113361,FRASER COMMUNICATIONS,In LA County,LOS ANGELES,90025,"1631  PONTIUS AVENUE, LOS ANGELES, CA, 90025",34.0483931,-118.4458764,POINT (-118.4458764 34.0483931)
837,171872,LENTINI DESIGN AND MARKETING,In LA County,LOS ANGELES,90019,"1626  VIRGINIA ROAD, LOS ANGELES, CA, 90019",34.0448689,-118.3319086,POINT (-118.3319086 34.0448689)
838,199378,SANKOFA COMPANY,In LA County,INGLEWOOD,90302,"1626  CENTINELA AVE , INGLEWOOD, CA, 90302",33.9771534,-118.3673714,POINT (-118.3673714 33.9771534)
839,101332,JANT PHARMACAL CORPORATION,In LA County,ENCINO,91436,"16255  VENTURA BLVD., , ENCINO, CA, 91436",34.1569979,-118.4876009,POINT (-118.4876009 34.1569979)
840,199883,"PATROL SOLUTIONS, LLC",Outside of LA County,ROSEVILLE,95661,"1624  SANTA CLARA DR , ROSEVILLE, CA, 95661",38.7420382,-121.2626156,POINT (-121.2626156 38.7420382)
841,47560,ALLEN ALARM SYSTEM INC,In LA County,PARAMOUNT,90723,"16226  GUNDRY AVE, PARAMOUNT, CA, 90723",33.886238,-118.1746783,POINT (-118.1746783 33.886238)
842,56087,ORDWAY SIGN SUPPLY,In LA County,VAN NUYS,91406,"16201  VANOWEN ST., VAN NUYS, CA, 91406",34.1939261,-118.4740438,POINT (-118.4740438 34.1939261)
843,191957,SHEP-TY INC,In LA County,INGLEWOOD,90302,"1620  CENTINELA AVE, INGLEWOOD, CA, 90302",33.9774039,-118.3676976,POINT (-118.3676976 33.9774039)
844,205716,OMEGA FIRE INC,In LA County,VAN NUYS,91406,"16134  VALERIO ST, VAN NUYS, CA, 91406",34.2048307,-118.4673028,POINT (-118.4673028 34.2048307)
845,187033,STAR COAT INC.,In LA County,LAWNDALE,90260,"16117  GREVILLEA AVE, LAWNDALE, CA, 90260",33.8842716,-118.354887,POINT (-118.354887 33.8842716)
846,129877,TRISTAR SAFETY SERVICES INC.,In LA County,COVINA,91722,"1611  W SAN BERNARDINO RD, COVINA, CA, 91722",34.0893416,-117.923535,POINT (-117.923535 34.0893416)
847,194575,"CHARGERHELP, INC",In LA County,LOS ANGELES,90062,"1611  W 58TH ST, LOS ANGELES, CA, 90062",33.9897934,-118.3047914,POINT (-118.3047914 33.9897934)
848,205523,ROOT & REBOUND,Outside of LA County,OAKLAND,94612,"1610  HARRISON ST, OAKLAND, CA, 94612",37.8046693,-122.2661603,POINT (-122.2661603 37.8046693)
849,128677,M3 OFFICE INC,In LA County,SOUTH PASADENA,91030,"161  PASADENA AVENUE, , SOUTH PASADENA, CA, 91030",34.1121092,-118.1729259,POINT (-118.1729259 34.1121092)
850,128677,M3 OFFICE INC,In LA County,SOUTH PASADENA,91030,"161  PASADENA AVENUE, SOUTH PASADENA, CA, 91030",34.1121092,-118.1729259,POINT (-118.1729259 34.1121092)
851,106576,PHILLIP'S DRAPERIES,In LA County,PASADENA,91107,"161  NORTH SIERRA MADRE BLVD, PASADENA, CA, 91107",34.1494592,-118.1007029,POINT (-118.1007029 34.1494592)
852,161884,ADRIANA SALINAS,In LA County,S PASADENA,91030,"1608  AMBERWOOD DR , S PASADENA, CA, 91030",34.122307,-118.1478722,POINT (-118.1478722 34.122307)
853,213059,GOTLOGOSBYA,In LA County,S PASADENA,91030,"1608  AMBERWOOD DR, S PASADENA, CA, 91030",34.122307,-118.1478722,POINT (-118.1478722 34.122307)
854,181887,LETICIA LEON YU,In LA County,HACIENDA HEIGHTS,91745,"1605  DOVERFIELD AVENUE, HACIENDA HEIGHTS, CA, 91745",34.0110417,-117.9924233,POINT (-117.9924233 34.0110417)
855,125034,ELLIS GROUP INC,In LA County,ENCINO,91436,"16030  VENTURA BLVD, ENCINO, CA, 91436",34.156089,-118.4821757,POINT (-118.4821757 34.156089)
856,181467,RED CLOUD LLC,In LA County,LOS ANGELES,90025,"1600  SAWTELLE BLVD, LOS ANGELES, CA, 90025",34.0471462,-118.4486111,POINT (-118.4486111 34.0471462)
857,147945,CALIFORNIA TESTING & INSPECTIONS,In LA County,PARAMOUNT,90723,"15957  VERMONT AVE, PARAMOUNT, CA, 90723",33.8886472,-118.1628264,POINT (-118.1628264 33.8886472)
858,185052,MVA EQUIPMENT RENTALS INC,In LA County,NORTH HILLS,91343,"15945  LIGGETT ST, NORTH HILLS, CA, 91343",34.2401994,-118.4797204,POINT (-118.4797204 34.2401994)
859,185052,MVA EQUIPMENT RENTALS INC,In LA County,NORTH HILLS,91343,"15945  LIGGETT ST, NORTH HILLS, CA, 91343",34.2401994,-118.4797204,POINT (-118.4797204 34.2401994)
860,207817,"HOGAN EVENTS GROUP, LLC.",In LA County,MANHATTAN BCH,90266,"1590  ROSECRANS AVE , MANHATTAN BCH, CA, 90266",33.9012622,-118.3845397,POINT (-118.3845397 33.9012622)
861,512813,CAPITAL OFFICE PRODUCTS,In LA County,SYLMAR,91342,"15840  MONTE STREET, SYLMAR, CA, 91342",34.3108669,-118.475302,POINT (-118.475302 34.3108669)
862,28116,FIRE DEVICE COMPANY,In LA County,LA PUENTE,91744,"15835  MAIN ST, LA PUENTE, CA, 91744",34.0201696,-117.9528884,POINT (-117.9528884 34.0201696)
863,122319,DIETZ HYDROSEEDING CO.,In LA County,SYLMAR,91342,"15745  KADOTA ST., SYLMAR, CA, 91342",34.3100572,-118.4748528,POINT (-118.4748528 34.3100572)
864,189554,COLEMAN EQUIPMENT RENTALS LLC,In LA County,PARAMOUNT,90723,"15723  VERMONT AVE, PARAMOUNT, CA, 90723",33.8907767,-118.162841,POINT (-118.162841 33.8907767)
865,52304,SOS SURVIVAL PRODUCTS,In LA County,VAN NUYS,91406,"15705  STRATHERN ST., , VAN NUYS, CA, 91406",,,POINT (NaN NaN)
866,52861,"AIR-EX AIR CONDITIONING, INC.",In LA County,POMONA,91767,"157  GENTRY ST., POMONA, CA, 91767",34.091604,-117.7512047,POINT (-117.7512047 34.091604)
867,156793,GOLDEN WEST ARBOR SERVICES INC.,In LA County,POMONA,91766,"1568  E. GRAND AVENUE, POMONA, CA, 91766",34.0483751,-117.7245963,POINT (-117.7245963 34.0483751)
868,208944,LANDSCO INC,In LA County,RNCH CASCADES,91342,"15626  OLDEN ST, RNCH CASCADES, CA, 91342",,,POINT (NaN NaN)
869,108971,SANJAY PANDYA,In LA County,GLENDORA,91740,"1557  CANYON MEADOWS LN, GLENDORA, CA, 91740",34.1236911,-117.8338162,POINT (-117.8338162 34.1236911)
870,185447,PAUL CROCKETT,In LA County,LOS ANGELES,90046,"1556  N. ORANGE GROVE AVE., LOS ANGELES, CA, 90046",34.0991002,-118.3603626,POINT (-118.3603626 34.0991002)
871,209280,HI-TOP ROOF INC,In LA County,PARAMOUNT,90723,"15532  ILLINOIS AVE, PARAMOUNT, CA, 90723",33.8925396,-118.165294,POINT (-118.165294 33.8925396)
872,149529,"NMS MANAGEMENT, INC.",Outside of LA County,NATIONAL CITY,91950,"155  WEST 35TH STREET, , NATIONAL CITY, CA, 91950",32.6507763,-117.0991305,POINT (-117.0991305 32.6507763)
873,139682,FOSTERALL,In LA County,GLENDALE,91201,"1544  WEST GLENOAKS BLVD, GLENDALE, CA, 91201",34.1691165,-118.2872202,POINT (-118.2872202 34.1691165)
874,170796,EXCELAND CARE,In LA County,MISSION HILLS,91345,"15431 VINTAGE STREET, MISSION HILLS, CA, 91345",34.2519719,-118.4691241,POINT (-118.4691241 34.2519719)
875,202382,"AMERICAN PROFESSIONAL MANUFACTURING, INC.",Outside of LA County,MODESTO,95350,"154  COYADO AVE, MODESTO, CA, 95350",37.6476721,-121.0086743,POINT (-121.0086743 37.6476721)
876,100157,"GENTERRA CONSULTANTS, INC.",Outside of LA County,IRVINE,92618,"15375  BARRANCA PKWY., , IRVINE, CA, 92618",33.6621052,-117.7424643,POINT (-117.7424643 33.6621052)
877,134793,J.P. COOKE CO,In LA County,SAN PEDRO,90732,"1536  WEST 25TH STREET, SAN PEDRO, CA, 90732",33.7225043,-118.3117299,POINT (-118.3117299 33.7225043)
878,187813,BLEENK MARKETING LLC,Outside of LA County,CHINO,91710,"15338  CENTRAL AVE, CHINO, CA, 91710",33.9755765,-117.6893368,POINT (-117.6893368 33.9755765)
879,107868,"I.T.S. GROUP, INC.",In LA County,LA MIRADA,90638,"15300  VALLEY VIEW AVE, LA MIRADA, CA, 90638",33.9145273,-118.0292189,POINT (-118.0292189 33.9145273)
880,107868,"I.T.S. GROUP, INC.",In LA County,LA MIRADA,90638,"15300  VALLEY VIEW AVE, LA MIRADA, CA, 90638",33.9145273,-118.0292189,POINT (-118.0292189 33.9145273)
881,28533,ROBERT ARSENIAN,In LA County,LOS ANGELES,90063,"1525  FISHBURN AVENUE, LOS ANGELES, CA, 90063",34.0576825,-118.1908882,POINT (-118.1908882 34.0576825)
882,211252,CANDISS CLENTON,In LA County,SHERMAN OAKS,91403,"15233  VENTURA BLVD, SHERMAN OAKS, CA, 91403",34.1540942,-118.465252,POINT (-118.465252 34.1540942)
883,117909,A CAL PEST CONTROL SERVICES INC,In LA County,S EL MONTE,91733,"1523  POTRERO AVE, S EL MONTE, CA, 91733",34.0470054,-118.0557231,POINT (-118.0557231 34.0470054)
884,147323,GLOBAL ENVIRONMENTAL TRAINING & CONSULTING INC,In LA County,WEST COVINA,91790,"1520  W CAMERON AVE , WEST COVINA, CA, 91790",34.0679654,-117.9415058,POINT (-117.9415058 34.0679654)
885,178237,INDUSTRIAL SURPLUS AND SALVAGE CORP,In LA County,LOS ANGELES,90004,"152  S LUCERNE BLVD, LOS ANGELES, CA, 90004",34.0720224,-118.3247128,POINT (-118.3247128 34.0720224)
886,182610,WICKED BIONIC,In LA County,LOS ANGELES,90024,"1516  WESTWOOD BLVD, LOS ANGELES, CA, 90024",34.0538699,-118.4403694,POINT (-118.4403694 34.0538699)
887,163356,COMMUNITY SCHOOL OF THE ARTS FOUNDATION,In LA County,LOS ANGELES,90017,"1515  W 8TH ST , LOS ANGELES, CA, 90017",34.0519894,-118.2712211,POINT (-118.2712211 34.0519894)
888,152082,BAYTEK ENGINEERING,In LA County,SHERMAN OAKS,91403,"15130  VENTURA BLVD, SHERMAN OAKS, CA, 91403",34.153114,-118.4624753,POINT (-118.4624753 34.153114)
889,168691,"MCKENNA BOILER WORKS, INC.",In LA County,LOS ANGELES,90012,"1510  N. SPRING ST., LOS ANGELES, CA, 90012",34.0679139,-118.2306902,POINT (-118.2306902 34.0679139)
890,208893,MATTHEW J ROSENBERG,In LA County,PASADENA,91105,"1506  CHEVIOTDALE DR, PASADENA, CA, 91105",34.1324759,-118.1794649,POINT (-118.1794649 34.1324759)
891,125045,RAYMOND R GOULD,In LA County,WHITTIER,90604,"15051  LEFFINGWELL ROAD , WHITTIER, CA, 90604",33.932068,-117.9856668,POINT (-117.9856668 33.932068)
892,207888,JUAN M MARQUEZ,In LA County,SYLMAR,91342,"15036  FLORENTINE ST, SYLMAR, CA, 91342",34.2942429,-118.4588848,POINT (-118.4588848 34.2942429)
893,195420,MCG & ASSOCIATES,In LA County,SHERMAN OAKS,91403,"15030  VENTURA BLVD , SHERMAN OAKS, CA, 91403",34.1526512,-118.4611857,POINT (-118.4611857 34.1526512)
894,212789,ASEP CONTRACTORS INC.,In LA County,VENICE,90291,"1501  LINCOLN BLVD , VENICE, CA, 90291",33.9971847,-118.4597874,POINT (-118.4597874 33.9971847)
895,167849,MERCY HOUSING CALIFORNIA,In LA County,LOS ANGELES,90015,"1500  S. GRAND AVE., LOS ANGELES, CA, 90015",34.036417,-118.2657751,POINT (-118.2657751 34.036417)
896,207516,"CLE ELECTRIC, INC",In LA County,HARBOR CITY,90710,"1500  240TH ST, HARBOR CITY, CA, 90710",33.8072083,-118.3046196,POINT (-118.3046196 33.8072083)
897,510088,D'AUTREMONT-HELMS & ASSOCIATES,In LA County,PASADENA,91105,"150  S. ARROYO PARKWAY, , PASADENA, CA, 91105",34.1426725,-118.1473369,POINT (-118.1473369 34.1426725)
898,121329,"PGI, INC.",In LA County,CITY OF INDUSTRY,91744,"14938  NELSON AVE, CITY OF INDUSTRY, CA, 91744",34.032897,-117.9666958,POINT (-117.9666958 34.032897)
899,517358,AQUABIO ENVIRONMENTAL TECHNOLOGIES INC,In LA County,GARDENA,90248,"14934  S FIGUEROA ST, GARDENA, CA, 90248",,,POINT (NaN NaN)
900,199772,OVERHEAD GARAGE DOOR & GATES INC,In LA County,SHERMAN OAKS,91413,"14900  MAGNOLIA BLVD , SHERMAN OAKS, CA, 91413",34.164769,-118.457579,POINT (-118.457579 34.164769)
901,55144,WECK ANALYTICAL ENVIRONMENTAL SERVICES INC,In LA County,CITY OF INDUSTRY,91745,"14859  E. CLARK AVENUE, CITY OF INDUSTRY, CA, 91745",,,POINT (NaN NaN)
902,203870,"MY FISH STOP, LLC",In LA County,SHERMAN OAKS,91411,"14843  1/2 BURBANK BLVD, SHERMAN OAKS, CA, 91411",,,POINT (NaN NaN)
903,179344,"FS CONTRACTORS, INC.",In LA County,SYLMAR,91342,"14838  BLEDSOE ST., SYLMAR, CA, 91342",34.3138159,-118.4556485,POINT (-118.4556485 34.3138159)
904,185786,"EXPERT PEST CONTROL SERVICES, INC",In LA County,MISSION HILLS,91345,"14800  RINALDI ST , MISSION HILLS, CA, 91345",34.279136,-118.455526,POINT (-118.455526 34.279136)
905,188463,"BETTER YOUTH, INC.",In LA County,LOS ANGELES,90028,"1465  TAMARIND AVE PMB 216, LOS ANGELES, CA, 90028",,,POINT (NaN NaN)
906,184225,VICTORIOUS R.E.D,In LA County,LA MIRADA,90638,"14640  INDUSTRY CIR , LA MIRADA, CA, 90638",33.8767771,-118.0215553,POINT (-118.0215553 33.8767771)
907,184225,VICTORIOUS R.E.D,In LA County,LA MIRADA,90638,"14640  INDUSTRY CIR, LA MIRADA, CA, 90638",33.8767771,-118.0215553,POINT (-118.0215553 33.8767771)
908,43984,CENTURY PAVING INC,In LA County,LA MIRADA,90638,"14630  FIRESTONE BLVD., LA MIRADA, CA, 90638",33.8790541,-118.0202151,POINT (-118.0202151 33.8790541)
909,209622,REDESIGN GROUP INC,In LA County,SHERMAN OAKS,91403,"14622  VENTURA BLVD , SHERMAN OAKS, CA, 91403",34.1510907,-118.4519165,POINT (-118.4519165 34.1510907)
910,188089,LAURA CAMACHO,In LA County,SHERMAN OAKS,91403,"14622  VENTURA BLVD, SHERMAN OAKS, CA, 91403",34.1510907,-118.4519165,POINT (-118.4519165 34.1510907)
911,104896,GOODWILL INDUSTRIES OF SOUTHERN CALIFORNIA,In LA County,PANORAMA CITY,91402,"14565  LANARK ST., PANORAMA CITY, CA, 91402",34.2180226,-118.4503661,POINT (-118.4503661 34.2180226)
912,160736,CENTER FOR LIVING AND LEARNING,In LA County,VAN NUYS,91405,"14549  ARCHWOOD STREET , VAN NUYS, CA, 91405",34.1930185,-118.450255,POINT (-118.450255 34.1930185)
913,209622,REDESIGN GROUP INC,In LA County,SHERMAN OAKS,91403,"14546  1/2 MOORPARK ST, SHERMAN OAKS, CA, 91403",,,POINT (NaN NaN)
914,178882,"PARAMOUNT SAFETY SUPPLY, INC.",In LA County,GARDENA,90249,"14516  CRENSHAW BLVD, GARDENA, CA, 90249",33.9009787,-118.3264626,POINT (-118.3264626 33.9009787)
915,183426,"HELPGOOD, LLC",In LA County,LOS ANGELES,90036,"145  S FAIRFAX AVE, LOS ANGELES, CA, 90036",34.0730315,-118.3617277,POINT (-118.3617277 34.0730315)
916,112825,NATIONAL RELOCATION SERVICES,In LA County,CITY INDUSTRY,91746,"14424  BONELLI ST, CITY INDUSTRY, CA, 91746",34.0263197,-117.9871507,POINT (-117.9871507 34.0263197)
917,112825,NATIONAL RELOCATION SERVICES,In LA County,CITY INDUSTRY,91746,"14424  BONELLI ST, CITY INDUSTRY, CA, 91746",34.0263197,-117.9871507,POINT (-117.9871507 34.0263197)
918,186113,PUBLIC MATTERS LLC,In LA County,LOS ANGELES,90026,"1439  ELEVADO STREET, LOS ANGELES, CA, 90026",34.0848941,-118.2730119,POINT (-118.2730119 34.0848941)
919,205496,CIRCLE OF WOMEN INC,In LA County,INGLEWOOD,90302,"1437  CENTINELA AVE, INGLEWOOD, CA, 90302",33.9767263,-118.3643255,POINT (-118.3643255 33.9767263)
920,186745,ALPHA SOLUTIONS INC,In LA County,SHERMAN OAKS,91423,"14320  VENTURA BLVD , SHERMAN OAKS, CA, 91423",34.1501162,-118.4443778,POINT (-118.4443778 34.1501162)
921,56594,BAINBRIDGE ENVIRONMENTAL CONSULTANT INC,In LA County,LA MIRADA,90638,"14251  FIRESTONE BLVD, LA MIRADA, CA, 90638",33.8829221,-118.0280259,POINT (-118.0280259 33.8829221)
922,187931,"ADVANCING THE SEED, INC.",In LA County,LA MIRADA,90638,"14241  FIRESTONE BLVD, LA MIRADA, CA, 90638",33.8829356,-118.0280387,POINT (-118.0280387 33.8829356)
923,190632,"MASA CONTRACTING, INC.",In LA County,ALHAMBRA,91803,"1424  W VALLEY BLVD, ALHAMBRA, CA, 91803",34.0775939,-118.138469,POINT (-118.138469 34.0775939)
924,200017,"360 MEDICAL, LLC.",In LA County,SAN DIMAS,91773,"142  E BONITA AVE, SAN DIMAS, CA, 91773",34.1065851,-117.8061374,POINT (-117.8061374 34.1065851)
925,101252,"J. OROZCO ENTERPRISES, INC.",In LA County,POMONA,91766,"1419  S EAST END AVE, POMONA, CA, 91766",34.0472793,-117.7238195,POINT (-117.7238195 34.0472793)
926,186084,"AVIATE ENTERPRISES, INC.",Outside of LA County,SACRAMENTO,95834,"1418  N MARKET BLVD, SACRAMENTO, CA, 95834",38.6465852,-121.49706,POINT (-121.49706 38.6465852)
927,194285,NEAL FULTZ,In LA County,LOS ANGELES,90024,"1417  VETERAN AVE , LOS ANGELES, CA, 90024",34.0531821,-118.4442532,POINT (-118.4442532 34.0531821)
928,166046,"GENESIS FLOOR COVERING, INC.",In LA County,SANTA FE SPGS,90670,"14101  PONTLAVOY AVE, SANTA FE SPGS, CA, 90670",,,POINT (NaN NaN)
929,182091,JT SITE SERVICES,In LA County,LA VERNE,91750,"1407  FOOTHILL BLVD , LA VERNE, CA, 91750",34.117206,-117.776656,POINT (-117.776656 34.117206)
930,60890,ADVANCED FILTRATION CONCEPTS INC,In LA County,NORWALK,90650,"14010  GRACEBEE AVE., NORWALK, CA, 90650",33.904325,-118.0541992,POINT (-118.0541992 33.904325)
931,188268,MINORIA TECH LLC,Out of State,DAYTONA BEACH,32114,"140  S BEACH ST, DAYTONA BEACH, CA, 32114",,,POINT (NaN NaN)
932,144443,WIRELESS INNOVATION SOLUTION I,In LA County,ARCADIA,91006,"140  E SANTA CLARA ST, ARCADIA, CA, 91006",34.1422254,-118.0270306,POINT (-118.0270306 34.1422254)
933,189486,PROJECT ROPA,In LA County,GARDENA,90249,"13970  VAN NESS AVE, GARDENA, CA, 90249",33.9048659,-118.317701,POINT (-118.317701 33.9048659)
934,189486,PROJECT ROPA,In LA County,GARDENA,90249,"13970  VAN NESS AVE, GARDENA, CA, 90249",33.9048659,-118.317701,POINT (-118.317701 33.9048659)
935,148143,WEST COAST AERIAL PHOTOGRAPHY INC,In LA County,SHERMAN OAKS,91423,"13956  MAGNOLIA BLVD, SHERMAN OAKS, CA, 91423",34.1647804,-118.4367857,POINT (-118.4367857 34.1647804)
936,172256,"WEST COAST FIRE PROTECTION, INC.",Outside of LA County,CHINO,91710,"13933  RAMONA AVE , CHINO, CA, 91710",34.0001658,-117.7063676,POINT (-117.7063676 34.0001658)
937,132472,INTERNATIONAL COATINGS COMPANY,In LA County,CERRITOS,90702,"13929  E. 166TH STREET, CERRITOS, CA, 90702",,,POINT (NaN NaN)
938,202261,"BROTHERS BUILDING SERVICES, LLC",In LA County,NORWALK,90650,"13922  LONGWORTH AVE, NORWALK, CA, 90650",33.9049298,-118.093048,POINT (-118.093048 33.9049298)
939,209254,EMERGENCY CAFE LLC,In LA County,MARINA DL REY,90292,"13900  PANAY WAY, MARINA DL REY, CA, 90292",,,POINT (NaN NaN)
940,191395,RJ INTERNATIONAL,In LA County,MARINA DEL REY,90292,"13900  MARQUESAS WAY, MARINA DEL REY, CA, 90292",33.976371,-118.453252,POINT (-118.453252 33.976371)
941,157878,"RWBID CONSTRUCTION MANAGEMENT, LLC",In LA County,HERMOSA BEACH,90254,"139  HERMOSA AVE, HERMOSA BEACH, CA, 90254",33.8544881,-118.3981178,POINT (-118.3981178 33.8544881)
942,186370,PIVOT HOUND COMMUNICATIONS,In LA County,PASADENA,91104,"1385  N EL MOLINO AVE, PASADENA, CA, 91104",34.1688417,-118.1370859,POINT (-118.1370859 34.1688417)
943,205626,"QUALITY TECH SOLUTIONS, LLC",Outside of LA County,EASTVALE,92880,"13824  WINDROSE AVE, EASTVALE, CA, 92880",33.9558647,-117.5853164,POINT (-117.5853164 33.9558647)
944,10404,PACIFIC MECHANICAL SUPPLY CO.,In LA County,SANTA FE SPGS,90670,"13705  MILROY PL, SANTA FE SPGS, CA, 90670",,,POINT (NaN NaN)
945,510660,COMMLINE INC,In LA County,GARDENA,90249,"13700  CIMARRON AVE, GARDENA, CA, 90249",33.9080209,-118.3155368,POINT (-118.3155368 33.9080209)
946,200291,GOODSIDES LLC,In LA County,LOS ANGELES,90028,"1370  N ST ANDREWS PL, LOS ANGELES, CA, 90028",34.0964843,-118.3108457,POINT (-118.3108457 34.0964843)
947,526384,PHILLIPS STEEL COMPANY,In LA County,LONG BEACH,90813,"1368  W ANAHEIM ST, LONG BEACH, CA, 90813",33.7826167,-118.2103673,POINT (-118.2103673 33.7826167)
948,48325,WEIL AQUATRONICS,In LA County,NORWALK,90650,"13630  SAN ANTONIO DR, NORWALK, CA, 90650",33.9071443,-118.0771209,POINT (-118.0771209 33.9071443)
949,56872,ADAPT CONSULTING INC,In LA County,VAN NUYS,91401,"13618  LEMAY STREET, VAN NUYS, CA, 91401",34.1919631,-118.4415821,POINT (-118.4415821 34.1919631)
950,207948,HEALTH MATTERS CLINIC,In LA County,LOS ANGELES,90015,"1360  S FIGUEROA ST, LOS ANGELES, CA, 90015",34.0393889,-118.2685752,POINT (-118.2685752 34.0393889)
951,163141,BRILLIANT CORNERS,Outside of LA County,SAN FRANCISCO,94103,"1360  MISSION ST , SAN FRANCISCO, CA, 94103",37.7758807,-122.4156317,POINT (-122.4156317 37.7758807)
952,113835,GEORGE MARTINEZ,In LA County,MONROVIA,91016,"136  W. POMONA AVE., MONROVIA, CA, 91016",34.134155,-118.001547,POINT (-118.001547 34.134155)
953,161263,ALLIANCE BUILDING MAINTENANCE,In LA County,MONROVIA,91016,"136  W POMONA AVE, MONROVIA, CA, 91016",34.134155,-118.001547,POINT (-118.001547 34.134155)
954,205531,MDK CIRCUIT BREAKER INC,In LA County,LA PUENTE,91746,"136  S 8TH AVE , LA PUENTE, CA, 91746",,,POINT (NaN NaN)
955,199369,EXTREME OVERHEAD DOORS INC,In LA County,NORWALK,90650,"13554  PUMICE ST, NORWALK, CA, 90650",33.8975313,-118.0435953,POINT (-118.0435953 33.8975313)
956,166300,BOOKS ON THE BOULEVARD,In LA County,SHERMANN OAKS,91423,"13551  VENTURA BLVD., SHERMANN OAKS, CA, 91423",,,POINT (NaN NaN)
957,176665,SMARTRISE ELEVATOR SERVICE INC,In LA County,SANTA FE SPRINGS,90670,"13523  LARWIN CIR, SANTA FE SPRINGS, CA, 90670",33.9087979,-118.0383966,POINT (-118.0383966 33.9087979)
958,179438,MAKAI SOLUTIONS,In LA County,GARDENA,90247,"13509  S RAYMOND AVE, GARDENA, CA, 90247",,,POINT (NaN NaN)
959,213392,"CALIFORNIA NOZZLE SPECIALISTS CO., INC.",In LA County,GARDENA,90249,"13506  S NORMANDIE AVE, GARDENA, CA, 90249",33.9090092,-118.3002713,POINT (-118.3002713 33.9090092)
960,56175,PRACTICE,In LA County,PASADENA,91105,"135  W GREEN ST , PASADENA, CA, 91105",34.1446679,-118.1534277,POINT (-118.1534277 34.1446679)
961,118077,"POLARIS ELECTRIC CO., INC.",In LA County,EL SEGUNDO,90245,"135  RICHMOND ST., EL SEGUNDO, CA, 90245",33.9174547,-118.4173467,POINT (-118.4173467 33.9174547)
962,125440,PASADENA CONSTRUCTION & INTERIORS,In LA County,PASADENA,91101,"135  N MARENGO AVE, PASADENA, CA, 91101",34.148234,-118.146063,POINT (-118.146063 34.148234)
963,16808,"PARADISE PRINTING, INC.",In LA County,NORWALK,90650,"13474  PUMICE STREET, NORWALK, CA, 90650",33.8976743,-118.0452562,POINT (-118.0452562 33.8976743)
964,41601,AAA ELECTRIC MOTOR SALES & SERVICE INC,In LA County,LOS ANGELES,90006,"1346  VENICE BLVD, LOS ANGELES, CA, 90006",34.0433125,-118.2832347,POINT (-118.2832347 34.0433125)
965,517031,VENICE ARTS,In LA County,MARINA DL REY,90292,"13445  BEACH AVE, MARINA DL REY, CA, 90292",,,POINT (NaN NaN)
966,517031,VENICE ARTS,In LA County,VENICE,90292,"13445  BEACH AVE, VENICE, CA, 90292",33.98311,-118.4605154,POINT (-118.4605154 33.98311)
967,163490,CHATTEL INC,In LA County,LOS ANGELES,91423,"13417  VENTURA BOULEVARD, LOS ANGELES, CA, 91423",34.1471441,-118.4254306,POINT (-118.4254306 34.1471441)
968,101181,BAKE R US,In LA County,GARDENA,90249,"13400  S WESTERN AVENUE, GARDENA, CA, 90249",33.910694,-118.308992,POINT (-118.308992 33.910694)
969,173821,BASHBOY ENTERPRISES INC,In LA County,LOS ANGELES,90044,"1340  W 104TH STREET, LOS ANGELES, CA, 90044",33.9422318,-118.2990108,POINT (-118.2990108 33.9422318)
970,159611,NEXXSOL CORPORATION,In LA County,COVINA,91724,"1338  CENTER COURT DR, COVINA, CA, 91724",34.0723844,-117.8624943,POINT (-117.8624943 34.0723844)
971,193836,J&S BUILDING MAINTENANCE INC.,In LA County,SANTA FE SPGS,90670,"13353  ALONDRA BLVD , SANTA FE SPGS, CA, 90670",,,POINT (NaN NaN)
972,193836,J&S BUILDING MAINTENANCE INC.,In LA County,SANTA FE SPRINGS,90670,"13353  ALONDRA BLVD, SANTA FE SPRINGS, CA, 90670",33.8879955,-118.0477543,POINT (-118.0477543 33.8879955)
973,25293,ALLIED PACKING AND RUBBER INC,In LA County,LONG BEACH,90813,"1335  W. 11TH ST, LONG BEACH, CA, 90813",33.7808233,-118.2097319,POINT (-118.2097319 33.7808233)
974,192603,SAAHAS FOR CAUSE,In LA County,CERRITOS,90703,"13337  SOUTH ST , CERRITOS, CA, 90703",33.8601565,-118.0471499,POINT (-118.0471499 33.8601565)
975,192603,SAAHAS FOR CAUSE,In LA County,CERRITOS,90703,"13337  SOUTH ST , CERRITOS, CA, 90703",33.8601565,-118.0471499,POINT (-118.0471499 33.8601565)
976,199883,"PATROL SOLUTIONS, LLC",In LA County,NORWALK,90650,"13314  MAPLEDALE ST, NORWALK, CA, 90650",33.898684,-118.0481046,POINT (-118.0481046 33.898684)
977,199883,"PATROL SOLUTIONS, LLC",In LA County,NORWALK,90650,"13314  MAPLEDALE ST, NORWALK, CA, 90650",33.898684,-118.0481046,POINT (-118.0481046 33.898684)
978,199883,"PATROL SOLUTIONS, LLC",In LA County,NORWALK,90650,"13314  MAPLEDALE ST, NORWALK, CA, 90650",33.898684,-118.0481046,POINT (-118.0481046 33.898684)
979,195138,DECADENZA INC,In LA County,BALDWIN PARK,91706,"13300  BROOKS DR , BALDWIN PARK, CA, 91706",34.0983327,-117.9831657,POINT (-117.9831657 34.0983327)
980,175474,DIVERSIFIED LEASING,In LA County,ALHAMBRA,91801,"1330  W. MAIN ST., ALHAMBRA, CA, 91801",34.0914695,-118.1375257,POINT (-118.1375257 34.0914695)
981,206773,REBECCA RODRIGUEZ PHOTOGRAPHY,In LA County,LOS ANGELES,90048,"133  S SWEETZER AVE, LOS ANGELES, CA, 90048",34.0739809,-118.3701047,POINT (-118.3701047 34.0739809)
982,168416,SEVERN SAFETY SUPPLY LLC,Outside of LA County,BENICIA,94510,"133  RANKIN WAY, BENICIA, CA, 94510",38.0610719,-122.1499426,POINT (-122.1499426 38.0610719)
983,193490,"BREAD & WATER LANDSCAPE, LLC",In LA County,PACOIMA,91331,"13283  JUDD ST, PACOIMA, CA, 91331",34.269968,-118.42245,POINT (-118.42245 34.269968)
984,182610,WICKED BIONIC,In LA County,LOS ANGELES,90024,"1328  WESTWOOD BLVD, LOS ANGELES, CA, 90024",34.0564393,-118.4423028,POINT (-118.4423028 34.0564393)
985,511225,ROADLINE PRODUCTS,In LA County,DOWNEY,90242,"13253  STANBRIDGE AVE., DOWNEY, CA, 90242",33.9107825,-118.1278335,POINT (-118.1278335 33.9107825)
986,121512,AMERICAN WATER WORKS INC,In LA County,PACOIMA,91331,"13250  WEIDNER ST, PACOIMA, CA, 91331",34.2740475,-118.4226318,POINT (-118.4226318 34.2740475)
987,521681,COVENANT HOUSE CALIFORNIA,In LA County,LOS ANGELES,90027,"1325  N WESTERN AVE, LOS ANGELES, CA, 90027",34.0951186,-118.309114,POINT (-118.309114 34.0951186)
988,56594,BAINBRIDGE ENVIRONMENTAL CONSULTANT INC,Outside of LA County,TUSTIN,92780,"1322  BELL AVENUE, , TUSTIN, CA, 92780",33.715528,-117.8384606,POINT (-117.8384606 33.715528)
989,56594,BAINBRIDGE ENVIRONMENTAL CONSULTANT INC,Outside of LA County,TUSTIN,92780,"1322  BELL AVENUE , TUSTIN, CA, 92780",33.715528,-117.8384606,POINT (-117.8384606 33.715528)
990,167422,C J K CONSTRUCTION INC.,In LA County,GARDENA,90249,"13219  HALLDALE AVE, GARDENA, CA, 90249",33.9123703,-118.3023863,POINT (-118.3023863 33.9123703)
991,167422,C J K CONSTRUCTION INC.,In LA County,GARDENA,90249,"13219  HALLDALE AVE, GARDENA, CA, 90249",33.9123703,-118.3023863,POINT (-118.3023863 33.9123703)
992,167422,C J K CONSTRUCTION INC.,In LA County,GARDENA,90249,"13219  HALLDALE AVE, GARDENA, CA, 90249",33.9123703,-118.3023863,POINT (-118.3023863 33.9123703)
993,526162,HOMEBOY INDUSTRIES,In LA County,LOS ANGELES,90021,"1320  S. SANTA FE AVE., LOS ANGELES, CA, 90021",34.0276859,-118.2298358,POINT (-118.2298358 34.0276859)
994,59468,"RAYCOM DATA TECHNOLOGIES, INC",In LA County,EL SEGUNDO,90245,"1320  E. IMPERIAL AVE., EL SEGUNDO, CA, 90245",33.9306595,-118.4020459,POINT (-118.4020459 33.9306595)
995,187706,JAMES BUSH,In LA County,LA MIRADA,90638,"13148  SAN FELIPE ST, LA MIRADA, CA, 90638",33.9120684,-117.9887032,POINT (-117.9887032 33.9120684)
996,139996,"LEED ELECTRIC, INC.",In LA County,SANTA FE SPRINGS,90670,"13138  ARCTIC CIRCLE, SANTA FE SPRINGS, CA, 90670",33.893376,-118.0525157,POINT (-118.0525157 33.893376)
997,138199,"QUALITY ENVIRONMENTAL, INC.",In LA County,SANTA FE SPGS,90670,"13123  LAKELAND RD , SANTA FE SPGS, CA, 90670",,,POINT (NaN NaN)
998,138199,"QUALITY ENVIRONMENTAL, INC.",In LA County,SANTA FE SPGS,90670,"13123  LAKELAND RD, SANTA FE SPGS, CA, 90670",,,POINT (NaN NaN)
999,134793,J.P. COOKE CO,Out of State,OMAHA,68102,"1311  HOWARD STREET, OMAHA, CA, 68102",,,POINT (NaN NaN)
1000,134793,J.P. COOKE CO,Out of State,OMAHA,68102,"1311  HOWARD STREET, OMAHA, CA, 68102",,,POINT (NaN NaN)
1001,134793,J.P. COOKE CO,Out of State,OMAHA,68102,"1311  HOWARD ST, OMAHA, CA, 68102",,,POINT (NaN NaN)
1002,168513,"RESOURCE ENVIRONMENTAL, INC.",In LA County,CERRITOS,90703,"13100  ALONDRA BLVD , CERRITOS, CA, 90703",33.8877201,-118.0536284,POINT (-118.0536284 33.8877201)
1003,207899,"MG ENTERTAINMENT, LLC",In LA County,COMPTON,90221,"1310  N MCDIVITT AVE, COMPTON, CA, 90221",33.9046066,-118.2179925,POINT (-118.2179925 33.9046066)
1004,119437,CORPORATE SPACES INC,In LA County,PASADENA,91101,"131  NORTH EL MOLINO , PASADENA, CA, 91101",34.1480044,-118.1370005,POINT (-118.1370005 34.1480044)
1005,119437,CORPORATE SPACES INC,In LA County,PASADENA,91101,"131  N EL MOLLINO AVENUE , PASADENA, CA, 91101",,,POINT (NaN NaN)
1006,30116,ASKEW INDUSTRIAL CORPORATION,In LA County,SANTA FE SPRINGS,90670,"13071  ARCTIC CIRCLE, SANTA FE SPRINGS, CA, 90670",33.8937922,-118.0532522,POINT (-118.0532522 33.8937922)
1007,159004,LOGIXSERVICE INC,Outside of LA County,SAN CLEMENTE,92673,"1305  CALLE AVANZADO, SAN CLEMENTE, CA, 92673",33.457843,-117.5848512,POINT (-117.5848512 33.457843)
1008,183404,INTERNATIONAL CONSULTING UNLTD,In LA County,SANTA FE SPRINGS,90670,"13045  PARK ST, SANTA FE SPRINGS, CA, 90670",33.940513,-118.0545854,POINT (-118.0545854 33.940513)
1009,183404,INTERNATIONAL CONSULTING UNLTD,In LA County,SANTA FE SPRINGS,90670,"13045  PARK ST, SANTA FE SPRINGS, CA, 90670",33.940513,-118.0545854,POINT (-118.0545854 33.940513)
1010,142527,EWASTE DISPOSAL INC,In LA County,SANTA FE SPRINGS,90670,"13037  LAKELAND ROAD, SANTA FE SPRINGS, CA, 90670",33.9318118,-118.0539051,POINT (-118.0539051 33.9318118)
1011,142527,EWASTE DISPOSAL INC,In LA County,SANTA FE SPGS,90670,"13037  LAKELAND RD, SANTA FE SPGS, CA, 90670",,,POINT (NaN NaN)
1012,206006,"WEST COAST BOILER, INC.",In LA County,SANTA FE SPGS,90670,"13013  LOS NIETOS RD , SANTA FE SPGS, CA, 90670",,,POINT (NaN NaN)
1013,520558,CX & B UNITED CORP,In LA County,HARBOR CITY,90710,"1301  253RD ST, HARBOR CITY, CA, 90710",33.794814,-118.299355,POINT (-118.299355 33.794814)
1014,526162,HOMEBOY INDUSTRIES,In LA County,LOS ANGELES,90012,"130  W BRUNO STREET, LOS ANGELES, CA, 90012",34.0623849,-118.2352991,POINT (-118.2352991 34.0623849)
1015,181518,"HOMEBOY RECYCLING, A CALIFORNIA SOCIAL PURPOSE CORPORATION",In LA County,LOS ANGELES,90012,"130  BRUNO ST, LOS ANGELES, CA, 90012",34.0624267,-118.2358012,POINT (-118.2358012 34.0624267)
1016,138012,"ALLEGRA CONSULTING, INC.",In LA County,PASADENA,91101,"129 A N MARENGO AVE, PASADENA, CA, 91101",34.1460382,-118.1459905,POINT (-118.1459905 34.1460382)
1017,25569,"WEST-LITE SUPPLY CO., INC.",In LA County,CERRITOS,90703,"12951  166TH ST, CERRITOS, CA, 90703",33.8805742,-118.056323,POINT (-118.056323 33.8805742)
1018,111722,DIRECT A/V INC,In LA County,HAWTHORNE,90250,"12932  WEBER WAY, HAWTHORNE, CA, 90250",33.9156718,-118.3314065,POINT (-118.3314065 33.9156718)
1019,500817,MCKENDRY DOOR SALES,In LA County,SANTA FE SPRINGS,90670,"12930  SUNNYSIDE PLACE, SANTA FE SPRINGS, CA, 90670",33.9292748,-118.0556686,POINT (-118.0556686 33.9292748)
1020,138012,"ALLEGRA CONSULTING, INC.",In LA County,PASADENA,91101,"129  N MARENGO AVE, PASADENA, CA, 91101",34.1482111,-118.1460619,POINT (-118.1460619 34.1482111)
1021,52729,GOLDEN STAR TECHNOLOGY,In LA County,CERRITOS,90703,"12881  166TH ST, CERRITOS, CA, 90703",33.8805596,-118.0576413,POINT (-118.0576413 33.8805596)
1022,153978,SARK CUSTOM AWNINGS & WINDOW COVERINGS INC,In LA County,PACOIMA,91331,"12832  MUSCATINE ST, PACOIMA, CA, 91331",,,POINT (NaN NaN)
1023,520107,URBAN GRAFFITI ENTERPRISES INC,In LA County,AZUSA,91702,"1280  MOUNTAIN VIEW CIR., AZUSA, CA, 91702",,,POINT (NaN NaN)
1024,62324,"ALPHA PRINTING & GRAPHICS, INC",In LA County,IRWINDALE,91706,"12758  SCHABARUM AVE., IRWINDALE, CA, 91706",34.0805415,-117.9956437,POINT (-117.9956437 34.0805415)
1025,62324,"ALPHA PRINTING & GRAPHICS, INC",In LA County,IRWINDALE,91706,"12758  SCHABARUM AVE, IRWINDALE, CA, 91706",34.0805415,-117.9956437,POINT (-117.9956437 34.0805415)
1026,517351,CHAS E MORTON COMPANY,In LA County,POMONA,91766,"1275  W 2ND ST, POMONA, CA, 91766",34.05749,-117.7670024,POINT (-117.7670024 34.05749)
1027,40190,CANNON SPORTS INC,In LA County,PACOIMA,91331,"12701  VAN NUYS BLVD, , PACOIMA, CA, 91331",34.2747071,-118.4101321,POINT (-118.4101321 34.2747071)
1028,174587,TERRA ENVIRONMENTAL SERVICES INC.,In LA County,SANTA FE SPGS,90670,"12631  IMPERIAL HWY , SANTA FE SPGS, CA, 90670",,,POINT (NaN NaN)
1029,155995,"BLACKGOLD DEVELOPMENT, INC.D.B.A. A.C. PAVING COMPANY",In LA County,SANTA FE SPRINGS,90670,"12623  IMPERIAL HIGHWAY, SANTA FE SPRINGS, CA, 90670",33.9173018,-118.0629881,POINT (-118.0629881 33.9173018)
1030,178103,KANA SUBSURFACE ENGINEERING,Outside of LA County,RIVERSIDE,92503,"12620  MAGNOLIA AVE, RIVERSIDE, CA, 92503",33.8879116,-117.5039832,POINT (-117.5039832 33.8879116)
1031,183313,CIMADEX INTERNATIONAL LLC,In LA County,HAWTHORNE,90250,"12618  YUKON AVE, HAWTHORNE, CA, 90250",33.9180076,-118.3351543,POINT (-118.3351543 33.9180076)
1032,174479,SOUTHERN CALI PEST CONTROL,In LA County,NORWALK,90650,"12608  LEIBACHER AVE., NORWALK, CA, 90650",33.91667,-118.1030564,POINT (-118.1030564 33.91667)
1033,120311,ERIK W ECKERT,In LA County,LOS ANGELES,90066,"12606  SANFORD ST, LOS ANGELES, CA, 90066",33.9829706,-118.4183526,POINT (-118.4183526 33.9829706)
1034,158975,"A PLUS ADVANCED TINTING,  INC.",In LA County,WHITTIER,90606,"12535  EVARO DRIVE, WHITTIER, CA, 90606",33.9639065,-118.0485368,POINT (-118.0485368 33.9639065)
1035,212791,GOLDEN STATE GASES LLC,In LA County,NORWALK,90650,"12519  ALARKA ST, NORWALK, CA, 90650",33.9119289,-118.0653431,POINT (-118.0653431 33.9119289)
1036,189471,"KISBA CONTRACTING, INC.",In LA County,POMONA,91768,"125  MERCURY CIRCLE, POMONA, CA, 91768",34.0564475,-117.8020775,POINT (-117.8020775 34.0564475)
1037,514590,FLOOR TECH AMERICA INC,In LA County,POMONA,91768,"125  MERCURY CIR, POMONA, CA, 91768",34.0564475,-117.8020775,POINT (-117.8020775 34.0564475)
1038,191361,OCEAN SAFARI OUTDOORS INC.,In LA County,SAN GABRIEL,91776,"125  E LAS TUNAS DR, SAN GABRIEL, CA, 91776",34.102981,-118.098816,POINT (-118.098816 34.102981)
1039,205142,"SNAP PRODUCTIONS, INC.",In LA County,LOS ANGELES,90019,"1244  S ORANGE DR, LOS ANGELES, CA, 90019",34.0522623,-118.3452959,POINT (-118.3452959 34.0522623)
1040,210124,EDUARDO RODRIGUEZ,In LA County,LOS ANGELES,90001,"1241  E 60TH ST, LOS ANGELES, CA, 90001",33.985293,-118.2532397,POINT (-118.2532397 33.985293)
1041,181479,"EMERGENCY VEHICLE SPECIALTIES, EVS INC.",In LA County,WHITTIER,90602,"12366  PENN ST, WHITTIER, CA, 90602",33.9753867,-118.0446898,POINT (-118.0446898 33.9753867)
1042,51484,MARTINEZ LANDSCAPE CO. INC,In LA County,SYLMAR,91342,"12357  SAN FERNANDO ROAD, SYLMAR, CA, 91342",34.2950595,-118.4529328,POINT (-118.4529328 34.2950595)
1043,56834,EXPRESS PRINTING SERVICE INC,In LA County,WHITTIER,90602,"12347  PENN ST, WHITTIER, CA, 90602",33.975552,-118.045407,POINT (-118.045407 33.975552)
1044,212316,"THE HOSPITAL EQUIPMENT COMPANY, LLC.",In LA County,MANHATTAN BCH,90266,"1230  ROSECRANS AVE, MANHATTAN BCH, CA, 90266",33.9013962,-118.3921008,POINT (-118.3921008 33.9013962)
1045,100216,WEST ADVANCED TECHNOLOGIES INC,In LA County,MANHATTAN BEACH,90266,"1230  ROSECRANS AVE, MANHATTAN BEACH, CA, 90266",33.9013962,-118.3921008,POINT (-118.3921008 33.9013962)
1046,164302,FIRE ACE INC,In LA County,LANCASTER,93534,"123  NUGENT STREET, LANCASTER, CA, 93534",34.6931997,-118.1306956,POINT (-118.1306956 34.6931997)
1047,214959,PAYLESS GLASS SERVICES INC.,In LA County,POMONA,91767,"1229  E HOLT AVE, POMONA, CA, 91767",34.0630852,-117.7249314,POINT (-117.7249314 34.0630852)
1048,522068,ALBERT UZUNYAN,In LA County,N HOLLYWOOD,91605,"12227  HARTLAND ST, N HOLLYWOOD, CA, 91605",34.195045,-118.3999062,POINT (-118.3999062 34.195045)
1049,7770,VALVATE ASSOCIATES,In LA County,WHITTIER,90601,"12221  HADLEY ST, WHITTIER, CA, 90601",33.9828225,-118.0464408,POINT (-118.0464408 33.9828225)
1050,102317,J D SALES CO INC,In LA County,EL SEGUNDO,90245,"122  PENN ST, EL SEGUNDO, CA, 90245",33.9170756,-118.4097435,POINT (-118.4097435 33.9170756)
1051,171780,"AIR WEST MECHANICAL CONSTRUCTION, INC.",In LA County,NORWALK,90650,"12166  FRONT ST., NORWALK, CA, 90650",33.9075524,-118.0744989,POINT (-118.0744989 33.9075524)
1052,152280,YOUNG WOMEN'S CHRISTIAN ASSOCIATION,In LA County,LOS ANGELES,90038,"1215  LODI PL, LOS ANGELES, CA, 90038",34.0929077,-118.323462,POINT (-118.323462 34.0929077)
1053,172138,TRIANGLE SPORTS INCORPORATED,In LA County,CITY OF INDUSTY,91745,"1215  JOHN REED CT, CITY OF INDUSTY, CA, 91745",,,POINT (NaN NaN)
1054,56430,INDUSTRIAL RADIO COMMUNICATIONS CORP,In LA County,EL SEGUNDO,90245,"1212  E. IMPERIAL AVE., EL SEGUNDO, CA, 90245",33.930677,-118.4031978,POINT (-118.4031978 33.930677)
1055,56430,INDUSTRIAL RADIO COMMUNICATIONS CORP,In LA County,EL SEGUNDO,90245,"1212  E. IMPERIAL AVE., EL SEGUNDO, CA, 90245",33.930677,-118.4031978,POINT (-118.4031978 33.930677)
1056,516673,TERRA PAVE INC,In LA County,WHITTIER,90606,"12115  RIVERA RD, WHITTIER, CA, 90606",33.9660831,-118.0544144,POINT (-118.0544144 33.9660831)
1057,147625,SIMPLY GREEN SOLUTIONS,In LA County,ARCADIA,91006,"12101  CLARK STREET , ARCADIA, CA, 91006",34.0992427,-117.9988334,POINT (-117.9988334 34.0992427)
1058,156188,GREEN TRANSLATIONS,In LA County,LOS ANGELES,90025,"12100  WILSHIRE BLVD, LOS ANGELES, CA, 90025",34.0434918,-118.4676737,POINT (-118.4676737 34.0434918)
1059,162764,NEW EARTH ORGANIZATION,In LA County,LOS ANGELES,90066,"12100  W WASHINGTON BLVD, LOS ANGELES, CA, 90066",33.9971813,-118.4243194,POINT (-118.4243194 33.9971813)
1060,207745,OSCAR PAYAN,In LA County,WHITTIER,90606,"12039  GREYFORD ST, WHITTIER, CA, 90606",33.9693395,-118.0551607,POINT (-118.0551607 33.9693395)
1061,62203,"ADVANTEC CONSULTING ENGINEERS,INC.",Outside of LA County,IRVINE,92620,"1200  ROOSEVELT, IRVINE, CA, 92620",33.6926512,-117.7678779,POINT (-117.7678779 33.6926512)
1062,514493,SOUTHWESTERN CLEAN FUELS CORP,In LA County,MONROVIA,91016,"120  E DUARTE RD, MONROVIA, CA, 91016",34.132127,-118.000446,POINT (-118.000446 34.132127)
1063,527388,HISTORIC RESOURCES GROUP,In LA County,PASADENA,91105,"12  S FAIR OAKS AVE , PASADENA, CA, 91105",34.1248569,-118.1502719,POINT (-118.1502719 34.1248569)
1064,508244,"LEE & RO, INC.",In LA County,CITY OF INDUSTRY,91748,"1199  S. FULLERTON ROAD, CITY OF INDUSTRY, CA, 91748",33.9937344,-117.9052239,POINT (-117.9052239 33.9937344)
1065,182873,DARROW HEATING & AIR CONDITIONING CORPORATION,In LA County,NORTH HOLLYWOOD,91605,"11944  VALERIO ST., NORTH HOLLYWOOD, CA, 91605",34.2047448,-118.3932038,POINT (-118.3932038 34.2047448)
1066,164906,"DESTINATION ENTERPRISES, INC.",In LA County,CULVER CITY,90230,"11940  HAMMACK STREET, CULVER CITY, CA, 90230",33.9890642,-118.405153,POINT (-118.405153 33.9890642)
1067,62925,PERRIS FENCE & SUPPLY INC,In LA County,DOWNEY,90241,"11926  WOODRUFF AVE, DOWNEY, CA, 90241",33.9274117,-118.1165804,POINT (-118.1165804 33.9274117)
1068,29316,ABISCO PRODUCTS CO,In LA County,SANTA FE SPRINGS,90670,"11925  LOS NIETOS ROAD, SANTA FE SPRINGS, CA, 90670",33.9569984,-118.0704525,POINT (-118.0704525 33.9569984)
1069,29316,ABISCO PRODUCTS CO,In LA County,SANTA FE SPGS,90670,"11925  LOS NIETOS RD, SANTA FE SPGS, CA, 90670",,,POINT (NaN NaN)
1070,205660,LUCKYLADY REMOVAL,In LA County,LOS ANGELES,90061,"11919  S FIGUEROA ST , LOS ANGELES, CA, 90061",33.9244527,-118.2826788,POINT (-118.2826788 33.9244527)
1071,151585,TITAN ENVIRONMENTAL SOLUTIONS INC,In LA County,WHITTIER,90606,"11838  WASHINGTON BLVD, WHITTIER, CA, 90606",33.9687421,-118.0559563,POINT (-118.0559563 33.9687421)
1072,200286,DELTA 4 ENVIRONMENTAL INC.,In LA County,SANTA FE SPGS,90670,"11823  SLAUSON AVE , SANTA FE SPGS, CA, 90670",,,POINT (NaN NaN)
1073,197899,BIG AL'S MOTORS SALES AND SERVICES LLC,In LA County,SANTA FE SPGS,90670,"11823  SLAUSON AVE, SANTA FE SPGS, CA, 90670",,,POINT (NaN NaN)
1074,201546,UNMODERN INDUSTRIES,In LA County,SANTA FE SPGS,90670,"11783  SLAUSON AVE, SANTA FE SPGS, CA, 90670",,,POINT (NaN NaN)
1075,183625,MASSOUD KARIMZADEH,In LA County,LOS ANGELES,90025,"11750  WILSHIRE BLVD, LOS ANGELES, CA, 90025",34.048576,-118.461807,POINT (-118.461807 34.048576)
1076,168442,HOLOS INC,In LA County,N HOLLYWOOD,91606,"11739  VICTORY BLVD, N HOLLYWOOD, CA, 91606",34.186756,-118.3891124,POINT (-118.3891124 34.186756)
1077,168442,HOLOS INC,In LA County,N HOLLYWOOD,91606,"11739  VICTORY BLVD, N HOLLYWOOD, CA, 91606",34.186756,-118.3891124,POINT (-118.3891124 34.186756)
1078,182841,ALEX DOMINGUEZ,In LA County,WHITTIER,90606,"11713  1/2 WASHINGTON BLVD, WHITTIER, CA, 90606",,,POINT (NaN NaN)
1079,209296,MONICA C OROZCO,In LA County,WHITTIER,90606,"11713  1/2 WASHINGTON BLVD, WHITTIER, CA, 90606",,,POINT (NaN NaN)
1080,517143,HARBOR AREA GANG ALTERNATIVES PROGRAM,In LA County,LYNWOOD,90262,"11705  DEPUTY YAMAMOTO PL, LYNWOOD, CA, 90262",33.9271205,-118.2285296,POINT (-118.2285296 33.9271205)
1081,26223,GOLDEN WEST PIPE & SUPPLY CO,In LA County,DOWNEY,90241,"11700  WOODRUFF AVE, DOWNEY, CA, 90241",33.9301237,-118.1165892,POINT (-118.1165892 33.9301237)
1082,205727,A FLASH OF GLAM BY ROSE,In LA County,STUDIO CITY,91604,"11684  VENTURA BLVD , STUDIO CITY, CA, 91604",34.1410094,-118.3872303,POINT (-118.3872303 34.1410094)
1083,61247,ROYAL CONSTRUCTION CORP.,In LA County,ARCADIA,91006,"11680  GOLDRING RD , ARCADIA, CA, 91006",34.1011493,-118.007659,POINT (-118.007659 34.1011493)
1084,43998,"PACIFIC TRUCK EQUIPMENT, INC.",In LA County,WHITTIER,90606,"11655  WASHINGTON BLVD., WHITTIER, CA, 90606",33.9673285,-118.0509041,POINT (-118.0509041 33.9673285)
1085,117867,"JM HYDRAULICS, INC.",In LA County,SUN VALLEY,91352,"11628  SHELDON ST, SUN VALLEY, CA, 91352",34.2335693,-118.4015644,POINT (-118.4015644 34.2335693)
1086,514535,ABBOT INDUSTRIAL SUPPLIES INTERNATIONAL INC,In LA County,NORTH HOLLYWOOD,91605,"11604  HART STREET, NORTH HOLLYWOOD, CA, 91605",34.197484,-118.384424,POINT (-118.384424 34.197484)
1087,203905,JEFFERY L JEFFERSON JR,In LA County,WHITTIER,90606,"11603  WAKEMAN ST, WHITTIER, CA, 90606",33.9674595,-118.0690085,POINT (-118.0690085 33.9674595)
1088,210885,360MEDIA83 L.L.C,In LA County,WHITTIER,90606,"11603  WAKEMAN ST, WHITTIER, CA, 90606",33.9674595,-118.0690085,POINT (-118.0690085 33.9674595)
1089,503094,SHIELDS FOR FAMILIES,In LA County,LOS ANGELES,90047,"11601  S. WESTERN AVENUE, LOS ANGELES, CA, 90047",33.929132,-118.309061,POINT (-118.309061 33.929132)
1090,24327,MARX BROS FIRE EXTINGUISHER,In LA County,LOS ANGELES,90023,"1159  S SOTO ST, LOS ANGELES, CA, 90023",34.0275145,-118.2196072,POINT (-118.2196072 34.0275145)
1091,512065,RONS MAINTENANCE,In LA County,DOWNEY,90241,"11542  HORLEY AVE, DOWNEY, CA, 90241",33.9421227,-118.1453629,POINT (-118.1453629 33.9421227)
1092,104381,LEWIS SCHOEPLEIN ARCHITECTS,In LA County,LOS ANGELES,90064,"11533  W PICO BLVD, LOS ANGELES, CA, 90064",34.0335086,-118.4422788,POINT (-118.4422788 34.0335086)
1093,190811,BAYINFOTECH,Outside of LA County,DUBLIN,94568,"11501  DUBLIN BLVD , DUBLIN, CA, 94568",37.6991156,-121.9440022,POINT (-121.9440022 37.6991156)
1094,122421,UNIVERSAL ELECTRONIC ALARMS,In LA County,LANCASTER,93534,"1150  W AVENUE J , LANCASTER, CA, 93534",34.6895673,-118.1503931,POINT (-118.1503931 34.6895673)
1095,181896,FMF PANDION,Outside of LA County,ENCINITAS,92024,"1150  GARDEN VIEW RD , ENCINITAS, CA, 92024",33.0605866,-117.2664147,POINT (-117.2664147 33.0605866)
1096,187028,ABODE COMMUNITIES,In LA County,LOS ANGELES,90015,"1149  S HILL ST, LOS ANGELES, CA, 90015",34.039521,-118.2605458,POINT (-118.2605458 34.039521)
1097,155263,ASIAN AMERICANS ADVANCING JUSTICE- LOS ANGELES,In LA County,LOS ANGELES,90017,"1145  WILSHIRE BLVD., 2ND , LOS ANGELES, CA, 90017",,,POINT (NaN NaN)
1098,178867,FUELTEC,In LA County,DIAMOND BAR,91766,"1142  S DIAMOND BLVD , DIAMOND BAR, CA, 91766",34.0015265,-117.8105879,POINT (-117.8105879 34.0015265)
1099,178867,FUELTEC,In LA County,DIAMOND BAR,91765,"1142  S DIAMOND BAR BLVD, DIAMOND BAR, CA, 91765",34.0025254,-117.810427,POINT (-117.810427 34.0025254)
1100,209326,T AND A BUILDERS,In LA County,DOWNEY,90241,"11417  HORTON AVE, DOWNEY, CA, 90241",33.944544,-118.145993,POINT (-118.145993 33.944544)
1101,171211,QUEST PROJECT CONTROLS INC,In LA County,MONROVIA,91016,"114  W COLORADO BLVD, MONROVIA, CA, 91016",34.145378,-118.0345523,POINT (-118.0345523 34.145378)
1102,171211,QUEST PROJECT CONTROLS INC,In LA County,MONROVIA,91016,"114  W COLORADO BLVD, MONROVIA, CA, 91016",34.145378,-118.0345523,POINT (-118.0345523 34.145378)
1103,200633,"LA SECURITY CAMERAS, INC.",In LA County,SYLMAR,91342,"11375  KAMLOOPS ST, SYLMAR, CA, 91342",,,POINT (NaN NaN)
1104,145696,"AEGIS HC, LLC",Outside of LA County,LOS ANGELES,92685,"11350  SHERMAN WAY , LOS ANGELES, CA, 92685",34.201115,-118.378037,POINT (-118.378037 34.201115)
1105,137241,SAND BUILDING MATERIALS INC,In LA County,SAN FERNANDO,91340,"11321  SAN FERNANDO RD, SAN FERNANDO, CA, 91340",34.2902751,-118.4493588,POINT (-118.4493588 34.2902751)
1106,195047,805 DISCING AND GRADING INC.,Outside of LA County,THOUSAND OAKS,91360,"1128  BURTONWOOD AVE, THOUSAND OAKS, CA, 91360",34.1931251,-118.8646942,POINT (-118.8646942 34.1931251)
1107,126724,TAMARA GOULD,In LA County,TOPANGA,90290,"1127  CANYON TRL, TOPANGA, CA, 90290",34.1049435,-118.589988,POINT (-118.589988 34.1049435)
1108,126724,TAMARA GOULD,In LA County,TOPANGA,90290,"1127  CANYON TRAIL, TOPANGA, CA, 90290",34.1049435,-118.589988,POINT (-118.589988 34.1049435)
1109,188513,"OPEN TOP CREATIVITY, INC.",In LA County,N HOLLYWOOD,91601,"11218  LA MAIDA ST, N HOLLYWOOD, CA, 91601",34.1583285,-118.3751223,POINT (-118.3751223 34.1583285)
1110,125858,HANDS FOR HOPE,In LA County,N HOLLYWOOD,91601,"11210  OTSEGO ST, N HOLLYWOOD, CA, 91601",34.1628947,-118.3750308,POINT (-118.3750308 34.1628947)
1111,181699,HHJ CONSTRUCTION INC.,In LA County,LOS ANGELES,90061,"11156  S. MAIN STREET, LOS ANGELES, CA, 90061",33.9335226,-118.2737754,POINT (-118.2737754 33.9335226)
1112,189211,AARON PROCTOR,In LA County,N HOLLYWOOD,91606,"11140  SYLVAN ST, N HOLLYWOOD, CA, 91606",34.1847811,-118.3737241,POINT (-118.3737241 34.1847811)
1113,135862,DANIEL HERNANDEZ YOUTH FOUNDATION,In LA County,CERRITOS,90703,"11138  BUSINESS CIR, CERRITOS, CA, 90703",33.8716553,-118.0981364,POINT (-118.0981364 33.8716553)
1114,178405,PACTRACK INC,In LA County,S EL MONTE,91733,"11135  RUSH ST, S EL MONTE, CA, 91733",34.04872,-118.03326,POINT (-118.03326 34.04872)
1115,178405,PACTRACK INC,In LA County,S EL MONTE,91733,"11135  RUSH ST, S EL MONTE, CA, 91733",34.04872,-118.03326,POINT (-118.03326 34.04872)
1116,171989,"AF&S PRODUCTS & SERVICES, INC.",Outside of LA County,SAN DIEGO,92130,"11120  E OCEAN AIR DR , SAN DIEGO, CA, 92130",32.9203023,-117.216494,POINT (-117.216494 32.9203023)
1117,171989,"AF&S PRODUCTS & SERVICES, INC.",Outside of LA County,SAN DIEGO,92130,"11120  E OCEAN AIR DR , SAN DIEGO, CA, 92130",32.9203023,-117.216494,POINT (-117.216494 32.9203023)
1118,181441,"DRP ENGINEERING , INC",In LA County,MONTEREY PARK,91754,"1111  CORPORATE CENTER DR, MONTEREY PARK, CA, 91754",34.0506659,-118.1625743,POINT (-118.1625743 34.0506659)
1119,181441,"DRP ENGINEERING , INC",In LA County,MONTEREY PARK,91754,"1111  CORPORATE CENTER DR, MONTEREY PARK, CA, 91754",34.0506659,-118.1625743,POINT (-118.1625743 34.0506659)
1120,188235,COMPILER LLC,In LA County,LOS ANGELES,90029,"1110  N VIRGIL AVE PMB 94111, LOS ANGELES, CA, 90029",,,POINT (NaN NaN)
1121,184897,ADVETAGE SOLUTIONS LLC,In LA County,EL SEGUNDO,90245,"111  PENN ST, EL SEGUNDO, CA, 90245",33.91669,-118.410334,POINT (-118.410334 33.91669)
1122,160284,PACIFIC ENGINEERS GROUP,In LA County,BURBANK,91506,"1106  W MAGNOLIA BLVD , BURBANK, CA, 91506",34.1765908,-118.3206274,POINT (-118.3206274 34.1765908)
1123,160284,PACIFIC ENGINEERS GROUP,In LA County,BURBANK,91506,"1106  W MAGNOLIA BLVD, BURBANK, CA, 91506",34.1765908,-118.3206274,POINT (-118.3206274 34.1765908)
1124,204036,CRAFTWATER ENGINEERING INC,Outside of LA County,SAN DIEGO,92131,"11026  CAMINITO VISTA PACIFICA, SAN DIEGO, CA, 92131",32.91428,-117.093201,POINT (-117.093201 32.91428)
1125,186019,NOHO CONSTRUCTORS,In LA County,STUDIO CITY,91604,"11012  VENTURA BLVD, STUDIO CITY, CA, 91604",34.1405047,-118.3706256,POINT (-118.3706256 34.1405047)
1126,187492,"EDIGITALDEALS, INC.",In LA County,LOS ANGELES,90034,"11009  VENICE BLVD , LOS ANGELES, CA, 90034",34.0144292,-118.4140455,POINT (-118.4140455 34.0144292)
1127,187492,"EDIGITALDEALS, INC.",In LA County,LOS ANGELES,90034,"11009  VENICE BLVD, LOS ANGELES, CA, 90034",34.0144292,-118.4140455,POINT (-118.4140455 34.0144292)
1128,175228,"BUSINESS U, INC.",In LA County,LOS ANGELES,90024,"11000  WILSHIRE BLVD, LOS ANGELES, CA, 90024",34.0561358,-118.4482538,POINT (-118.4482538 34.0561358)
1129,205999,ADDISON-MILLER INC.,Outside of LA County,ORANGE,92868,"1100  W TOWN AND COUNTRY RD, ORANGE, CA, 92868",33.7760698,-117.8637518,POINT (-117.8637518 33.7760698)
1130,509769,CENTINELA YOUTH SERVICES INC,In LA County,INGLEWOOD,90301,"110  S LA BREA AVE, INGLEWOOD, CA, 90301",33.9626198,-118.353431,POINT (-118.353431 33.9626198)
1131,138927,BEACON ECONOMICS LLC,In LA County,LOS ANGELES,90036,"110  S FAIRFAX AVE, LOS ANGELES, CA, 90036",34.073612,-118.3609531,POINT (-118.3609531 34.073612)
1132,172124,"FATHERS AND MOTHERS WHO CARE, INC",In LA County,LOS ANGELES,90044,"10975  S VERMONT AVE, LOS ANGELES, CA, 90044",33.9358157,-118.2919094,POINT (-118.2919094 33.9358157)
1133,174432,"CROWN PROMOTIONS GROUP, INC.",In LA County,EL MONTE,91731,"10952  MAIN ST, EL MONTE, CA, 91731",34.0741965,-118.0361776,POINT (-118.0361776 34.0741965)
1134,174432,"CROWN PROMOTIONS GROUP, INC.",In LA County,EL MONTE,91731,"10952  MAIN ST, EL MONTE, CA, 91731",34.0741965,-118.0361776,POINT (-118.0361776 34.0741965)
1135,121321,PSYCHOLOGICAL CONSULTING ASSOCIATES INC,In LA County,LOS ANGELES,90024,"10940  WILSHIRE BLVD , LOS ANGELES, CA, 90024",34.0580322,-118.4450834,POINT (-118.4450834 34.0580322)
1136,180894,"TRIFILETTI CONSULTING, INC.",In LA County,CHATSWORTH,91311,"10850  DELCO AVE, CHATSWORTH, CA, 91311",34.2672072,-118.5791011,POINT (-118.5791011 34.2672072)
1137,195549,PJ EQUIPMENT RENTAL,In LA County,SANTA FE SPGS,90670,"10847  PAINTER AVE , SANTA FE SPGS, CA, 90670",,,POINT (NaN NaN)
1138,144300,LOWERS WELDING & FABRICATION,In LA County,SANTA FE SPRINGS,90670,"10847  PAINTER AVE, SANTA FE SPRINGS, CA, 90670",33.9346023,-118.0514549,POINT (-118.0514549 33.9346023)
1139,47424,HEALTH SCIENCE ASSOCIATES,Outside of LA County,LOS ALAMITOS,90720,"10771  NOEL ST, LOS ALAMITOS, CA, 90720",33.8054363,-118.0587874,POINT (-118.0587874 33.8054363)
1140,189861,MARQUEZ CABLE SYSTEMS INC,In LA County,SANTA FE SPGS,90670,"10759  FOREST ST, SANTA FE SPGS, CA, 90670",,,POINT (NaN NaN)
1141,180807,"SIGN TOPIA, INC.",In LA County,SUN VALLEY,91352,"10741  SHERMAN WAY, SUN VALLEY, CA, 91352",,,POINT (NaN NaN)
1142,153820,DUCKPUNK PRODUCTIONS,In LA County,LOS ANGELES,90034,"10728  WESTMINSTER AVE, LOS ANGELES, CA, 90034",34.0235011,-118.4116711,POINT (-118.4116711 34.0235011)
1143,117443,FIVE DOLLAR BLINDS,In LA County,S EL MONTE,91733,"10718  RUSH ST, S EL MONTE, CA, 91733",34.05177,-118.0397649,POINT (-118.0397649 34.05177)
1144,152003,MAIER INTERNATIONAL INC,In LA County,EL MONTE,91731,"10651  HICKSON ST, EL MONTE, CA, 91731",34.0811499,-118.0409974,POINT (-118.0409974 34.0811499)
1145,152003,MAIER INTERNATIONAL INC,In LA County,EL MONTE,91731,"10651  HICKSON ST, EL MONTE, CA, 91731",34.0811499,-118.0409974,POINT (-118.0409974 34.0811499)
1146,29316,ABISCO PRODUCTS CO,In LA County,SANTA FE SPRINGS,90670,"10612  PIONEER BLVD., SANTA FE SPRINGS, CA, 90670",33.9357592,-118.0816461,POINT (-118.0816461 33.9357592)
1147,189323,SOLAR CONNECTION INC,In LA County,MISSION HILLS,91345,"10600  SEPULVEDA BLVD, MISSION HILLS, CA, 91345",34.262974,-118.466775,POINT (-118.466775 34.262974)
1148,169922,AGRI-TURF DISTRIBUTING,In LA County,SANTA FE SPGS,90670,"10551  HATHAWAY DR, SANTA FE SPGS, CA, 90670",,,POINT (NaN NaN)
1149,510513,PACIFIC ASIAN CONSORTIUM,In LA County,LOS ANGELES,90017,"1055  WILSHIRE BLVD , LOS ANGELES, CA, 90017",34.052325,-118.2629377,POINT (-118.2629377 34.052325)
1150,109549,SAESHE,In LA County,LOS ANGELES,90017,"1055  W 7TH ST , LOS ANGELES, CA, 90017",34.0506875,-118.2634877,POINT (-118.2634877 34.0506875)
1151,204469,UNITED PROPERTY ADVOCATES INC,Outside of LA County,ROSEVILLE,95678,"1050  OPPORTUNITY DR , ROSEVILLE, CA, 95678",38.7449948,-121.307061,POINT (-121.307061 38.7449948)
1152,191274,RODGER J WRIGHT,In LA County,ARCADIA,91006,"105  W FLORAL AVE, ARCADIA, CA, 91006",34.1499516,-118.0346139,POINT (-118.0346139 34.1499516)
1153,190861,LANCASTER HOMELESS GROUP,In LA County,LANCASTER,93535,"104  E AVENUE K4, LANCASTER, CA, 93535",34.6715037,-118.0839618,POINT (-118.0839618 34.6715037)
1154,175399,"STRATO COMMUNICATIONS, INC",Outside of LA County,SACRAMENTO,95827,"10398  ROCKINGHAM DR , SACRAMENTO, CA, 95827",38.574713,-121.303802,POINT (-121.303802 38.574713)
1155,190228,SOUTH CAL GROUP SCG BUILDER,In LA County,TUJUNGA,91042,"10336  WILSEY AVE, TUJUNGA, CA, 91042",34.2567007,-118.296862,POINT (-118.296862 34.2567007)
1156,188472,HYPERIEN INC,In LA County,GLENDALE,91204,"1030  FLORENCE PLACE, GLENDALE, CA, 91204",34.1343891,-118.2599883,POINT (-118.2599883 34.1343891)
1157,171774,"JFS SPECIALTY SERVICES, INC.",In LA County,BURBANK,91502,"1026  N LAKE ST, BURBANK, CA, 91502",34.1858632,-118.3222391,POINT (-118.3222391 34.1858632)
1158,136573,PIGNX INC,In LA County,WHITTIER,90603,"10250  COLIMA RD, WHITTIER, CA, 90603",33.9512096,-118.0048418,POINT (-118.0048418 33.9512096)
1159,136573,PIGNX INC,In LA County,WHITTIER,90603,"10250  COLIMA RD, WHITTIER, CA, 90603",33.9512096,-118.0048418,POINT (-118.0048418 33.9512096)
1160,159611,NEXXSOL CORPORATION,In LA County,WEST COVINA,91790,"1024  S GLENDORA AVE, WEST COVINA, CA, 91790",34.0571466,-117.9364186,POINT (-117.9364186 34.0571466)
1161,193635,ARROYOWEST LLC,In LA County,S PASADENA,91030,"1024  CAWSTON AVE, S PASADENA, CA, 91030",,,POINT (NaN NaN)
1162,189440,FIRE STARTER STUDIOS,In LA County,BURBANK,91505,"1023  N HOLLYWOOD WAY, BURBANK, CA, 91505",34.1681489,-118.3472182,POINT (-118.3472182 34.1681489)
1163,152280,YOUNG WOMEN'S CHRISTIAN ASSOCIATION,In LA County,LOS ANGELES,90015,"1020  S OLIVE ST FL 7, LOS ANGELES, CA, 90015",,,POINT (NaN NaN)
1164,190961,IT SYSTEMS SOLUTIONS INC,In LA County,LOS ANGELES,90022,"1015  S WOODS AVE, LOS ANGELES, CA, 90022",34.0175996,-118.1595251,POINT (-118.1595251 34.0175996)
1165,508984,AAA ELECTRICAL SUPPLY,In LA County,MONTEBELLO,90640,"1014  S MONTEBELLO BLVD, MONTEBELLO, CA, 90640",33.9932052,-118.1165045,POINT (-118.1165045 33.9932052)
1166,155966,THREE SQUARES INTERNATIONAL,In LA County,SANTA MONICA,90401,"1014  BROADWAY PMB 105, SANTA MONICA, CA, 90401",,,POINT (NaN NaN)
1167,111181,PARTNERS IN DIVERSITY INC,In LA County,SANTA FE SPGS,90670,"10100  PIONEER BLVD, SANTA FE SPGS, CA, 90670",,,POINT (NaN NaN)
1168,103355,YWCA OF SAN GABRIEL VALLEY,In LA County,COVINA,91723,"101  S BARRANCA AVE, COVINA, CA, 91723",34.0823543,-117.8813365,POINT (-117.8813365 34.0823543)
1169,200628,IBILOLA OGUN,Out of State,ROSELAND,7068,"101  EISENHOWER PKWY , ROSELAND, CA, 7068",,,POINT (NaN NaN)
1170,200628,IBILOLA OGUN,Out of State,ROSELAND,7068,"101  EISENHOWER PKWY , ROSELAND, CA, 7068",,,POINT (NaN NaN)
1171,200628,IBILOLA OGUN,Out of State,ROSELAND,7068,"101  EISENHOWER PKWY, ROSELAND, CA, 7068",,,POINT (NaN NaN)
1172,7980,"WASHEX MACHINERY OF CALIFORNIA, INC.",In LA County,BURBANK,91503,"101  E. SANTA ANITA AVE   .P.O. BOX 310, BURBANK, CA, 91503",,,POINT (NaN NaN)
1173,212187,COSMIC RELIABLE SERVICES,In LA County,LANCASTER,93535,"1008  GLENN CT, LANCASTER, CA, 93535",34.6715337,-118.1118464,POINT (-118.1118464 34.6715337)
1174,206091,E&E PROPERTY SERVICES LLC,In LA County,ARLETA,91331,"10075  ARLETA AVE, ARLETA, CA, 91331",34.2535239,-118.4383235,POINT (-118.4383235 34.2535239)
1175,130376,CASTLEROCK ENVIRONMENTAL INC,In LA County,SANTA FE SPGS,90670,"10040  PAINTER AVE, SANTA FE SPGS, CA, 90670",,,POINT (NaN NaN)
1176,145888,PRIDE INDUSTRIES,Outside of LA County,ROSEVILLE,95747,"10030  FOOTHILLS BLVD, ROSEVILLE, CA, 95747",38.7832229,-121.313873,POINT (-121.313873 38.7832229)
1177,174493,REMDOX,In LA County,LOS ANGELES,90034,"10020  NATIONAL BLVD., LOS ANGELES, CA, 90034",34.0289776,-118.4041527,POINT (-118.4041527 34.0289776)
1178,54426,SHOWREEL INTERNATIONAL INC,In LA County,LOS ANGELES,90017,"1001  WILSHIRE BLVD, LOS ANGELES, CA, 90017",34.051618,-118.261561,POINT (-118.261561 34.051618)
1179,208466,CITY BBQ & CATERING,In LA County,E RNCHO DMNGZ,90221,"1001  E ROSECRANS AVE, E RNCHO DMNGZ, CA, 90221",,,POINT (NaN NaN)
1180,152079,FACTORY DIRECT DISTRIBUTION CORP,Outside of LA County,SAN DIEGO,92118,"1001  B AVENUE , SAN DIEGO, CA, 92118",32.684575,-117.177354,POINT (-117.177354 32.684575)
1181,184623,"ALLIANCE PLANNING AND MANAGEMENT, INC.",In LA County,BELLFLOWER,90706,"10009  ARTESIA BLVD, BELLFLOWER, CA, 90706",33.8743063,-118.1207152,POINT (-118.1207152 33.8743063)
1182,173859,GLORY TO THE LORD INVESTMENTS INC,Outside of LA County,OXNARD,93036,"1000  TOWN CENTER DR , OXNARD, CA, 93036",34.2431288,-119.1820266,POINT (-119.1820266 34.2431288)
1183,159340,"BUDLONG & ASSOCIATES, INC.",Outside of LA County,CAMARILLO,93010,"1000  PASEO CAMARILLO, CAMARILLO, CA, 93010",34.22074,-119.056447,POINT (-119.056447 34.22074)
1184,205605,CENTURY AFFORDABLE DEVELOPMENT INC.,In LA County,CULVER CITY,90230,"1000  CORPORATE POINTE , CULVER CITY, CA, 90230",,,POINT (NaN NaN)
1185,192142,"OHANAVETS, INC.",In LA County,SANTA MONICA,90401,"100  WILSHIRE BLVD , SANTA MONICA, CA, 90401",34.0167162,-118.500626,POINT (-118.500626 34.0167162)
1186,192142,"OHANAVETS, INC.",In LA County,SANTA MONICA,90401,"100  WILSHIRE BLVD , SANTA MONICA, CA, 90401",34.0167162,-118.500626,POINT (-118.500626 34.0167162)
1187,211475,"ABUNDANT180CA, LLC",In LA County,SANTA MONICA,90401,"100  WILSHIRE BLVD, SANTA MONICA, CA, 90401",34.0167162,-118.500626,POINT (-118.500626 34.0167162)
1188,173476,GORILLA STATIONERS,In LA County,LONG BEACH,90802,"100  W BROADWAY, LONG BEACH, CA, 90802",33.769216,-118.193705,POINT (-118.193705 33.769216)
1189,505703,ASIAN YOUTH CENTER,In LA County,SAN GABRIEL,91776,"100  CLARY AVE, SAN GABRIEL, CA, 91776",34.0975957,-118.1002611,POINT (-118.1002611 34.0975957)
